{"type":"FeatureCollection","properties":{"state_code":"CH","state_name":"Chandigarh","data_source":"DataMeet India Maps"},"features":[{"type":"Feature","geometry":{"type":"Polygon","coordinates":[[[76.8415,30.76],[76.836,30.7362],[76.838,30.727],[76.8476,30.7205],[76.8495,30.7104],[76.8415,30.7021],[76.8343,30.6929],[76.8308,30.6867],[76.833,30.6819],[76.8236,30.6811],[76.8191,30.6764],[76.816,30.6716],[76.8075,30.6655],[76.8024,30.6667],[76.7838,30.6741],[76.7581,30.6867],[76.7516,30.6854],[76.746,30.6934],[76.7436,30.6937],[76.7406,30.6919],[76.7394,30.6922],[76.7377,30.7],[76.7392,30.7012],[76.74,30.7038],[76.7386,30.7062],[76.7347,30.7083],[76.7283,30.7096],[76.7285,30.7112],[76.7307,30.7137],[76.7311,30.7169],[76.7293,30.7249],[76.7243,30.7286],[76.7231,30.7318],[76.7144,30.7416],[76.7086,30.7404],[76.7058,30.741],[76.7038,30.743],[76.7065,30.749],[76.7061,30.7537],[76.7038,30.7564],[76.7211,30.7664],[76.7315,30.7654],[76.736,30.767],[76.7425,30.7726],[76.7445,30.7733],[76.7438,30.7773],[76.7484,30.7793],[76.7525,30.7824],[76.7515,30.7861],[76.7533,30.7874],[76.7563,30.7878],[76.759,30.7909],[76.7642,30.7931],[76.7727,30.7953],[76.7809,30.7914],[76.7867,30.7842],[76.7906,30.7817],[76.7896,30.7803],[76.786,30.7793],[76.7826,30.7732],[76.7888,30.7723],[76.7942,30.7701],[76.802,30.7772],[76.8094,30.782],[76.8111,30.7815],[76.8155,30.778],[76.8172,30.7752],[76.8167,30.7738],[76.8046,30.7657],[76.8064,30.7627],[76.8147,30.759],[76.8253,30.7628],[76.8415,30.76]]]},"properties":{"district_name":"Chandigarh","raw_district_name":"Chandigarh","state_code":"CH","state_name":"Chandigarh","census_code":55,"data_source":"DataMeet India Maps (Census 2011 Boundaries)"}}]}