{"type":"FeatureCollection","properties":{"state_code":"DD","state_name":"Dadra and Nagar Haveli and Daman and Diu","data_source":"DataMeet India Maps"},"features":[{"type":"Feature","geometry":{"type":"Polygon","coordinates":[[[72.802,20.3742],[72.8042,20.3769],[72.8067,20.3842],[72.8111,20.3948],[72.8131,20.4021],[72.815,20.409],[72.817,20.4108],[72.8228,20.4127],[72.8248,20.414],[72.8248,20.4149],[72.8243,20.4163],[72.8219,20.4182],[72.8209,20.4191],[72.8205,20.4229],[72.8195,20.4304],[72.8211,20.4388],[72.8218,20.4423],[72.8256,20.4507],[72.8403,20.4691],[72.8446,20.4746],[72.8526,20.4694],[72.8551,20.468],[72.8578,20.4666],[72.8743,20.463],[72.8825,20.4628],[72.8856,20.4591],[72.8874,20.4533],[72.89,20.4489],[72.8933,20.4454],[72.8928,20.4417],[72.8888,20.4392],[72.8849,20.4401],[72.877,20.4446],[72.8734,20.4442],[72.8681,20.4344],[72.8616,20.4284],[72.8593,20.4244],[72.8603,20.4196],[72.8651,20.4162],[72.8689,20.4158],[72.8796,20.4185],[72.8889,20.4191],[72.8958,20.4214],[72.8996,20.4192],[72.9026,20.4152],[72.9033,20.4103],[72.9004,20.4053],[72.8895,20.3983],[72.8863,20.3934],[72.8869,20.3872],[72.8887,20.3842],[72.8956,20.3804],[72.8964,20.3767],[72.8935,20.3721],[72.8809,20.3696],[72.869,20.3713],[72.8643,20.3734],[72.8541,20.373],[72.8479,20.3749],[72.8415,20.3754],[72.8296,20.3697],[72.8233,20.3686],[72.8202,20.3694],[72.8062,20.3727],[72.802,20.3742]]]},"properties":{"district_name":"Daman","raw_district_name":"Daman","state_code":"DD","state_name":"Dadra and Nagar Haveli and Daman and Diu","census_code":495,"data_source":"DataMeet India Maps (Census 2011 Boundaries)"}},{"type":"Feature","geometry":{"type":"MultiPolygon","coordinates":[[[[70.9242,20.7385],[70.9248,20.738],[70.9255,20.7379],[70.9256,20.7375],[70.9264,20.7371],[70.9275,20.7368],[70.9286,20.7365],[70.9297,20.7365],[70.9306,20.7365],[70.9312,20.7365],[70.9321,20.7364],[70.9328,20.736],[70.9334,20.7351],[70.934,20.7344],[70.9347,20.7342],[70.9353,20.734],[70.9359,20.7336],[70.9365,20.7334],[70.937,20.7331],[70.9378,20.7327],[70.9386,20.7327],[70.9393,20.7326],[70.9406,20.7327],[70.9414,20.7331],[70.9422,20.7332],[70.943,20.7336],[70.9439,20.7336],[70.9449,20.7339],[70.9462,20.7341],[70.9475,20.7344],[70.9499,20.7344],[70.9526,20.7344],[70.9543,20.7345],[70.9549,20.7348],[70.9549,20.7346],[70.9563,20.7346],[70.9563,20.7349],[70.9568,20.7349],[70.9568,20.7351],[70.9571,20.7351],[70.9571,20.7354],[70.9576,20.7354],[70.9576,20.7357],[70.9582,20.7357],[70.9582,20.736],[70.9596,20.736],[70.9596,20.7362],[70.9601,20.7362],[70.9601,20.736],[70.9604,20.736],[70.9604,20.7357],[70.9607,20.7357],[70.9607,20.7354],[70.9612,20.7354],[70.9612,20.7351],[70.9621,20.7351],[70.9621,20.7346],[70.9626,20.7346],[70.9626,20.7338],[70.9629,20.7338],[70.9629,20.7335],[70.9632,20.7335],[70.9632,20.7332],[70.9629,20.7332],[70.9629,20.7329],[70.9638,20.7329],[70.9638,20.7321],[70.9635,20.7321],[70.9635,20.7315],[70.9632,20.7315],[70.9632,20.7307],[70.9629,20.7307],[70.9629,20.7299],[70.9626,20.7299],[70.9626,20.7294],[70.9626,20.729],[70.9624,20.729],[70.9624,20.7285],[70.9621,20.7285],[70.9621,20.7279],[70.9618,20.7279],[70.9618,20.7271],[70.9615,20.7271],[70.9615,20.726],[70.9612,20.726],[70.9612,20.7232],[70.9615,20.7232],[70.9615,20.7226],[70.9618,20.7226],[70.9618,20.7224],[70.9621,20.7224],[70.9621,20.7221],[70.9624,20.7221],[70.9624,20.7218],[70.9629,20.7218],[70.9629,20.7215],[70.9635,20.7215],[70.9635,20.7218],[70.9638,20.7218],[70.9638,20.7215],[70.964,20.7215],[70.964,20.7218],[70.9651,20.7218],[70.9651,20.7221],[70.9654,20.7221],[70.9654,20.7229],[70.9635,20.7229],[70.9635,20.7232],[70.9629,20.7232],[70.9629,20.7235],[70.9626,20.7235],[70.9626,20.7251],[70.9629,20.7251],[70.9629,20.7257],[70.9632,20.7257],[70.9632,20.726],[70.9635,20.726],[70.9635,20.7265],[70.9638,20.7265],[70.9638,20.7268],[70.964,20.7268],[70.964,20.7271],[70.9643,20.7271],[70.9643,20.7274],[70.9646,20.7274],[70.9646,20.7276],[70.9649,20.7276],[70.9649,20.7279],[70.9651,20.7279],[70.9651,20.7282],[70.9654,20.7282],[70.9654,20.7285],[70.9676,20.7285],[70.9676,20.7282],[70.9682,20.7282],[70.9682,20.7279],[70.969,20.7279],[70.969,20.7276],[70.9707,20.7276],[70.9707,20.7271],[70.9718,20.7271],[70.9718,20.7268],[70.9724,20.7268],[70.9724,20.7265],[70.9729,20.7265],[70.9729,20.7263],[70.9737,20.7263],[70.9737,20.726],[70.9746,20.726],[70.9746,20.7257],[70.9754,20.7257],[70.9754,20.7254],[70.9757,20.7254],[70.9757,20.7251],[70.976,20.7251],[70.976,20.7249],[70.9763,20.7249],[70.9763,20.7243],[70.9765,20.7243],[70.9765,20.724],[70.9768,20.724],[70.9768,20.7238],[70.9771,20.7238],[70.9771,20.7232],[70.9774,20.7232],[70.9774,20.7229],[70.9776,20.7229],[70.9776,20.7226],[70.9779,20.7226],[70.9779,20.7224],[70.9782,20.7224],[70.9782,20.7221],[70.9788,20.7221],[70.9788,20.7218],[70.979,20.7218],[70.979,20.7215],[70.9793,20.7215],[70.9793,20.7213],[70.9796,20.7213],[70.9796,20.7207],[70.9799,20.7207],[70.9799,20.7204],[70.9815,20.7204],[70.9815,20.7201],[70.9824,20.7201],[70.9824,20.7199],[70.9835,20.7199],[70.9835,20.7201],[70.986,20.7201],[70.986,20.7199],[70.9863,20.7199],[70.9863,20.7196],[70.9865,20.7196],[70.9865,20.7193],[70.9876,20.7193],[70.9876,20.719],[70.9896,20.719],[70.9896,20.7188],[70.9901,20.7188],[70.9901,20.7185],[70.9907,20.7185],[70.9907,20.7182],[70.991,20.7182],[70.991,20.7179],[70.9913,20.7179],[70.9913,20.7174],[70.9915,20.7174],[70.9915,20.7171],[70.9921,20.7171],[70.9921,20.7168],[70.9932,20.7168],[70.9932,20.7165],[70.994,20.7165],[70.994,20.7162],[70.9945,20.7162],[70.9945,20.7162],[70.9971,20.7162],[70.9971,20.716],[70.9974,20.716],[70.9974,20.7157],[70.9976,20.7157],[70.9976,20.7144],[70.9976,20.714],[70.9974,20.714],[70.9974,20.7135],[70.9971,20.7135],[70.9971,20.7132],[70.9968,20.7132],[70.9968,20.7129],[70.9962,20.7129],[70.9962,20.7124],[70.996,20.7124],[70.996,20.7121],[70.9951,20.7121],[70.9951,20.7118],[70.9949,20.7118],[70.9949,20.7113],[70.9946,20.7113],[70.9946,20.711],[70.9943,20.711],[70.9943,20.7108],[70.9943,20.7108],[70.9943,20.7107],[70.994,20.7107],[70.994,20.7107],[70.9935,20.7107],[70.9935,20.7104],[70.9935,20.7104],[70.9935,20.7104],[70.9934,20.7104],[70.9934,20.7104],[70.9929,20.7104],[70.9929,20.7102],[70.9929,20.7102],[70.9929,20.7101],[70.9928,20.7101],[70.9928,20.7101],[70.9915,20.7101],[70.9915,20.7099],[70.9904,20.7099],[70.9904,20.7093],[70.9901,20.7093],[70.9901,20.709],[70.9899,20.709],[70.9899,20.7088],[70.9899,20.7087],[70.9899,20.7087],[70.9896,20.7087],[70.9896,20.7086],[70.9896,20.7086],[70.9896,20.7085],[70.9892,20.7085],[70.9892,20.7085],[70.989,20.7085],[70.989,20.7087],[70.9887,20.7087],[70.9887,20.709],[70.9885,20.709],[70.9885,20.7093],[70.9879,20.7093],[70.9879,20.7096],[70.9868,20.7096],[70.9868,20.7093],[70.9857,20.7093],[70.9857,20.709],[70.9851,20.709],[70.9851,20.7085],[70.9849,20.7085],[70.9849,20.7079],[70.9846,20.7079],[70.9846,20.7076],[70.9835,20.7076],[70.9835,20.7074],[70.9821,20.7074],[70.9821,20.7071],[70.9815,20.7071],[70.9815,20.7068],[70.981,20.7068],[70.981,20.7065],[70.9804,20.7065],[70.9804,20.7063],[70.9801,20.7063],[70.9801,20.706],[70.9793,20.706],[70.9793,20.7057],[70.979,20.7057],[70.979,20.7054],[70.9788,20.7054],[70.9788,20.7046],[70.9785,20.7046],[70.9785,20.7045],[70.9785,20.7045],[70.9785,20.7043],[70.9782,20.7043],[70.9782,20.704],[70.9779,20.704],[70.9779,20.7038],[70.9776,20.7038],[70.9776,20.7035],[70.9774,20.7035],[70.9774,20.7021],[70.9774,20.7018],[70.9771,20.7018],[70.9771,20.7015],[70.9763,20.7015],[70.9763,20.7018],[70.976,20.7018],[70.976,20.702],[70.976,20.7021],[70.9757,20.7021],[70.9757,20.7029],[70.976,20.7029],[70.976,20.7032],[70.9763,20.7032],[70.9763,20.704],[70.9743,20.704],[70.9743,20.7038],[70.9729,20.7038],[70.9729,20.704],[70.9726,20.704],[70.9726,20.7046],[70.9724,20.7046],[70.9724,20.7043],[70.9721,20.7043],[70.9721,20.704],[70.9715,20.704],[70.9715,20.7043],[70.9707,20.7043],[70.9707,20.7046],[70.9704,20.7046],[70.9704,20.7049],[70.9699,20.7049],[70.9699,20.7054],[70.9701,20.7054],[70.9701,20.7057],[70.9704,20.7057],[70.9704,20.7063],[70.9704,20.7063],[70.9704,20.7068],[70.9701,20.7068],[70.9701,20.7071],[70.9674,20.7071],[70.9674,20.7069],[70.9674,20.7069],[70.9674,20.7068],[70.9668,20.7068],[70.9668,20.7065],[70.9662,20.7065],[70.9662,20.7063],[70.966,20.7063],[70.966,20.706],[70.9657,20.706],[70.9657,20.7057],[70.9654,20.7057],[70.9654,20.7054],[70.964,20.7054],[70.964,20.7057],[70.9624,20.7057],[70.9624,20.7063],[70.9615,20.7063],[70.9615,20.7065],[70.9604,20.7065],[70.9604,20.7068],[70.9601,20.7068],[70.9601,20.7063],[70.9599,20.7063],[70.9599,20.706],[70.959,20.706],[70.959,20.7057],[70.9579,20.7057],[70.9579,20.7054],[70.9578,20.7054],[70.9576,20.7054],[70.9576,20.7051],[70.9574,20.7051],[70.9574,20.7049],[70.9568,20.7049],[70.9568,20.7046],[70.9563,20.7046],[70.9563,20.7043],[70.956,20.7043],[70.956,20.704],[70.9554,20.704],[70.9554,20.7038],[70.9518,20.7038],[70.9518,20.704],[70.951,20.704],[70.951,20.7043],[70.9504,20.7043],[70.9504,20.7046],[70.9499,20.7046],[70.9499,20.7049],[70.9488,20.7049],[70.9488,20.7051],[70.9476,20.7051],[70.9476,20.7054],[70.946,20.7054],[70.946,20.7057],[70.9438,20.7057],[70.9438,20.706],[70.9432,20.706],[70.9432,20.7063],[70.9424,20.7063],[70.9424,20.7065],[70.9415,20.7065],[70.9415,20.7068],[70.941,20.7068],[70.941,20.7071],[70.9393,20.7071],[70.9393,20.7074],[70.939,20.7074],[70.939,20.7076],[70.9388,20.7076],[70.9388,20.7079],[70.9385,20.7079],[70.9385,20.7082],[70.9379,20.7082],[70.9379,20.709],[70.9376,20.709],[70.9376,20.7093],[70.9374,20.7093],[70.9374,20.7096],[70.9371,20.7096],[70.9371,20.7099],[70.9365,20.7099],[70.9365,20.7101],[70.936,20.7101],[70.936,20.7104],[70.9354,20.7104],[70.9354,20.7107],[70.9346,20.7107],[70.9346,20.711],[70.9329,20.711],[70.9329,20.7113],[70.9318,20.7113],[70.9318,20.7115],[70.9294,20.7115],[70.9294,20.7115],[70.9293,20.7115],[70.9293,20.7118],[70.9251,20.7118],[70.9251,20.7115],[70.9235,20.7115],[70.9235,20.7113],[70.9226,20.7113],[70.9226,20.711],[70.9218,20.711],[70.9218,20.7107],[70.9204,20.7107],[70.9204,20.7104],[70.9193,20.7104],[70.9193,20.7101],[70.9187,20.7101],[70.9187,20.7099],[70.9185,20.7099],[70.9185,20.7096],[70.9176,20.7096],[70.9176,20.7093],[70.9174,20.7093],[70.9174,20.7087],[70.9171,20.7087],[70.9171,20.7085],[70.9165,20.7085],[70.9165,20.7082],[70.9163,20.7082],[70.9163,20.7076],[70.916,20.7076],[70.916,20.7065],[70.9157,20.7065],[70.9157,20.7057],[70.9154,20.7057],[70.9154,20.7049],[70.9157,20.7049],[70.9157,20.7035],[70.916,20.7035],[70.916,20.7026],[70.9163,20.7027],[70.9163,20.7024],[70.9172,20.7024],[70.9172,20.7024],[70.9182,20.7024],[70.9182,20.7021],[70.9179,20.7021],[70.9179,20.7018],[70.9179,20.7018],[70.9179,20.7015],[70.9171,20.7015],[70.9171,20.7013],[70.9165,20.7013],[70.9165,20.701],[70.9157,20.701],[70.9157,20.7007],[70.9154,20.7007],[70.9154,20.7004],[70.9151,20.7004],[70.9151,20.7001],[70.9149,20.7001],[70.9149,20.6999],[70.9143,20.6999],[70.9143,20.6996],[70.914,20.6996],[70.914,20.699],[70.9126,20.699],[70.9126,20.6993],[70.9118,20.6993],[70.9118,20.7004],[70.9115,20.7004],[70.9115,20.7015],[70.9115,20.7018],[70.9106,20.7018],[70.9101,20.7018],[70.9101,20.7015],[70.9099,20.7015],[70.9099,20.701],[70.9093,20.701],[70.9093,20.7007],[70.9076,20.7007],[70.9076,20.7004],[70.9074,20.7004],[70.9074,20.7007],[70.9062,20.7007],[70.9062,20.7004],[70.9051,20.7004],[70.9051,20.7001],[70.9035,20.7001],[70.9035,20.6999],[70.9028,20.6999],[70.9028,20.6999],[70.9026,20.6999],[70.9026,20.6996],[70.9015,20.6996],[70.9015,20.6993],[70.9013,20.6993],[70.9013,20.699],[70.9001,20.699],[70.9001,20.6988],[70.8993,20.6988],[70.8993,20.699],[70.899,20.699],[70.899,20.6993],[70.8988,20.6993],[70.8988,20.6996],[70.8985,20.6996],[70.8985,20.6999],[70.8979,20.6999],[70.8979,20.7001],[70.8974,20.7001],[70.8974,20.7004],[70.8971,20.7004],[70.8971,20.701],[70.8974,20.701],[70.8974,20.7013],[70.8976,20.7013],[70.8976,20.7021],[70.8979,20.7021],[70.8979,20.7027],[70.8979,20.7027],[70.8979,20.7038],[70.8976,20.7038],[70.8976,20.7043],[70.8974,20.7043],[70.8974,20.7049],[70.8965,20.7049],[70.8965,20.7051],[70.8962,20.7051],[70.8962,20.7057],[70.896,20.7057],[70.896,20.706],[70.8958,20.706],[70.8954,20.706],[70.8954,20.7063],[70.8951,20.7063],[70.8951,20.7065],[70.8949,20.7065],[70.8949,20.7068],[70.8946,20.7068],[70.8946,20.7071],[70.8943,20.7071],[70.8943,20.7074],[70.8938,20.7074],[70.8938,20.7076],[70.8929,20.7076],[70.8929,20.7079],[70.8921,20.7079],[70.8921,20.7082],[70.8907,20.7082],[70.8907,20.7085],[70.8899,20.7085],[70.8899,20.7087],[70.8885,20.7087],[70.8885,20.709],[70.8876,20.709],[70.8876,20.7093],[70.8857,20.7093],[70.8857,20.7096],[70.8854,20.7096],[70.8854,20.7093],[70.8843,20.7093],[70.8843,20.7096],[70.8807,20.7096],[70.8807,20.7093],[70.878,20.7093],[70.878,20.7093],[70.8768,20.7093],[70.8768,20.709],[70.8746,20.709],[70.8746,20.7093],[70.874,20.7093],[70.874,20.7096],[70.8738,20.7096],[70.8738,20.7098],[70.8735,20.7099],[70.8735,20.7121],[70.8732,20.7121],[70.8732,20.7126],[70.8735,20.7126],[70.8735,20.7129],[70.8738,20.7129],[70.8738,20.7149],[70.8735,20.7149],[70.8735,20.7151],[70.8738,20.7151],[70.8738,20.7157],[70.8735,20.7157],[70.8735,20.7179],[70.8738,20.7179],[70.8738,20.7188],[70.8743,20.7188],[70.8743,20.719],[70.8746,20.719],[70.8746,20.7193],[70.8751,20.7193],[70.8751,20.7196],[70.8754,20.7196],[70.8754,20.7199],[70.876,20.7199],[70.876,20.7201],[70.8763,20.7201],[70.8763,20.7204],[70.8765,20.7204],[70.8765,20.7207],[70.8768,20.7207],[70.8768,20.7213],[70.8771,20.7213],[70.8771,20.7215],[70.8776,20.7215],[70.8776,20.7218],[70.8779,20.7218],[70.8779,20.7224],[70.8782,20.7224],[70.8782,20.7226],[70.8785,20.7226],[70.8785,20.7229],[70.879,20.7229],[70.879,20.7232],[70.8793,20.7232],[70.8793,20.7235],[70.8796,20.7235],[70.8796,20.7238],[70.8799,20.7238],[70.8799,20.724],[70.8801,20.724],[70.8801,20.7251],[70.8804,20.7251],[70.8804,20.7254],[70.881,20.7254],[70.881,20.7257],[70.8807,20.7257],[70.8807,20.7263],[70.881,20.7263],[70.881,20.7268],[70.8813,20.7268],[70.8813,20.7271],[70.8818,20.7271],[70.8818,20.7274],[70.8821,20.7274],[70.8821,20.7279],[70.8824,20.7279],[70.8824,20.7288],[70.8829,20.7288],[70.8829,20.729],[70.8835,20.729],[70.8835,20.7293],[70.884,20.7293],[70.884,20.7296],[70.8849,20.7296],[70.8849,20.7299],[70.8879,20.7299],[70.8879,20.7301],[70.8888,20.7301],[70.8888,20.7304],[70.8904,20.7304],[70.8904,20.7307],[70.8915,20.7307],[70.8915,20.731],[70.8921,20.731],[70.8921,20.7313],[70.8929,20.7313],[70.8929,20.7315],[70.8935,20.7315],[70.8935,20.7318],[70.8962,20.7318],[70.8962,20.7321],[70.8976,20.7321],[70.8976,20.7324],[70.899,20.7324],[70.899,20.7326],[70.8993,20.7326],[70.8993,20.7324],[70.8996,20.7324],[70.8996,20.7326],[70.9007,20.7326],[70.9007,20.7324],[70.9013,20.7324],[70.9013,20.7326],[70.9015,20.7326],[70.9015,20.7329],[70.9021,20.7329],[70.9021,20.7332],[70.9029,20.7332],[70.9029,20.7338],[70.9032,20.7338],[70.9032,20.734],[70.9043,20.734],[70.9043,20.7343],[70.9051,20.7343],[70.9051,20.7346],[70.9057,20.7346],[70.9057,20.7349],[70.9065,20.7349],[70.9065,20.7346],[70.9079,20.7346],[70.9079,20.7349],[70.9082,20.7349],[70.9082,20.7351],[70.909,20.7351],[70.909,20.7354],[70.9101,20.7354],[70.9101,20.7357],[70.9106,20.7357],[70.9118,20.7357],[70.9118,20.7354],[70.9115,20.7354],[70.9115,20.7351],[70.9124,20.7351],[70.9124,20.7357],[70.914,20.7357],[70.914,20.7354],[70.9168,20.7354],[70.9176,20.7354],[70.9176,20.7357],[70.9182,20.7357],[70.9182,20.736],[70.919,20.736],[70.919,20.7362],[70.9196,20.7362],[70.9196,20.7365],[70.9201,20.7365],[70.9201,20.7368],[70.9204,20.7368],[70.9204,20.7371],[70.9201,20.7371],[70.9201,20.7374],[70.9199,20.7374],[70.9199,20.7379],[70.9196,20.7379],[70.9196,20.7374],[70.9195,20.7374],[70.9193,20.7378],[70.9193,20.7383],[70.9195,20.7391],[70.92,20.7395],[70.9208,20.7395],[70.9215,20.7397],[70.9222,20.7398],[70.9228,20.7399],[70.9234,20.7399],[70.9241,20.7399],[70.9241,20.7395],[70.9241,20.7391],[70.9242,20.7385]]],[[[71.0089,20.7444],[71.013,20.7399],[71.011,20.7399],[71.011,20.7396],[71.0107,20.7396],[71.0107,20.7393],[71.009,20.7393],[71.009,20.7388],[71.0079,20.7388],[71.0079,20.7385],[71.0068,20.7385],[71.0068,20.7379],[71.0065,20.7379],[71.0065,20.7376],[71.0057,20.7376],[71.0057,20.7374],[71.0049,20.7374],[71.0049,20.7371],[71.004,20.7371],[71.004,20.7368],[71.0032,20.7368],[71.0032,20.7365],[71.0026,20.7365],[71.0026,20.7362],[71.0024,20.7362],[71.0024,20.736],[71.0018,20.736],[71.0018,20.7357],[71.0015,20.7357],[71.0015,20.7354],[71.001,20.7354],[71.001,20.7351],[70.9999,20.7351],[70.9993,20.7351],[70.9993,20.7349],[70.9988,20.7349],[70.9988,20.7346],[70.9985,20.7346],[70.9985,20.7343],[70.9982,20.7343],[70.9982,20.734],[70.9976,20.734],[70.9976,20.7338],[70.9974,20.7338],[70.9974,20.7335],[70.9971,20.7335],[70.9971,20.7332],[70.9965,20.7332],[70.9965,20.7329],[70.996,20.7329],[70.996,20.7326],[70.9951,20.7326],[70.9951,20.7324],[70.994,20.7324],[70.994,20.7318],[70.9938,20.7318],[70.9938,20.7313],[70.9935,20.7313],[70.9935,20.731],[70.9929,20.731],[70.9929,20.7307],[70.9926,20.7307],[70.9926,20.7301],[70.9924,20.7301],[70.9924,20.7296],[70.9921,20.7296],[70.9921,20.7293],[70.9915,20.7293],[70.9915,20.7288],[70.9913,20.7288],[70.9913,20.7282],[70.991,20.7282],[70.991,20.7274],[70.9907,20.7274],[70.9907,20.726],[70.9904,20.726],[70.9904,20.7257],[70.9901,20.7257],[70.9901,20.7251],[70.9901,20.7251],[70.9899,20.7251],[70.9899,20.7246],[70.9896,20.7246],[70.9896,20.724],[70.9893,20.724],[70.9893,20.7235],[70.989,20.7235],[70.989,20.7232],[70.9885,20.7232],[70.9885,20.7229],[70.9882,20.7229],[70.9882,20.7226],[70.9879,20.7226],[70.9879,20.7224],[70.9876,20.7224],[70.9876,20.7221],[70.9868,20.7221],[70.9868,20.7224],[70.9865,20.7224],[70.9865,20.7226],[70.9863,20.7226],[70.9863,20.724],[70.986,20.724],[70.986,20.7243],[70.9857,20.7243],[70.9857,20.7246],[70.9854,20.7246],[70.9854,20.7249],[70.9849,20.7249],[70.9849,20.7251],[70.9846,20.7251],[70.9846,20.7254],[70.984,20.7254],[70.984,20.7257],[70.9838,20.7257],[70.9838,20.7263],[70.9843,20.7263],[70.9843,20.7265],[70.9849,20.7265],[70.9849,20.7268],[70.9851,20.7268],[70.9851,20.7271],[70.9857,20.7271],[70.9857,20.7272],[70.9857,20.7274],[70.986,20.7274],[70.986,20.7276],[70.9863,20.7276],[70.9863,20.7279],[70.9865,20.7279],[70.9865,20.7282],[70.9868,20.7282],[70.9868,20.7288],[70.9871,20.7288],[70.9871,20.729],[70.9871,20.7296],[70.9874,20.7296],[70.9874,20.731],[70.9879,20.731],[70.9879,20.7307],[70.9882,20.7307],[70.9882,20.7304],[70.9885,20.7304],[70.9885,20.7301],[70.989,20.7301],[70.9899,20.7301],[70.9899,20.7304],[70.9901,20.7304],[70.9901,20.7307],[70.9904,20.7307],[70.9904,20.731],[70.9904,20.7313],[70.9908,20.7313],[70.991,20.7313],[70.991,20.7314],[70.991,20.7314],[70.991,20.7315],[70.9912,20.7315],[70.9913,20.7315],[70.9913,20.7315],[70.9956,20.7342],[70.9979,20.7355],[71.0043,20.743],[71.0052,20.7449],[71.0053,20.746],[71.0053,20.7466],[71.0089,20.7444]]],[[[71.1507,20.7722],[71.1507,20.7718],[71.1504,20.7718],[71.1504,20.771],[71.1501,20.771],[71.1501,20.7699],[71.1501,20.7685],[71.1499,20.7685],[71.1499,20.7674],[71.1496,20.7674],[71.1496,20.7671],[71.1493,20.7671],[71.1493,20.7668],[71.149,20.7668],[71.149,20.7665],[71.1488,20.7665],[71.1488,20.7663],[71.1485,20.7663],[71.1485,20.7657],[71.1482,20.7657],[71.1482,20.7651],[71.1485,20.7651],[71.1485,20.7646],[71.1488,20.7646],[71.1488,20.764],[71.149,20.764],[71.149,20.7635],[71.1493,20.7635],[71.1493,20.7632],[71.1499,20.7632],[71.1499,20.7629],[71.1504,20.7629],[71.1504,20.7626],[71.151,20.7626],[71.151,20.7624],[71.1515,20.7624],[71.1515,20.7621],[71.1515,20.7621],[71.1521,20.7621],[71.1521,20.7618],[71.154,20.7618],[71.154,20.7621],[71.1554,20.7621],[71.1554,20.7624],[71.1558,20.7624],[71.1558,20.7624],[71.1568,20.7624],[71.1568,20.7617],[71.1568,20.7617],[71.1568,20.7613],[71.1565,20.7613],[71.1565,20.7604],[71.1563,20.7604],[71.1563,20.7603],[71.1563,20.7603],[71.1563,20.7601],[71.156,20.7601],[71.156,20.7601],[71.1557,20.7601],[71.1557,20.76],[71.1557,20.76],[71.1557,20.7599],[71.1554,20.7599],[71.1554,20.7596],[71.1549,20.7596],[71.1549,20.7593],[71.1542,20.7593],[71.1542,20.7593],[71.1529,20.7593],[71.1529,20.759],[71.1521,20.759],[71.1521,20.7588],[71.1513,20.7588],[71.1513,20.7585],[71.1507,20.7585],[71.1504,20.7585],[71.1504,20.7582],[71.1499,20.7582],[71.1499,20.7579],[71.1496,20.7579],[71.1496,20.7576],[71.149,20.7576],[71.149,20.7574],[71.1476,20.7574],[71.1476,20.7576],[71.1468,20.7576],[71.1468,20.7574],[71.146,20.7574],[71.146,20.7571],[71.1456,20.7571],[71.1433,20.7616],[71.1433,20.7631],[71.1432,20.7642],[71.1465,20.7707],[71.1474,20.7711],[71.1507,20.7722],[71.1507,20.7722]]],[[[71.0132,20.7396],[71.0132,20.7396],[71.0132,20.7396],[71.0132,20.7396]]]]},"properties":{"district_name":"Diu","raw_district_name":"Diu","state_code":"DD","state_name":"Dadra and Nagar Haveli and Daman and Diu","census_code":494,"data_source":"DataMeet India Maps (Census 2011 Boundaries)"}}]}