{"type":"FeatureCollection","properties":{"state_code":"DN","state_name":"Dadra and Nagar Haveli and Daman and Diu","data_source":"DataMeet India Maps"},"features":[{"type":"Feature","geometry":{"type":"Polygon","coordinates":[[[73.2066,20.1222],[73.208,20.1065],[73.2093,20.0977],[73.2041,20.0908],[73.1971,20.0839],[73.1882,20.078],[73.189,20.0625],[73.1759,20.0531],[73.1715,20.0519],[73.1654,20.0583],[73.1602,20.0659],[73.1533,20.0734],[73.1467,20.0742],[73.1344,20.0781],[73.1294,20.0845],[73.1266,20.0855],[73.1212,20.0797],[73.1176,20.0784],[73.1129,20.0782],[73.1073,20.0791],[73.1016,20.0833],[73.1001,20.0849],[73.0977,20.0876],[73.0949,20.0875],[73.0882,20.094],[73.078,20.0948],[73.0678,20.0956],[73.0502,20.0994],[73.0475,20.0971],[73.0487,20.0683],[73.0423,20.0681],[73.0347,20.0722],[73.028,20.0785],[73.0212,20.0848],[73.0141,20.0967],[73.0089,20.1055],[72.9996,20.1108],[73.0044,20.1253],[73.0061,20.1309],[73.0069,20.1354],[72.9999,20.1406],[72.9981,20.1374],[72.997,20.1329],[72.9971,20.1268],[72.996,20.1217],[72.9937,20.1184],[72.9835,20.1144],[72.9785,20.1137],[72.9746,20.1139],[72.9689,20.1258],[72.9625,20.1313],[72.9753,20.158],[72.976,20.1718],[72.9754,20.177],[72.9655,20.1805],[72.9652,20.1901],[72.9597,20.2128],[72.9637,20.2154],[72.9648,20.2196],[72.9638,20.2263],[72.959,20.2344],[72.9547,20.2376],[72.9471,20.2416],[72.9407,20.244],[72.9329,20.2454],[72.9301,20.2473],[72.9129,20.2687],[72.9115,20.2749],[72.9138,20.2792],[72.9196,20.2845],[72.9274,20.2885],[72.9307,20.2926],[72.9353,20.2939],[72.9401,20.2925],[72.9468,20.2882],[72.9592,20.2752],[72.9639,20.2722],[72.9695,20.2712],[72.9735,20.2721],[72.9772,20.2751],[72.9789,20.2779],[72.9799,20.2925],[72.9931,20.2935],[73.0001,20.2927],[73.0069,20.2909],[73.0101,20.2913],[73.0114,20.2931],[73.0118,20.2974],[73.0102,20.3024],[73.0102,20.3079],[73.0072,20.3158],[73.0095,20.3178],[73.0119,20.3162],[73.0144,20.3131],[73.0166,20.3042],[73.0162,20.2945],[73.0194,20.2926],[73.0269,20.2909],[73.0317,20.2906],[73.0339,20.2914],[73.0356,20.2928],[73.0373,20.3048],[73.0374,20.3169],[73.0403,20.3233],[73.0449,20.3255],[73.0565,20.3264],[73.0614,20.3274],[73.0651,20.3299],[73.0726,20.3294],[73.0762,20.3264],[73.0808,20.3271],[73.0874,20.3353],[73.0892,20.3402],[73.0914,20.3563],[73.0926,20.3599],[73.0934,20.3606],[73.0974,20.3609],[73.1043,20.353],[73.1081,20.3431],[73.1116,20.3366],[73.112,20.3331],[73.1089,20.3264],[73.1066,20.3129],[73.1044,20.3109],[73.1029,20.3052],[73.1057,20.3043],[73.1192,20.306],[73.1244,20.3055],[73.1294,20.3098],[73.1303,20.3149],[73.132,20.3176],[73.1375,20.317],[73.1426,20.3176],[73.1516,20.3173],[73.1558,20.3161],[73.1586,20.314],[73.161,20.3107],[73.1674,20.3125],[73.1683,20.3109],[73.1674,20.3077],[73.1673,20.301],[73.1698,20.29],[73.1691,20.2866],[73.166,20.2843],[73.1622,20.2827],[73.1593,20.2825],[73.157,20.2836],[73.1556,20.2872],[73.1515,20.292],[73.1484,20.2906],[73.1464,20.2876],[73.1454,20.2856],[73.1453,20.2825],[73.1437,20.2772],[73.1427,20.2769],[73.14,20.2803],[73.1371,20.2812],[73.1364,20.2807],[73.1328,20.2755],[73.1327,20.2688],[73.1311,20.2654],[73.1269,20.2607],[73.1181,20.2587],[73.1146,20.257],[73.1033,20.2444],[73.0984,20.2388],[73.1004,20.2324],[73.0918,20.2292],[73.0774,20.2343],[73.0717,20.2331],[73.0666,20.2301],[73.0601,20.2218],[73.054,20.2035],[73.0563,20.1982],[73.06,20.1978],[73.0628,20.1965],[73.0641,20.1928],[73.0639,20.1776],[73.0621,20.1638],[73.0652,20.1604],[73.0722,20.1569],[73.0762,20.1573],[73.0777,20.1661],[73.0797,20.1707],[73.0833,20.1742],[73.086,20.1745],[73.0893,20.1729],[73.0916,20.1644],[73.0931,20.1616],[73.095,20.1603],[73.1029,20.1587],[73.1096,20.1593],[73.1148,20.1569],[73.1179,20.1574],[73.1155,20.1614],[73.116,20.1639],[73.1226,20.168],[73.1258,20.1726],[73.1294,20.1734],[73.137,20.1713],[73.1401,20.1731],[73.1424,20.1763],[73.1422,20.18],[73.1384,20.1857],[73.1361,20.1876],[73.1316,20.2021],[73.1322,20.2046],[73.1358,20.2072],[73.1399,20.2058],[73.1423,20.2034],[73.1437,20.2024],[73.1536,20.2017],[73.1591,20.1999],[73.1631,20.2015],[73.1704,20.2088],[73.1713,20.2026],[73.1788,20.2008],[73.1815,20.1988],[73.1861,20.1977],[73.1947,20.1985],[73.2002,20.1975],[73.2097,20.1906],[73.2181,20.1872],[73.2195,20.1844],[73.2187,20.1802],[73.2171,20.1765],[73.2124,20.1715],[73.208,20.1683],[73.1895,20.1618],[73.1863,20.1563],[73.1855,20.1511],[73.1862,20.1401],[73.1909,20.1299],[73.2012,20.1238],[73.2066,20.1222]]]},"properties":{"district_name":"Dadra & Nagar Haveli","raw_district_name":"Dadra & Nagar Haveli","state_code":"DN","state_name":"Dadra and Nagar Haveli and Daman and Diu","census_code":496,"data_source":"DataMeet India Maps (Census 2011 Boundaries)"}}]}