{"type":"FeatureCollection","properties":{"state_code":"GA","state_name":"Goa","data_source":"DataMeet India Maps"},"features":[{"type":"Feature","geometry":{"type":"Polygon","coordinates":[[[74.1188,15.6525],[74.1217,15.6524],[74.1356,15.6493],[74.1397,15.6508],[74.1479,15.6519],[74.1562,15.6508],[74.1589,15.6546],[74.1664,15.6542],[74.1684,15.6723],[74.1717,15.6736],[74.176,15.6795],[74.1832,15.6831],[74.1908,15.6811],[74.1912,15.6758],[74.1875,15.6743],[74.1894,15.6671],[74.2047,15.6632],[74.2051,15.6607],[74.203,15.6563],[74.2064,15.6512],[74.2173,15.6525],[74.222,15.6552],[74.2217,15.6566],[74.2173,15.6611],[74.2248,15.6687],[74.2301,15.6641],[74.2352,15.668],[74.2383,15.6678],[74.2486,15.6564],[74.2498,15.649],[74.2506,15.6362],[74.2479,15.6318],[74.2459,15.626],[74.2477,15.6253],[74.2528,15.6267],[74.2559,15.6251],[74.2609,15.6193],[74.262,15.6118],[74.2589,15.6038],[74.2586,15.5924],[74.2498,15.5848],[74.2508,15.5777],[74.2478,15.5748],[74.2477,15.5681],[74.258,15.5631],[74.2611,15.5657],[74.2634,15.5634],[74.2661,15.5565],[74.2725,15.551],[74.2765,15.5439],[74.2792,15.5365],[74.2809,15.5283],[74.2764,15.5228],[74.2773,15.5217],[74.2755,15.5152],[74.2616,15.5082],[74.2543,15.5031],[74.2507,15.4991],[74.2498,15.4918],[74.2307,15.4855],[74.2216,15.4768],[74.2043,15.4704],[74.1985,15.4673],[74.1938,15.4623],[74.1888,15.4534],[74.1861,15.445],[74.1767,15.4385],[74.1674,15.4431],[74.1445,15.4398],[74.1408,15.4405],[74.1374,15.4389],[74.1346,15.4348],[74.1267,15.4376],[74.1179,15.4333],[74.113,15.4275],[74.1123,15.4239],[74.1097,15.4191],[74.1066,15.4267],[74.0979,15.4252],[74.0886,15.4226],[74.0845,15.4192],[74.08,15.4168],[74.0763,15.4159],[74.0726,15.4113],[74.0738,15.4033],[74.0773,15.3981],[74.0771,15.3918],[74.0813,15.3906],[74.0864,15.3907],[74.0895,15.3887],[74.0911,15.3843],[74.0981,15.3799],[74.0953,15.3789],[74.0956,15.3762],[74.1006,15.3725],[74.1035,15.3682],[74.1032,15.3607],[74.1039,15.357],[74.1009,15.3556],[74.1015,15.3513],[74.1045,15.3476],[74.0991,15.3479],[74.0961,15.3415],[74.0934,15.3373],[74.0891,15.3326],[74.0864,15.33],[74.0859,15.3288],[74.0847,15.326],[74.0882,15.3166],[74.089,15.3139],[74.0937,15.2981],[74.1015,15.293],[74.1074,15.2858],[74.1029,15.2712],[74.0989,15.2711],[74.0955,15.2702],[74.0926,15.2714],[74.0885,15.2764],[74.0856,15.279],[74.0829,15.2796],[74.0797,15.2771],[74.0761,15.2756],[74.0728,15.2781],[74.0712,15.2835],[74.0707,15.2926],[74.0614,15.2974],[74.0526,15.2991],[74.0438,15.3009],[74.0411,15.3058],[74.0366,15.3067],[74.0276,15.3023],[74.0185,15.3026],[74.0143,15.304],[74.0111,15.3084],[74.0076,15.3257],[74.006,15.3331],[74.0053,15.3473],[74.0001,15.3528],[73.9946,15.3548],[73.9933,15.3556],[73.9907,15.3573],[73.9841,15.3618],[73.9764,15.3671],[73.9701,15.3672],[73.9666,15.3673],[73.965,15.3678],[73.9625,15.3686],[73.9596,15.3711],[73.958,15.375],[73.9575,15.3811],[73.9556,15.3876],[73.9527,15.3966],[73.9514,15.398],[73.9498,15.3997],[73.9452,15.4015],[73.9444,15.4018],[73.9389,15.4025],[73.9323,15.4033],[73.9235,15.4043],[73.9235,15.4044],[73.9235,15.4044],[73.9251,15.4054],[73.9268,15.4056],[73.9311,15.4055],[73.9405,15.4076],[73.9408,15.4092],[73.9389,15.4097],[73.9384,15.4101],[73.9301,15.4124],[73.928,15.4135],[73.928,15.414],[73.9264,15.4151],[73.9263,15.4156],[73.9267,15.4215],[73.9268,15.4216],[73.9277,15.4224],[73.9278,15.4225],[73.9278,15.4229],[73.932,15.4253],[73.9367,15.4307],[73.9373,15.4334],[73.9372,15.4338],[73.9361,15.4361],[73.934,15.4364],[73.9335,15.4363],[73.9282,15.4346],[73.9226,15.4304],[73.9221,15.4267],[73.9213,15.4261],[73.919,15.4249],[73.9112,15.4241],[73.9105,15.4229],[73.9101,15.4186],[73.9083,15.4168],[73.9078,15.4166],[73.9049,15.4166],[73.8978,15.4176],[73.8962,15.4181],[73.8958,15.4183],[73.8956,15.4184],[73.8807,15.4287],[73.8801,15.4288],[73.8695,15.4306],[73.8645,15.4322],[73.8623,15.4339],[73.8623,15.4346],[73.8608,15.437],[73.8607,15.4372],[73.8602,15.4374],[73.86,15.4386],[73.8595,15.4388],[73.858,15.4432],[73.8573,15.4439],[73.8566,15.4441],[73.8563,15.4443],[73.8563,15.4448],[73.852,15.4484],[73.852,15.4489],[73.8518,15.4498],[73.8478,15.4518],[73.8448,15.4525],[73.8434,15.4523],[73.8428,15.4519],[73.8423,15.4505],[73.8425,15.4487],[73.842,15.4482],[73.8401,15.4485],[73.8281,15.4531],[73.8218,15.4544],[73.8166,15.4548],[73.8044,15.4555],[73.8003,15.4566],[73.795,15.4582],[73.7856,15.4616],[73.7885,15.4658],[73.7922,15.4668],[73.7936,15.4666],[73.8003,15.4637],[73.8019,15.463],[73.8038,15.4622],[73.8068,15.4631],[73.8082,15.4645],[73.8087,15.4681],[73.8061,15.4745],[73.8062,15.479],[73.8073,15.4826],[73.8081,15.4837],[73.8137,15.4887],[73.814,15.4896],[73.8145,15.4906],[73.8168,15.4924],[73.8168,15.4929],[73.8184,15.4939],[73.8195,15.4943],[73.8218,15.4963],[73.8226,15.4975],[73.8237,15.4979],[73.8328,15.4999],[73.8338,15.5051],[73.8277,15.5081],[73.8254,15.5076],[73.8245,15.5067],[73.8245,15.5063],[73.8231,15.5054],[73.8219,15.5056],[73.8182,15.5074],[73.8157,15.5073],[73.8139,15.5063],[73.8119,15.5036],[73.811,15.5],[73.809,15.4981],[73.8075,15.4959],[73.8061,15.4942],[73.8056,15.4937],[73.8014,15.494],[73.7879,15.4988],[73.7861,15.4986],[73.7826,15.4966],[73.782,15.495],[73.7802,15.492],[73.7777,15.4905],[73.7765,15.4903],[73.7727,15.4913],[73.7716,15.4916],[73.7691,15.493],[73.7679,15.4937],[73.7679,15.4941],[73.7672,15.4946],[73.7649,15.4998],[73.7618,15.5178],[73.7588,15.5311],[73.7556,15.5399],[73.7554,15.5447],[73.755,15.5449],[73.7545,15.5451],[73.7518,15.5524],[73.7501,15.5585],[73.7489,15.5602],[73.7484,15.562],[73.743,15.5647],[73.743,15.5651],[73.7425,15.5653],[73.7409,15.5694],[73.7359,15.5903],[73.7334,15.5928],[73.7334,15.5932],[73.7312,15.596],[73.731,15.5971],[73.7304,15.5984],[73.7309,15.6007],[73.7402,15.602],[73.7441,15.6036],[73.7455,15.6047],[73.7474,15.6074],[73.7476,15.6076],[73.7492,15.609],[73.7523,15.6113],[73.7529,15.6144],[73.7535,15.6166],[73.7515,15.6233],[73.7521,15.6258],[73.7553,15.6275],[73.7602,15.63],[73.7633,15.6316],[73.7665,15.6327],[73.764,15.6346],[73.7634,15.635],[73.7594,15.6367],[73.7565,15.6359],[73.753,15.6348],[73.7493,15.6337],[73.7479,15.6329],[73.7471,15.6325],[73.7441,15.6299],[73.7431,15.6253],[73.7388,15.6216],[73.7377,15.6202],[73.7357,15.6147],[73.7343,15.6136],[73.7331,15.6145],[73.7322,15.6148],[73.731,15.6191],[73.7305,15.6193],[73.7289,15.622],[73.7247,15.6241],[73.7247,15.6245],[73.7242,15.6248],[73.7213,15.6345],[73.7206,15.6349],[73.7197,15.6359],[73.7165,15.644],[73.7148,15.6502],[73.7149,15.6517],[73.7161,15.6563],[73.7156,15.6606],[73.7114,15.6624],[73.7114,15.6629],[73.711,15.6631],[73.7081,15.6726],[73.7075,15.6732],[73.7061,15.6781],[73.7016,15.6907],[73.6983,15.6942],[73.6976,15.6944],[73.6976,15.6948],[73.697,15.6951],[73.6967,15.6957],[73.6944,15.6973],[73.6909,15.7062],[73.6897,15.7146],[73.6895,15.7173],[73.6906,15.7182],[73.692,15.7184],[73.6966,15.7177],[73.6976,15.7195],[73.6997,15.7215],[73.6927,15.7251],[73.6901,15.7247],[73.6871,15.723],[73.6859,15.7231],[73.684,15.7232],[73.678,15.7246],[73.678,15.725],[73.6762,15.7277],[73.6757,15.728],[73.6823,15.729],[73.6879,15.7283],[73.6932,15.727],[73.6972,15.7238],[73.7016,15.7223],[73.7092,15.7237],[73.7132,15.725],[73.7183,15.7246],[73.723,15.7227],[73.7278,15.7193],[73.7318,15.7208],[73.7348,15.7277],[73.7395,15.7327],[73.7491,15.7348],[73.7667,15.7326],[73.7775,15.7253],[73.7842,15.7258],[73.7886,15.7272],[73.7939,15.7343],[73.8037,15.7356],[73.8072,15.7374],[73.8115,15.742],[73.8243,15.7398],[73.8297,15.7509],[73.8316,15.7583],[73.83,15.763],[73.8364,15.7654],[73.8384,15.7682],[73.8409,15.7781],[73.8432,15.7805],[73.8483,15.7803],[73.8471,15.7853],[73.8514,15.7898],[73.8529,15.7959],[73.8569,15.7996],[73.8649,15.7974],[73.8674,15.7953],[73.8663,15.7884],[73.8665,15.785],[73.8713,15.7813],[73.8717,15.7795],[73.8784,15.7724],[73.8783,15.7692],[73.8758,15.7667],[73.8741,15.7588],[73.8717,15.7546],[73.8739,15.7514],[73.8774,15.7493],[73.9002,15.7444],[73.9065,15.7476],[73.9096,15.7475],[73.9159,15.7449],[73.9372,15.7436],[73.9416,15.7347],[73.9427,15.7253],[73.9478,15.719],[73.9507,15.7134],[73.9497,15.7095],[73.9479,15.7069],[73.9506,15.7034],[73.9491,15.6989],[73.9577,15.6971],[73.9633,15.6894],[73.9642,15.6788],[73.9635,15.6705],[73.9677,15.6619],[73.9662,15.6568],[73.9627,15.6518],[73.9612,15.6465],[73.968,15.6311],[73.9734,15.6272],[73.9781,15.6256],[73.9823,15.6228],[73.985,15.6185],[73.9908,15.6133],[73.9945,15.6112],[74,15.6105],[74.0054,15.6115],[74.0202,15.6068],[74.0279,15.6115],[74.0316,15.623],[74.0492,15.6249],[74.0602,15.6269],[74.066,15.6288],[74.0731,15.6283],[74.0951,15.6411],[74.1007,15.641],[74.1053,15.6452],[74.1155,15.6474],[74.1188,15.6525]]]},"properties":{"district_name":"North Goa","raw_district_name":"North Goa","state_code":"GA","state_name":"Goa","census_code":585,"data_source":"DataMeet India Maps (Census 2011 Boundaries)"}},{"type":"Feature","geometry":{"type":"MultiPolygon","coordinates":[[[[74.2761,15.4455],[74.2765,15.4398],[74.2736,15.4383],[74.2763,15.4356],[74.2692,15.4263],[74.2709,15.4172],[74.2751,15.4114],[74.2782,15.4039],[74.2763,15.391],[74.2799,15.385],[74.2836,15.3836],[74.2994,15.3829],[74.3066,15.3773],[74.3222,15.3697],[74.3225,15.3679],[74.3175,15.3644],[74.3164,15.3597],[74.3198,15.3497],[74.3223,15.3458],[74.3172,15.332],[74.3219,15.3157],[74.3344,15.2992],[74.3356,15.2954],[74.3281,15.2853],[74.3123,15.2844],[74.3036,15.2857],[74.2961,15.2883],[74.2938,15.2847],[74.2893,15.2855],[74.2829,15.2815],[74.2766,15.2837],[74.2703,15.2769],[74.2664,15.2702],[74.2639,15.2634],[74.2616,15.2608],[74.2511,15.2601],[74.2528,15.2524],[74.2553,15.2462],[74.2571,15.2443],[74.2644,15.241],[74.2724,15.2397],[74.2881,15.2345],[74.2959,15.2306],[74.3005,15.2257],[74.3005,15.2215],[74.3039,15.2159],[74.3045,15.2114],[74.3055,15.2096],[74.3083,15.2081],[74.3095,15.2057],[74.3097,15.1988],[74.3109,15.1936],[74.3159,15.1866],[74.312,15.1778],[74.3048,15.1646],[74.2953,15.1524],[74.2917,15.1488],[74.2864,15.1502],[74.2833,15.1457],[74.285,15.1379],[74.2835,15.1325],[74.2852,15.1258],[74.2869,15.1225],[74.2844,15.1192],[74.2821,15.1081],[74.2795,15.1063],[74.2748,15.1044],[74.2721,15.0985],[74.2776,15.0966],[74.2811,15.0719],[74.2828,15.0684],[74.2891,15.0653],[74.2889,15.0569],[74.2951,15.0467],[74.2962,15.0425],[74.287,15.0363],[74.2829,15.0327],[74.2837,15.0242],[74.2757,15.0182],[74.2702,15.0122],[74.2656,15.0051],[74.2667,15.0041],[74.2648,15.0014],[74.265,15.0003],[74.2654,15.0003],[74.2644,14.9975],[74.2554,14.9934],[74.2647,14.983],[74.2677,14.9778],[74.2647,14.9742],[74.2639,14.9693],[74.2604,14.9694],[74.2581,14.9659],[74.2558,14.9602],[74.2503,14.961],[74.2447,14.9634],[74.2375,14.9601],[74.2353,14.9491],[74.2183,14.944],[74.2128,14.934],[74.2054,14.924],[74.1966,14.93],[74.1976,14.9347],[74.1976,14.9405],[74.1909,14.9459],[74.1859,14.9476],[74.1837,14.9543],[74.1799,14.956],[74.1737,14.9556],[74.1655,14.9536],[74.1632,14.9499],[74.163,14.9448],[74.1594,14.942],[74.1593,14.9394],[74.1672,14.9205],[74.1707,14.9158],[74.1687,14.9115],[74.1631,14.9119],[74.1567,14.9159],[74.1471,14.9199],[74.1424,14.9211],[74.1389,14.92],[74.1326,14.9231],[74.1293,14.9223],[74.1266,14.9185],[74.1252,14.9152],[74.1196,14.9158],[74.1158,14.9152],[74.1104,14.9122],[74.1061,14.9137],[74.0972,14.9063],[74.0963,14.9041],[74.088,14.896],[74.0872,14.8965],[74.087,14.8972],[74.087,14.8976],[74.083,14.901],[74.0819,14.9033],[74.0816,14.9042],[74.081,14.9047],[74.0807,14.9054],[74.0782,14.9072],[74.0769,14.9077],[74.0761,14.9079],[74.0668,14.9066],[74.0661,14.9061],[74.0654,14.9055],[74.0643,14.9057],[74.0599,14.9075],[74.0583,14.9087],[74.0578,14.9096],[74.0578,14.91],[74.0556,14.9115],[74.0548,14.9119],[74.0493,14.9135],[74.0476,14.9131],[74.046,14.9133],[74.0423,14.9151],[74.0418,14.9182],[74.0421,14.9194],[74.0428,14.9238],[74.0436,14.9265],[74.0426,14.9379],[74.0425,14.9408],[74.0423,14.9468],[74.0426,14.9473],[74.0436,14.9498],[74.0468,14.9507],[74.0502,14.9558],[74.0515,14.9575],[74.0546,14.9623],[74.0511,14.9646],[74.0474,14.9642],[74.0441,14.9654],[74.0425,14.9706],[74.0416,14.9719],[74.0408,14.9731],[74.0396,14.9765],[74.0373,14.9786],[74.0372,14.9802],[74.0396,14.9831],[74.0457,14.9871],[74.0387,14.9906],[74.0349,14.9931],[74.0332,14.9943],[74.0267,14.999],[74.0267,14.9994],[74.0254,15.0006],[74.0254,15.0011],[74.0254,15.0015],[74.0202,15.006],[74.0175,15.0079],[74.0111,15.0089],[74.0073,15.0084],[74.0043,15.0089],[74.0026,15.0099],[73.9997,15.0118],[73.9981,15.0132],[73.9965,15.0178],[73.9924,15.0205],[73.9902,15.0217],[73.9879,15.0226],[73.9879,15.023],[73.984,15.0258],[73.9837,15.0283],[73.9842,15.0298],[73.9872,15.0348],[73.9874,15.0398],[73.9865,15.0423],[73.9851,15.0434],[73.9825,15.0453],[73.9825,15.0457],[73.9816,15.0462],[73.9815,15.0489],[73.9816,15.0498],[73.9841,15.0532],[73.9839,15.0534],[73.984,15.0548],[73.9835,15.0552],[73.9814,15.0557],[73.9763,15.0548],[73.9747,15.0541],[73.9715,15.0548],[73.9696,15.0562],[73.9676,15.0626],[73.9653,15.0651],[73.9637,15.0687],[73.9625,15.0694],[73.9593,15.0681],[73.9526,15.0713],[73.9526,15.0717],[73.9517,15.0724],[73.9501,15.0745],[73.9494,15.0756],[73.9491,15.0758],[73.9398,15.0761],[73.9372,15.0768],[73.9343,15.0775],[73.9333,15.078],[73.9322,15.0807],[73.9311,15.0818],[73.9294,15.0836],[73.9295,15.0841],[73.9276,15.0855],[73.9225,15.0846],[73.9192,15.0826],[73.9151,15.0833],[73.9139,15.0837],[73.9136,15.0846],[73.9137,15.0887],[73.9142,15.0896],[73.9212,15.093],[73.9226,15.0954],[73.9228,15.0993],[73.9212,15.1004],[73.9207,15.1007],[73.9168,15.1021],[73.916,15.107],[73.918,15.1081],[73.9187,15.1083],[73.9306,15.1112],[73.9357,15.1144],[73.9361,15.1151],[73.9377,15.1167],[73.9392,15.1182],[73.9398,15.1198],[73.9383,15.1264],[73.9384,15.1316],[73.9393,15.1334],[73.9411,15.1345],[73.9419,15.1347],[73.9493,15.1363],[73.9514,15.1374],[73.9544,15.1394],[73.9561,15.1405],[73.9561,15.141],[73.9565,15.141],[73.9583,15.1444],[73.9581,15.1485],[73.9567,15.1625],[73.9553,15.1661],[73.9546,15.1691],[73.9546,15.1707],[73.9593,15.1738],[73.9601,15.1765],[73.9591,15.185],[73.9557,15.1785],[73.9491,15.1757],[73.9483,15.1748],[73.9473,15.1725],[73.9474,15.1691],[73.948,15.1662],[73.9485,15.166],[73.9513,15.1575],[73.9517,15.1571],[73.9525,15.1498],[73.9522,15.148],[73.9501,15.1453],[73.9494,15.1451],[73.9487,15.1449],[73.9471,15.1451],[73.9471,15.1456],[73.9466,15.1458],[73.945,15.1511],[73.9446,15.1535],[73.9435,15.1605],[73.9423,15.1646],[73.9417,15.1666],[73.9397,15.1771],[73.9392,15.1773],[73.9392,15.1775],[73.9386,15.179],[73.9379,15.1819],[73.9364,15.1864],[73.9315,15.2061],[73.931,15.2063],[73.9305,15.2066],[73.9229,15.2374],[73.919,15.2486],[73.918,15.2507],[73.9166,15.2546],[73.9153,15.2576],[73.9083,15.2844],[73.9016,15.3083],[73.8994,15.3157],[73.897,15.3223],[73.8956,15.326],[73.8922,15.3365],[73.8916,15.3382],[73.8857,15.3513],[73.8853,15.3515],[73.8841,15.3545],[73.8837,15.3547],[73.8832,15.3549],[73.8805,15.3611],[73.88,15.3613],[73.8793,15.3634],[73.8781,15.3643],[73.8779,15.365],[73.8772,15.3657],[73.8749,15.3677],[73.873,15.3684],[73.8704,15.3694],[73.8701,15.3695],[73.8673,15.3693],[73.8619,15.368],[73.8601,15.3666],[73.8582,15.3635],[73.855,15.3633],[73.8536,15.3638],[73.8508,15.3635],[73.8495,15.3628],[73.8477,15.359],[73.847,15.3588],[73.8461,15.359],[73.8431,15.3602],[73.8431,15.3606],[73.8431,15.3611],[73.8401,15.3638],[73.8385,15.3645],[73.8385,15.3649],[73.8327,15.3693],[73.8306,15.3704],[73.8283,15.3709],[73.8095,15.38],[73.8078,15.3855],[73.8072,15.3875],[73.804,15.3934],[73.8006,15.3959],[73.7907,15.3984],[73.7906,15.3985],[73.7889,15.3999],[73.7867,15.4053],[73.7841,15.408],[73.7842,15.4087],[73.7837,15.4112],[73.7847,15.4121],[73.7871,15.4123],[73.7879,15.4125],[73.7888,15.4123],[73.7923,15.4109],[73.8011,15.4057],[73.8041,15.4034],[73.8042,15.4028],[73.8048,15.4016],[73.8129,15.399],[73.8143,15.3992],[73.8155,15.4004],[73.8157,15.4072],[73.8164,15.4092],[73.8177,15.4103],[73.8189,15.4121],[73.8223,15.4108],[73.8236,15.4099],[73.8245,15.4048],[73.8259,15.4044],[73.8287,15.4039],[73.8299,15.4048],[73.8315,15.408],[73.8339,15.4096],[73.8402,15.4107],[73.8429,15.4106],[73.8448,15.4093],[73.8451,15.4086],[73.8454,15.4061],[73.8452,15.4054],[73.8439,15.4039],[73.844,15.4014],[73.8459,15.4007],[73.8464,15.4004],[73.8473,15.4002],[73.848,15.4004],[73.8579,15.4056],[73.8599,15.4069],[73.8636,15.4074],[73.8645,15.4071],[73.8652,15.4064],[73.8652,15.4049],[73.8659,15.4028],[73.8732,15.3999],[73.8776,15.3992],[73.8784,15.3991],[73.8805,15.3996],[73.8852,15.4027],[73.9003,15.4078],[73.9063,15.4082],[73.908,15.4078],[73.908,15.4073],[73.9084,15.4073],[73.9117,15.4051],[73.9117,15.4046],[73.9138,15.4035],[73.9165,15.403],[73.9224,15.4036],[73.9235,15.4044],[73.9235,15.4043],[73.9323,15.4033],[73.9389,15.4025],[73.9444,15.4018],[73.9452,15.4015],[73.9498,15.3997],[73.9514,15.398],[73.9527,15.3966],[73.9556,15.3876],[73.9575,15.3811],[73.958,15.375],[73.9596,15.3711],[73.9625,15.3686],[73.965,15.3678],[73.9666,15.3673],[73.9701,15.3672],[73.9764,15.3671],[73.9841,15.3618],[73.9907,15.3573],[73.9933,15.3556],[73.9946,15.3548],[74.0001,15.3528],[74.0053,15.3473],[74.006,15.3331],[74.0076,15.3257],[74.0111,15.3084],[74.0143,15.304],[74.0185,15.3026],[74.0276,15.3023],[74.0366,15.3067],[74.0411,15.3058],[74.0438,15.3009],[74.0526,15.2991],[74.0614,15.2974],[74.0707,15.2926],[74.0712,15.2835],[74.0728,15.2781],[74.0761,15.2756],[74.0797,15.2771],[74.0829,15.2796],[74.0856,15.279],[74.0885,15.2764],[74.0926,15.2714],[74.0955,15.2702],[74.0989,15.2711],[74.1029,15.2712],[74.1074,15.2858],[74.1015,15.293],[74.0937,15.2981],[74.089,15.3139],[74.0882,15.3166],[74.0847,15.326],[74.0859,15.3288],[74.0864,15.33],[74.0891,15.3326],[74.0934,15.3373],[74.0961,15.3415],[74.0991,15.3479],[74.1045,15.3476],[74.1015,15.3513],[74.1009,15.3556],[74.1039,15.357],[74.1032,15.3607],[74.1035,15.3682],[74.1006,15.3725],[74.0956,15.3762],[74.0953,15.3789],[74.0981,15.3799],[74.0911,15.3843],[74.0895,15.3887],[74.0864,15.3907],[74.0813,15.3906],[74.0771,15.3918],[74.0773,15.3981],[74.0738,15.4033],[74.0726,15.4113],[74.0763,15.4159],[74.08,15.4168],[74.0845,15.4192],[74.0886,15.4226],[74.0979,15.4252],[74.1066,15.4267],[74.1097,15.4191],[74.1123,15.4239],[74.113,15.4275],[74.1179,15.4333],[74.1267,15.4376],[74.1346,15.4348],[74.1374,15.4389],[74.1408,15.4405],[74.1445,15.4398],[74.1674,15.4431],[74.1767,15.4385],[74.1861,15.445],[74.1888,15.4534],[74.1938,15.4623],[74.1985,15.4673],[74.2043,15.4704],[74.2216,15.4768],[74.2307,15.4855],[74.2498,15.4918],[74.2498,15.4918],[74.2661,15.4676],[74.2735,15.4531],[74.2761,15.4455]]],[[[74.1192,14.7534],[74.1135,14.752],[74.111,14.7537],[74.1101,14.755],[74.1091,14.758],[74.1091,14.7593],[74.1097,14.7598],[74.1116,14.7598],[74.1123,14.7591],[74.113,14.7574],[74.1135,14.7574],[74.1136,14.7566],[74.1143,14.7561],[74.1145,14.756],[74.1192,14.7534]]]]},"properties":{"district_name":"South Goa","raw_district_name":"South Goa","state_code":"GA","state_name":"Goa","census_code":586,"data_source":"DataMeet India Maps (Census 2011 Boundaries)"}}]}