{"type":"FeatureCollection","properties":{"state_code":"LD","state_name":"Lakshadweep","data_source":"DataMeet India Maps"},"features":[{"type":"Feature","geometry":{"type":"MultiPolygon","coordinates":[[[[74.1013,11.2043],[74.0991,11.2038],[74.0969,11.2038],[74.0948,11.2031],[74.0922,11.2032],[74.09,11.2029],[74.0878,11.2028],[74.0855,11.2028],[74.0821,11.203],[74.079,11.2036],[74.0767,11.204],[74.0745,11.2045],[74.0723,11.2052],[74.0696,11.2061],[74.0681,11.2061],[74.066,11.2071],[74.064,11.2079],[74.062,11.2087],[74.0599,11.2094],[74.0577,11.2104],[74.0557,11.2112],[74.0522,11.2131],[74.0492,11.2152],[74.046,11.2177],[74.0426,11.2203],[74.0392,11.2222],[74.0356,11.2239],[74.032,11.2265],[74.0299,11.2279],[74.0287,11.2289],[74.0265,11.2305],[74.0246,11.2317],[74.0227,11.2328],[74.021,11.2342],[74.0192,11.2354],[74.0174,11.2367],[74.0161,11.2374],[74.0141,11.239],[74.0117,11.2406],[74.0088,11.2434],[74.0056,11.2458],[74.0036,11.2474],[74.0007,11.2502],[74.0001,11.2512],[73.9994,11.2519],[73.999,11.2524],[73.9974,11.2541],[73.9959,11.2558],[73.9948,11.2579],[73.9933,11.2596],[73.9917,11.2612],[73.9903,11.2631],[73.989,11.2649],[73.9876,11.2668],[73.9861,11.2686],[73.9848,11.2704],[73.9836,11.2724],[73.9825,11.2745],[73.9813,11.2764],[73.9797,11.2781],[73.9782,11.2799],[73.9771,11.2819],[73.9764,11.2841],[73.9749,11.2858],[73.9737,11.2878],[73.9724,11.2897],[73.971,11.2923],[73.9703,11.2932],[73.9691,11.2952],[73.9679,11.2981],[73.9667,11.3014],[73.9651,11.306],[73.9642,11.3097],[73.9635,11.313],[73.963,11.3171],[73.9629,11.3194],[73.9626,11.3216],[73.9629,11.3239],[73.9632,11.3262],[73.9637,11.3285],[73.9646,11.3305],[73.9654,11.3327],[73.9665,11.3347],[73.9673,11.3369],[73.9685,11.3388],[73.9701,11.3401],[73.9713,11.3418],[73.9727,11.3437],[73.9745,11.3451],[73.9763,11.3465],[73.9783,11.3477],[73.9805,11.3484],[73.9827,11.3491],[73.9847,11.3502],[73.9869,11.351],[73.9892,11.3516],[73.9914,11.3521],[73.9937,11.3523],[73.9961,11.3524],[74.0001,11.3522],[74.0033,11.3515],[74.0055,11.3509],[74.0077,11.3501],[74.0099,11.3494],[74.0121,11.3485],[74.0142,11.3476],[74.0163,11.3465],[74.0183,11.3455],[74.0205,11.3446],[74.0225,11.3436],[74.0246,11.3425],[74.0267,11.3415],[74.0287,11.3404],[74.0308,11.3394],[74.033,11.3386],[74.0355,11.3376],[74.0377,11.3367],[74.0398,11.3358],[74.0419,11.3349],[74.044,11.3339],[74.046,11.3328],[74.0481,11.3318],[74.0502,11.3307],[74.0521,11.3295],[74.0541,11.3283],[74.056,11.327],[74.058,11.3258],[74.0598,11.3244],[74.0619,11.3233],[74.0637,11.3219],[74.0654,11.3203],[74.0672,11.3189],[74.069,11.3174],[74.0728,11.3149],[74.076,11.3116],[74.0796,11.3087],[74.0828,11.3054],[74.0872,11.3007],[74.09,11.2978],[74.0928,11.2943],[74.0942,11.2925],[74.1011,11.2846],[74.1024,11.2828],[74.1058,11.278],[74.1078,11.2751],[74.11,11.2715],[74.1127,11.2668],[74.1145,11.263],[74.1164,11.2594],[74.1176,11.2578],[74.1185,11.2557],[74.1193,11.2537],[74.1202,11.2514],[74.1205,11.2508],[74.1206,11.2499],[74.1208,11.2494],[74.1213,11.2472],[74.1218,11.2451],[74.1224,11.242],[74.1228,11.2392],[74.123,11.237],[74.1231,11.2347],[74.1229,11.2324],[74.123,11.2304],[74.1225,11.2283],[74.1219,11.2256],[74.1213,11.2236],[74.12,11.2217],[74.1188,11.2185],[74.117,11.2162],[74.1157,11.2145],[74.1144,11.2127],[74.1129,11.2109],[74.1113,11.2095],[74.1096,11.2081],[74.1077,11.2068],[74.1056,11.206],[74.1036,11.2049],[74.1013,11.2043]]],[[[71.8449,11.8355],[71.8455,11.8331],[71.8456,11.8313],[71.8458,11.8289],[71.8458,11.8267],[71.8455,11.8255],[71.8452,11.8241],[71.8443,11.8228],[71.8419,11.8216],[71.8401,11.8215],[71.838,11.8221],[71.834,11.8236],[71.8316,11.8254],[71.8276,11.8271],[71.8226,11.8289],[71.8182,11.8299],[71.8149,11.8313],[71.8106,11.8315],[71.8073,11.8319],[71.8035,11.8318],[71.7992,11.8314],[71.7956,11.8314],[71.7922,11.8321],[71.7902,11.8323],[71.7879,11.833],[71.786,11.8336],[71.7837,11.8344],[71.782,11.8353],[71.7805,11.8366],[71.7783,11.8388],[71.7767,11.8407],[71.7753,11.8428],[71.7741,11.8455],[71.7734,11.8482],[71.7726,11.851],[71.772,11.8535],[71.771,11.8557],[71.77,11.8572],[71.7693,11.8585],[71.7689,11.8591],[71.7675,11.8612],[71.7668,11.8623],[71.7661,11.8642],[71.7657,11.8647],[71.7646,11.8662],[71.7636,11.8679],[71.7636,11.868],[71.7631,11.8686],[71.7622,11.87],[71.761,11.8723],[71.7604,11.8747],[71.7602,11.8777],[71.7599,11.8809],[71.7598,11.8845],[71.7596,11.8874],[71.7594,11.89],[71.759,11.894],[71.7588,11.8968],[71.7584,11.8996],[71.7575,11.9023],[71.7562,11.9056],[71.756,11.9084],[71.7558,11.9116],[71.7554,11.914],[71.7551,11.9173],[71.754,11.9207],[71.7529,11.9234],[71.7523,11.9257],[71.7518,11.9279],[71.751,11.93],[71.75,11.9314],[71.7499,11.9315],[71.7492,11.932],[71.7467,11.9338],[71.7439,11.9361],[71.7408,11.9381],[71.7398,11.9389],[71.7396,11.9389],[71.7376,11.9404],[71.7366,11.9425],[71.7365,11.9426],[71.7357,11.9433],[71.7341,11.9453],[71.7329,11.9471],[71.7325,11.9492],[71.7317,11.9518],[71.7315,11.9544],[71.7318,11.9566],[71.7333,11.9591],[71.7345,11.9611],[71.7356,11.9617],[71.7357,11.9619],[71.7371,11.9628],[71.7376,11.9637],[71.7387,11.966],[71.7402,11.9677],[71.7428,11.97],[71.7447,11.9723],[71.7467,11.9746],[71.7487,11.9769],[71.7517,11.9796],[71.756,11.9839],[71.7574,11.9865],[71.7586,11.9884],[71.7598,11.9901],[71.7608,11.9915],[71.7626,11.993],[71.7641,11.9945],[71.7658,11.996],[71.7668,11.9971],[71.768,11.9988],[71.7693,11.9997],[71.7706,12.0011],[71.7721,12.0023],[71.7734,12.0035],[71.776,12.0043],[71.7787,12.0045],[71.7809,12.0046],[71.7839,12.0038],[71.786,12.0021],[71.7875,11.9993],[71.7889,11.9965],[71.7908,11.9929],[71.7929,11.9898],[71.7949,11.9865],[71.7962,11.9832],[71.7976,11.9795],[71.7986,11.9772],[71.7997,11.9741],[71.8008,11.9704],[71.8013,11.9678],[71.8017,11.9633],[71.8028,11.9591],[71.8034,11.9559],[71.8036,11.9535],[71.8046,11.9507],[71.8059,11.9484],[71.8066,11.9468],[71.8073,11.9445],[71.8077,11.9434],[71.8083,11.9419],[71.8085,11.94],[71.8087,11.9397],[71.8096,11.9381],[71.811,11.9358],[71.8125,11.9341],[71.8156,11.9283],[71.8166,11.9272],[71.8223,11.9147],[71.8228,11.913],[71.8237,11.9106],[71.8252,11.9075],[71.8262,11.9047],[71.8282,11.8991],[71.829,11.8972],[71.8299,11.895],[71.8307,11.893],[71.8308,11.8914],[71.831,11.889],[71.8312,11.8869],[71.8313,11.8849],[71.8315,11.8825],[71.8322,11.8799],[71.8327,11.8775],[71.833,11.876],[71.8335,11.874],[71.834,11.8716],[71.8344,11.8698],[71.8347,11.8679],[71.8363,11.8616],[71.8369,11.8585],[71.8377,11.8555],[71.8397,11.8485],[71.8399,11.8471],[71.8398,11.8453],[71.8405,11.843],[71.8424,11.8403],[71.8427,11.8399],[71.8432,11.8377],[71.8449,11.8355]]],[[[72.2649,10.0113],[72.2626,10.0103],[72.261,10.0102],[72.2589,10.0103],[72.2572,10.0104],[72.2553,10.0107],[72.2537,10.0106],[72.2534,10.0105],[72.2517,10.0104],[72.2493,10.0093],[72.2475,10.0082],[72.2444,10.0063],[72.2423,10.0066],[72.2407,10.0076],[72.2399,10.0092],[72.2395,10.0106],[72.2381,10.0127],[72.2368,10.014],[72.2359,10.0148],[72.235,10.017],[72.2347,10.0197],[72.2348,10.0221],[72.2354,10.0242],[72.2363,10.0266],[72.2368,10.0301],[72.2381,10.0337],[72.2387,10.0369],[72.2395,10.0403],[72.2404,10.0433],[72.2408,10.0461],[72.2413,10.0486],[72.2422,10.0513],[72.2436,10.0542],[72.2445,10.0559],[72.2449,10.0561],[72.2458,10.057],[72.2474,10.0592],[72.2485,10.0608],[72.2504,10.0622],[72.2518,10.0639],[72.2532,10.0658],[72.2551,10.0677],[72.2578,10.0703],[72.2602,10.0723],[72.2629,10.074],[72.267,10.0759],[72.2693,10.0773],[72.2708,10.0798],[72.272,10.0826],[72.2724,10.0849],[72.2729,10.0873],[72.2747,10.0906],[72.2763,10.0931],[72.2791,10.0953],[72.2805,10.0968],[72.2806,10.0968],[72.2837,10.0986],[72.2864,10.1006],[72.2887,10.1024],[72.2908,10.1039],[72.2931,10.1057],[72.296,10.108],[72.2989,10.109],[72.3009,10.1104],[72.3018,10.1115],[72.3028,10.1129],[72.3047,10.1147],[72.3061,10.116],[72.3089,10.1178],[72.3109,10.1194],[72.3123,10.1204],[72.3135,10.1214],[72.3157,10.125],[72.3165,10.1267],[72.3171,10.1282],[72.3185,10.1298],[72.3199,10.1316],[72.3211,10.1333],[72.3221,10.1352],[72.3229,10.1369],[72.3242,10.1381],[72.3256,10.1392],[72.3277,10.1393],[72.3291,10.1393],[72.3296,10.1391],[72.3298,10.138],[72.3312,10.1365],[72.3321,10.1353],[72.3326,10.1344],[72.3334,10.1327],[72.3342,10.131],[72.3345,10.1292],[72.3349,10.1276],[72.335,10.1252],[72.3352,10.1231],[72.3353,10.1216],[72.3354,10.1195],[72.3359,10.1166],[72.3366,10.1141],[72.3375,10.1106],[72.3388,10.1086],[72.3399,10.1069],[72.3411,10.1056],[72.3418,10.1034],[72.3421,10.1014],[72.3422,10.0993],[72.3417,10.0972],[72.3404,10.0939],[72.3395,10.092],[72.339,10.0915],[72.3387,10.0908],[72.3384,10.09],[72.3382,10.0894],[72.3379,10.0885],[72.3377,10.0878],[72.3373,10.0868],[72.3369,10.0857],[72.3367,10.0849],[72.3364,10.0839],[72.3362,10.0829],[72.3358,10.082],[72.3352,10.0807],[72.3343,10.0788],[72.3337,10.0781],[72.3324,10.0764],[72.3308,10.0745],[72.33,10.0733],[72.3286,10.0714],[72.3261,10.0674],[72.3253,10.0651],[72.3249,10.0628],[72.3238,10.0602],[72.3228,10.0581],[72.3227,10.057],[72.3226,10.0564],[72.3223,10.056],[72.3214,10.0546],[72.3207,10.0533],[72.3203,10.0526],[72.3193,10.0513],[72.3174,10.0498],[72.3151,10.048],[72.313,10.046],[72.3117,10.0446],[72.3099,10.0421],[72.3098,10.0413],[72.3096,10.041],[72.3087,10.0394],[72.3079,10.0382],[72.3072,10.0371],[72.3063,10.0356],[72.3061,10.0349],[72.3057,10.034],[72.3057,10.0339],[72.3054,10.0337],[72.3035,10.0318],[72.3012,10.03],[72.3007,10.0297],[72.2968,10.028],[72.2935,10.0272],[72.2905,10.0261],[72.2882,10.0248],[72.2852,10.0236],[72.2819,10.0217],[72.2797,10.0205],[72.2766,10.0187],[72.274,10.0169],[72.2704,10.0147],[72.2674,10.013],[72.2649,10.0113]]],[[[72.1788,11.4913],[72.1768,11.4912],[72.1749,11.4911],[72.1735,11.4911],[72.1714,11.4915],[72.169,11.4919],[72.1663,11.4922],[72.1632,11.4928],[72.1614,11.4932],[72.1603,11.4936],[72.159,11.494],[72.1578,11.4945],[72.1564,11.4951],[72.1553,11.4957],[72.1544,11.4963],[72.1533,11.4975],[72.1523,11.4984],[72.1515,11.4993],[72.1501,11.5001],[72.1491,11.5009],[72.1488,11.5012],[72.1486,11.5013],[72.1479,11.5021],[72.1473,11.5033],[72.147,11.5047],[72.1466,11.5062],[72.1465,11.5073],[72.1465,11.5078],[72.1463,11.5091],[72.1462,11.5094],[72.1458,11.5107],[72.1451,11.5117],[72.1445,11.5126],[72.1434,11.5143],[72.1427,11.5155],[72.1425,11.5163],[72.1419,11.5174],[72.1412,11.5187],[72.1408,11.5194],[72.1404,11.5199],[72.1404,11.5202],[72.14,11.5212],[72.1395,11.5221],[72.1392,11.5229],[72.1387,11.5238],[72.1386,11.525],[72.1385,11.5262],[72.1384,11.5272],[72.1383,11.5283],[72.1382,11.5293],[72.1383,11.5302],[72.1384,11.5314],[72.1385,11.5325],[72.1385,11.534],[72.1385,11.5342],[72.1385,11.5349],[72.1384,11.5363],[72.1383,11.5372],[72.1381,11.5387],[72.1378,11.54],[72.1375,11.5412],[72.1374,11.5431],[72.1377,11.5447],[72.1378,11.546],[72.1377,11.5472],[72.1375,11.5485],[72.1374,11.5499],[72.1372,11.5511],[72.1371,11.5524],[72.1376,11.5541],[72.1382,11.5556],[72.1391,11.5574],[72.1399,11.5586],[72.1409,11.56],[72.1418,11.5614],[72.1427,11.5627],[72.1433,11.5635],[72.1446,11.5647],[72.1456,11.5657],[72.1464,11.5667],[72.1471,11.5677],[72.1478,11.5688],[72.1485,11.5701],[72.1487,11.5712],[72.1489,11.5726],[72.1494,11.5744],[72.1499,11.5756],[72.1505,11.5773],[72.1514,11.5795],[72.1525,11.581],[72.1535,11.5827],[72.1545,11.5841],[72.1554,11.5854],[72.1571,11.5876],[72.1581,11.5889],[72.1582,11.589],[72.1587,11.5892],[72.1596,11.5899],[72.161,11.5909],[72.1613,11.5916],[72.162,11.593],[72.1625,11.5947],[72.1631,11.5961],[72.1636,11.5975],[72.1646,11.5988],[72.1651,11.6002],[72.1656,11.6009],[72.1663,11.6018],[72.1673,11.6027],[72.1682,11.6035],[72.1694,11.6045],[72.1706,11.6054],[72.1719,11.6061],[72.173,11.6066],[72.1744,11.6067],[72.1756,11.6067],[72.1764,11.6064],[72.1777,11.606],[72.1788,11.6055],[72.18,11.6047],[72.181,11.6041],[72.1819,11.6036],[72.1834,11.603],[72.1847,11.6028],[72.1865,11.6018],[72.1878,11.6012],[72.1893,11.6007],[72.1906,11.5999],[72.1913,11.5987],[72.1918,11.5976],[72.1922,11.5965],[72.1924,11.5951],[72.1926,11.594],[72.193,11.5933],[72.1936,11.5928],[72.1942,11.592],[72.1948,11.5913],[72.195,11.5909],[72.1952,11.5905],[72.1953,11.5883],[72.1951,11.5855],[72.1944,11.5826],[72.1945,11.5805],[72.1942,11.5764],[72.1937,11.5712],[72.1929,11.5661],[72.1926,11.5642],[72.1923,11.5623],[72.192,11.5602],[72.1915,11.5583],[72.191,11.5562],[72.1905,11.554],[72.1901,11.5517],[72.1903,11.5494],[72.1905,11.5469],[72.1907,11.5441],[72.1909,11.5417],[72.1916,11.5387],[72.1918,11.5365],[72.192,11.5336],[72.192,11.5316],[72.192,11.5301],[72.1917,11.5296],[72.1915,11.5284],[72.1915,11.5264],[72.1916,11.5248],[72.1917,11.5227],[72.1919,11.5211],[72.192,11.5194],[72.1924,11.5175],[72.1932,11.5151],[72.194,11.5127],[72.1947,11.51],[72.1951,11.5081],[72.1956,11.5064],[72.196,11.5047],[72.1964,11.5032],[72.1969,11.5016],[72.197,11.5005],[72.1971,11.4992],[72.1964,11.4978],[72.1958,11.4967],[72.1951,11.4958],[72.1938,11.4949],[72.1926,11.4941],[72.1915,11.4935],[72.1904,11.4931],[72.1887,11.4926],[72.1871,11.4921],[72.1855,11.4919],[72.1838,11.4918],[72.1821,11.4916],[72.1802,11.4915],[72.1788,11.4913]]],[[[72.0956,11.1924],[72.0947,11.1901],[72.0934,11.1853],[72.0923,11.1816],[72.0911,11.1764],[72.0905,11.1737],[72.0892,11.1691],[72.0876,11.1635],[72.0871,11.1599],[72.0862,11.1526],[72.0848,11.1465],[72.083,11.1417],[72.0816,11.139],[72.0797,11.1356],[72.0775,11.1321],[72.0756,11.1294],[72.0727,11.1274],[72.0693,11.1253],[72.0662,11.124],[72.0627,11.123],[72.0596,11.1219],[72.0546,11.1214],[72.0512,11.1223],[72.0484,11.1242],[72.0442,11.1272],[72.0431,11.1282],[72.043,11.1285],[72.0421,11.1298],[72.0408,11.1315],[72.039,11.1345],[72.0377,11.1365],[72.0366,11.139],[72.0346,11.1429],[72.0335,11.1454],[72.0316,11.1484],[72.0302,11.151],[72.0284,11.1542],[72.0268,11.1571],[72.0264,11.1587],[72.0255,11.1607],[72.0243,11.1626],[72.0221,11.1651],[72.0199,11.1674],[72.0178,11.1695],[72.0162,11.1721],[72.0149,11.1741],[72.0132,11.1756],[72.0141,11.1755],[72.0136,11.1759],[72.0122,11.1778],[72.011,11.1795],[72.0097,11.1815],[72.008,11.1829],[72.0062,11.1846],[72.0044,11.188],[72.0029,11.19],[72.0013,11.1916],[72.0009,11.1939],[72.0016,11.1952],[72.0042,11.1952],[72.0064,11.1943],[72.0098,11.1938],[72.0128,11.1926],[72.0148,11.1914],[72.0192,11.19],[72.0225,11.1886],[72.0255,11.1877],[72.0282,11.1874],[72.0376,11.1886],[72.0472,11.19],[72.059,11.1918],[72.0671,11.1929],[72.07,11.1937],[72.0727,11.1949],[72.0746,11.1961],[72.0779,11.198],[72.0804,11.1998],[72.0828,11.202],[72.0852,11.2043],[72.0878,11.2067],[72.0904,11.2093],[72.0918,11.2117],[72.0936,11.2154],[72.0942,11.2164],[72.0948,11.2178],[72.0959,11.2196],[72.0969,11.2209],[72.0977,11.2217],[72.0983,11.2219],[72.1001,11.2221],[72.102,11.2216],[72.1029,11.22],[72.1029,11.2179],[72.1025,11.2168],[72.1024,11.2165],[72.1024,11.2144],[72.1019,11.2124],[72.1021,11.2109],[72.1016,11.2085],[72.1002,11.2052],[72.0986,11.2018],[72.0975,11.1992],[72.097,11.1975],[72.0969,11.1963],[72.0972,11.196],[72.0965,11.1947],[72.0956,11.1924]]],[[[71.9009,12.2853],[71.899,12.285],[71.8979,12.285],[71.8965,12.2852],[71.8957,12.2856],[71.8947,12.2859],[71.8935,12.2866],[71.8922,12.2873],[71.8915,12.2883],[71.8913,12.2887],[71.8911,12.2894],[71.8907,12.2908],[71.8902,12.2918],[71.8893,12.2954],[71.8892,12.2961],[71.8888,12.3008],[71.89,12.3071],[71.8914,12.3115],[71.891,12.3158],[71.89,12.3204],[71.8874,12.3254],[71.8866,12.3281],[71.8861,12.3287],[71.8856,12.3294],[71.8854,12.3303],[71.8851,12.3311],[71.8845,12.3321],[71.884,12.3336],[71.8837,12.3347],[71.8833,12.3357],[71.8832,12.3366],[71.8832,12.3368],[71.883,12.3373],[71.8824,12.3419],[71.8821,12.3471],[71.8831,12.3516],[71.8836,12.3543],[71.8835,12.3549],[71.8831,12.3592],[71.8828,12.3628],[71.8824,12.3677],[71.8821,12.3716],[71.8818,12.3745],[71.8816,12.3769],[71.8811,12.3786],[71.881,12.3788],[71.8809,12.3789],[71.8808,12.3793],[71.8808,12.3801],[71.8807,12.3808],[71.8803,12.3823],[71.8802,12.3828],[71.8801,12.3835],[71.88,12.3843],[71.8799,12.3853],[71.8798,12.3864],[71.8797,12.3875],[71.8796,12.3883],[71.8795,12.3894],[71.8795,12.3907],[71.8796,12.3918],[71.8797,12.393],[71.8799,12.3939],[71.8805,12.3951],[71.8811,12.3962],[71.882,12.3971],[71.8831,12.3979],[71.8842,12.3989],[71.8854,12.3998],[71.8861,12.4003],[71.887,12.4006],[71.8877,12.4008],[71.8888,12.4013],[71.889,12.4013],[71.8902,12.402],[71.8926,12.4026],[71.8947,12.403],[71.8967,12.4032],[71.8974,12.403],[71.8981,12.4025],[71.8981,12.4025],[71.8983,12.4024],[71.8988,12.4018],[71.9003,12.4008],[71.9018,12.3999],[71.9026,12.3991],[71.9032,12.3986],[71.9041,12.3979],[71.9048,12.3974],[71.9058,12.3961],[71.9067,12.3955],[71.9073,12.3951],[71.908,12.3949],[71.9106,12.3928],[71.9136,12.3907],[71.9168,12.3894],[71.9204,12.3878],[71.9231,12.385],[71.9241,12.3836],[71.9251,12.3813],[71.9264,12.3782],[71.9265,12.3775],[71.9265,12.375],[71.9266,12.3739],[71.9265,12.3725],[71.926,12.3709],[71.9259,12.3684],[71.9257,12.3674],[71.9256,12.3657],[71.9255,12.3631],[71.9257,12.3613],[71.926,12.3597],[71.9261,12.3586],[71.9262,12.3574],[71.9263,12.3555],[71.9264,12.354],[71.9264,12.352],[71.9261,12.35],[71.926,12.3488],[71.9259,12.3471],[71.9258,12.3458],[71.9253,12.3444],[71.9249,12.343],[71.9242,12.3411],[71.9235,12.3399],[71.9231,12.3385],[71.9229,12.3367],[71.9228,12.3348],[71.9225,12.3332],[71.9225,12.3319],[71.9223,12.3286],[71.9221,12.3261],[71.9218,12.3244],[71.9213,12.3231],[71.921,12.3219],[71.9208,12.3208],[71.9204,12.3193],[71.92,12.3177],[71.9199,12.3165],[71.9198,12.3164],[71.9194,12.3156],[71.9191,12.3148],[71.9187,12.3142],[71.9184,12.3128],[71.9176,12.3119],[71.9176,12.3108],[71.9171,12.3098],[71.9169,12.3091],[71.9163,12.3081],[71.9155,12.3072],[71.9151,12.3061],[71.9148,12.3051],[71.9142,12.3037],[71.9135,12.3023],[71.9129,12.3007],[71.9127,12.299],[71.9118,12.2976],[71.9107,12.2962],[71.9101,12.2949],[71.9089,12.2929],[71.9079,12.2913],[71.9076,12.2905],[71.9068,12.2893],[71.9056,12.2879],[71.9043,12.2869],[71.9028,12.286],[71.9025,12.2858],[71.9009,12.2853]]],[[[73.0627,8.329],[73.0645,8.3286],[73.0676,8.3291],[73.0698,8.3295],[73.0718,8.3295],[73.0732,8.3285],[73.074,8.3275],[73.0763,8.3281],[73.078,8.3291],[73.079,8.3294],[73.0806,8.3294],[73.0819,8.3288],[73.0831,8.3282],[73.0843,8.3283],[73.0847,8.3283],[73.085,8.328],[73.0852,8.3274],[73.0853,8.3267],[73.0852,8.3258],[73.0852,8.3248],[73.0853,8.324],[73.0847,8.3224],[73.0842,8.322],[73.0831,8.3213],[73.0827,8.321],[73.0816,8.3207],[73.0806,8.3205],[73.0795,8.3198],[73.0786,8.3185],[73.078,8.3173],[73.0773,8.3162],[73.0771,8.3148],[73.0758,8.3131],[73.0743,8.3109],[73.0728,8.3087],[73.0711,8.3052],[73.0704,8.3029],[73.0696,8.3008],[73.0684,8.2983],[73.0683,8.2954],[73.0683,8.2933],[73.0684,8.2911],[73.0682,8.2892],[73.0683,8.2867],[73.0689,8.2852],[73.069,8.2849],[73.0695,8.2848],[73.0698,8.283],[73.0692,8.2821],[73.068,8.2809],[73.067,8.28],[73.0648,8.2782],[73.0634,8.2769],[73.0622,8.2758],[73.0616,8.2749],[73.0603,8.2733],[73.0592,8.2722],[73.0579,8.2711],[73.0563,8.2696],[73.0544,8.268],[73.0541,8.2678],[73.0537,8.2672],[73.051,8.264],[73.0507,8.2637],[73.0506,8.2634],[73.0499,8.2619],[73.0487,8.2611],[73.0472,8.2606],[73.0455,8.2602],[73.044,8.2602],[73.0419,8.2601],[73.04,8.2603],[73.0382,8.2607],[73.0366,8.261],[73.0352,8.2613],[73.0347,8.2616],[73.0344,8.2616],[73.0314,8.2617],[73.0285,8.2623],[73.0265,8.2628],[73.0233,8.2635],[73.0209,8.2642],[73.0192,8.2651],[73.0188,8.2651],[73.0176,8.2652],[73.0162,8.2658],[73.0154,8.2665],[73.0149,8.2674],[73.0133,8.2683],[73.0117,8.2694],[73.0115,8.2697],[73.0105,8.2701],[73.0098,8.271],[73.0093,8.2724],[73.0088,8.2737],[73.0081,8.2746],[73.0077,8.2753],[73.0076,8.2754],[73.0074,8.2766],[73.0074,8.2777],[73.0071,8.2785],[73.007,8.2788],[73.0068,8.2794],[73.0067,8.28],[73.0066,8.2812],[73.0068,8.2818],[73.007,8.2834],[73.0072,8.2842],[73.0072,8.2848],[73.0072,8.2858],[73.0071,8.287],[73.007,8.2882],[73.007,8.2883],[73.007,8.2891],[73.0071,8.2904],[73.0072,8.2916],[73.0072,8.2917],[73.0071,8.2932],[73.0069,8.2954],[73.0068,8.2967],[73.0067,8.2978],[73.0073,8.2987],[73.0081,8.2999],[73.009,8.3005],[73.0095,8.3016],[73.0103,8.3025],[73.0114,8.3031],[73.0119,8.3035],[73.0138,8.3041],[73.0151,8.3053],[73.0159,8.3059],[73.0166,8.3065],[73.0178,8.3071],[73.0181,8.3073],[73.0193,8.3076],[73.0203,8.3086],[73.0218,8.3092],[73.0231,8.3095],[73.024,8.3103],[73.0249,8.3112],[73.0264,8.3119],[73.028,8.313],[73.0291,8.3142],[73.0302,8.3146],[73.0314,8.315],[73.0326,8.3162],[73.0352,8.3185],[73.0369,8.3197],[73.0385,8.3209],[73.0409,8.322],[73.0431,8.3233],[73.0452,8.3244],[73.0469,8.3253],[73.0489,8.3274],[73.049,8.3274],[73.0504,8.328],[73.0527,8.3287],[73.0549,8.3288],[73.0565,8.3281],[73.058,8.3284],[73.0594,8.329],[73.0611,8.3292],[73.0627,8.329]]],[[[73.6459,10.0534],[73.6445,10.0531],[73.6429,10.0534],[73.642,10.0537],[73.6412,10.0541],[73.6402,10.0549],[73.6389,10.0563],[73.6376,10.0577],[73.6367,10.0588],[73.6358,10.0598],[73.6349,10.0608],[73.6337,10.0619],[73.6326,10.0629],[73.6313,10.0639],[73.6304,10.0651],[73.6296,10.0658],[73.629,10.0665],[73.628,10.0674],[73.6269,10.0687],[73.6261,10.0696],[73.6251,10.0707],[73.6244,10.0719],[73.6242,10.0722],[73.6239,10.0725],[73.6231,10.0733],[73.6226,10.0739],[73.6215,10.0751],[73.6214,10.0763],[73.6219,10.0772],[73.6221,10.0775],[73.6224,10.0782],[73.6223,10.0798],[73.6223,10.0808],[73.6223,10.0827],[73.622,10.0844],[73.6217,10.0858],[73.6214,10.0873],[73.6214,10.0875],[73.6212,10.0883],[73.6208,10.0894],[73.6207,10.0905],[73.6207,10.0913],[73.6202,10.0935],[73.6201,10.0947],[73.62,10.0959],[73.6199,10.0971],[73.6198,10.0985],[73.62,10.0999],[73.62,10.1012],[73.62,10.1013],[73.62,10.1019],[73.6202,10.1032],[73.6206,10.1039],[73.6211,10.1047],[73.6215,10.1056],[73.6224,10.1068],[73.6231,10.1079],[73.6242,10.1096],[73.6255,10.1111],[73.6265,10.1129],[73.6278,10.1143],[73.629,10.1153],[73.6304,10.1163],[73.6317,10.1172],[73.6327,10.1182],[73.634,10.1193],[73.6349,10.1203],[73.6354,10.1219],[73.6364,10.1226],[73.6367,10.1237],[73.6372,10.1255],[73.6377,10.1263],[73.6381,10.127],[73.6388,10.128],[73.6395,10.1288],[73.6402,10.1293],[73.642,10.1307],[73.6427,10.1314],[73.6433,10.1327],[73.6434,10.1342],[73.644,10.1361],[73.6447,10.137],[73.6462,10.1377],[73.647,10.1392],[73.6478,10.1406],[73.6484,10.1417],[73.6495,10.1427],[73.6501,10.1437],[73.6508,10.1445],[73.6515,10.1453],[73.6525,10.1462],[73.6533,10.1472],[73.6538,10.1483],[73.6541,10.1491],[73.6546,10.1497],[73.6552,10.1504],[73.6558,10.1509],[73.6564,10.1517],[73.6567,10.1524],[73.6567,10.1524],[73.6576,10.1536],[73.6586,10.1546],[73.6595,10.155],[73.6602,10.155],[73.6608,10.1549],[73.6614,10.1546],[73.6619,10.1539],[73.6622,10.1532],[73.6623,10.1523],[73.6624,10.1515],[73.6625,10.1507],[73.6626,10.1498],[73.6629,10.1487],[73.6633,10.1476],[73.6637,10.1464],[73.6641,10.1452],[73.6647,10.1444],[73.6651,10.1437],[73.6657,10.1428],[73.6658,10.1419],[73.666,10.1404],[73.666,10.14],[73.6658,10.1394],[73.6659,10.1388],[73.6659,10.1382],[73.6659,10.138],[73.6657,10.1374],[73.6656,10.1368],[73.6651,10.1357],[73.6649,10.1347],[73.6645,10.1326],[73.6641,10.1316],[73.664,10.1313],[73.664,10.1311],[73.6641,10.1303],[73.6641,10.1294],[73.6638,10.1284],[73.6634,10.1276],[73.6631,10.1268],[73.6626,10.126],[73.662,10.1249],[73.6613,10.1237],[73.6605,10.1222],[73.6602,10.1212],[73.6596,10.1198],[73.6592,10.1188],[73.6585,10.1177],[73.6576,10.1168],[73.6572,10.1164],[73.657,10.116],[73.6566,10.1149],[73.6561,10.1138],[73.6559,10.113],[73.6554,10.112],[73.6548,10.1106],[73.6546,10.1099],[73.6543,10.1085],[73.6541,10.1074],[73.6539,10.1059],[73.6539,10.1048],[73.6539,10.1041],[73.6538,10.104],[73.6538,10.1033],[73.6538,10.103],[73.6536,10.1023],[73.6536,10.1017],[73.6535,10.1011],[73.6535,10.1004],[73.6534,10.0998],[73.6533,10.099],[73.6531,10.0983],[73.6532,10.0978],[73.6531,10.0971],[73.653,10.0965],[73.653,10.096],[73.6529,10.0955],[73.6529,10.0954],[73.6526,10.0946],[73.6523,10.0938],[73.6519,10.0927],[73.6517,10.0917],[73.6516,10.0908],[73.6514,10.0899],[73.6513,10.0889],[73.6513,10.0883],[73.6511,10.088],[73.6511,10.0873],[73.6508,10.0863],[73.6506,10.0853],[73.6504,10.0843],[73.6501,10.0832],[73.6498,10.0821],[73.6496,10.0809],[73.6494,10.0798],[73.6493,10.0788],[73.6493,10.0777],[73.6492,10.0765],[73.6493,10.0755],[73.6493,10.0743],[73.6492,10.0724],[73.6492,10.0711],[73.6492,10.07],[73.6493,10.0674],[73.6496,10.0666],[73.6497,10.0649],[73.6498,10.0638],[73.6497,10.0626],[73.6497,10.0609],[73.6494,10.0594],[73.6494,10.0579],[73.6489,10.0564],[73.648,10.0554],[73.6471,10.0543],[73.6459,10.0534]]],[[[72.6471,10.5778],[72.6473,10.5776],[72.6474,10.5776],[72.6477,10.5775],[72.6482,10.5773],[72.6488,10.5769],[72.6492,10.5765],[72.6497,10.5761],[72.6501,10.5756],[72.6504,10.5751],[72.6507,10.5746],[72.6509,10.5741],[72.6514,10.5735],[72.6516,10.573],[72.6518,10.5725],[72.652,10.5719],[72.6523,10.5712],[72.6526,10.5702],[72.6528,10.5695],[72.6529,10.569],[72.653,10.5683],[72.653,10.5675],[72.6531,10.5672],[72.653,10.5672],[72.6528,10.5665],[72.6526,10.5657],[72.6522,10.5647],[72.652,10.5639],[72.6519,10.5634],[72.6519,10.5629],[72.6518,10.5624],[72.6515,10.5619],[72.6514,10.5616],[72.651,10.5611],[72.6505,10.5607],[72.6501,10.5604],[72.6495,10.5599],[72.6491,10.5595],[72.6484,10.5592],[72.6477,10.5588],[72.6471,10.5586],[72.6465,10.5583],[72.6453,10.5582],[72.645,10.5581],[72.6446,10.5581],[72.6438,10.5579],[72.643,10.5577],[72.6425,10.5574],[72.6409,10.5566],[72.6398,10.5563],[72.6388,10.5559],[72.6379,10.5554],[72.6371,10.5549],[72.6364,10.5543],[72.6357,10.5537],[72.6347,10.5529],[72.6337,10.5523],[72.6327,10.5516],[72.6321,10.551],[72.6317,10.5507],[72.6311,10.5502],[72.6309,10.5502],[72.6301,10.5497],[72.6293,10.5491],[72.6286,10.5485],[72.6279,10.548],[72.6272,10.5474],[72.6265,10.5469],[72.6259,10.5463],[72.6249,10.5455],[72.6244,10.5449],[72.6239,10.5442],[72.6233,10.5436],[72.6226,10.543],[72.6222,10.5424],[72.6219,10.5421],[72.6215,10.5412],[72.6208,10.5403],[72.62,10.5394],[72.6197,10.5394],[72.6196,10.5392],[72.6183,10.5388],[72.6175,10.539],[72.6166,10.5397],[72.6162,10.5404],[72.6161,10.5405],[72.6154,10.5416],[72.6152,10.5431],[72.6151,10.5441],[72.6149,10.5445],[72.6147,10.5455],[72.6146,10.5477],[72.6151,10.5502],[72.6153,10.5525],[72.6163,10.5544],[72.6175,10.5562],[72.6185,10.5573],[72.6197,10.5589],[72.6205,10.5599],[72.622,10.5618],[72.6239,10.565],[72.625,10.5663],[72.6261,10.5677],[72.6271,10.5693],[72.6284,10.5712],[72.6293,10.5732],[72.6304,10.5752],[72.6314,10.5767],[72.6326,10.5783],[72.6339,10.5796],[72.6352,10.5806],[72.6365,10.5816],[72.6386,10.5823],[72.6403,10.5819],[72.6423,10.5814],[72.6432,10.5807],[72.6443,10.5799],[72.645,10.5792],[72.6463,10.5784],[72.6471,10.5778]]],[[[73.67,10.8169],[73.6709,10.8167],[73.6709,10.8167],[73.671,10.8167],[73.6718,10.8166],[73.6729,10.8166],[73.6738,10.8167],[73.675,10.8166],[73.6759,10.8164],[73.6767,10.816],[73.6772,10.816],[73.6772,10.816],[73.6782,10.8162],[73.6789,10.8163],[73.6797,10.8165],[73.6806,10.8166],[73.6813,10.8167],[73.6813,10.8167],[73.6824,10.8166],[73.6831,10.8167],[73.6836,10.8166],[73.6854,10.8162],[73.6862,10.8161],[73.6869,10.8161],[73.6878,10.8161],[73.6884,10.8162],[73.6885,10.8162],[73.6893,10.8162],[73.6895,10.8162],[73.6912,10.8163],[73.6929,10.8164],[73.694,10.8164],[73.6946,10.8165],[73.6964,10.8166],[73.6978,10.8166],[73.6985,10.8165],[73.6986,10.8165],[73.6991,10.8165],[73.6998,10.8165],[73.7007,10.8161],[73.7016,10.8158],[73.702,10.8156],[73.7027,10.8151],[73.7032,10.8145],[73.7035,10.8141],[73.7037,10.8135],[73.7038,10.8131],[73.7038,10.8122],[73.7039,10.8115],[73.7038,10.8113],[73.7034,10.8108],[73.703,10.8105],[73.7024,10.81],[73.7012,10.8095],[73.7004,10.8091],[73.6992,10.8086],[73.6984,10.8083],[73.6972,10.808],[73.6962,10.8078],[73.6955,10.8077],[73.6948,10.8076],[73.6945,10.8075],[73.6945,10.8074],[73.6939,10.8072],[73.6929,10.807],[73.6921,10.8066],[73.6915,10.8064],[73.691,10.8062],[73.6908,10.8061],[73.6906,10.8059],[73.6898,10.8058],[73.6887,10.8052],[73.6877,10.8045],[73.6864,10.8038],[73.6854,10.8032],[73.6838,10.8027],[73.6826,10.8021],[73.6808,10.8013],[73.6796,10.8009],[73.6777,10.8005],[73.6757,10.8003],[73.6736,10.8002],[73.672,10.8],[73.6693,10.8003],[73.6669,10.8007],[73.6652,10.8009],[73.663,10.8016],[73.6616,10.8029],[73.6599,10.8047],[73.6594,10.8059],[73.659,10.8071],[73.6585,10.8087],[73.6584,10.8106],[73.6584,10.8123],[73.6585,10.8133],[73.6588,10.8142],[73.6596,10.8151],[73.6604,10.8158],[73.6612,10.8165],[73.662,10.8168],[73.6621,10.8169],[73.6623,10.8169],[73.6627,10.817],[73.6632,10.8171],[73.6632,10.8171],[73.6642,10.8171],[73.6659,10.8173],[73.6671,10.8171],[73.6683,10.817],[73.67,10.8169]]],[[[72.17,10.8087],[72.1694,10.8087],[72.1688,10.8088],[72.1678,10.8093],[72.1673,10.8095],[72.1669,10.8096],[72.1664,10.8098],[72.1656,10.81],[72.165,10.8103],[72.1649,10.8103],[72.1645,10.8105],[72.1645,10.8105],[72.1641,10.8106],[72.1636,10.8108],[72.163,10.811],[72.1626,10.8114],[72.1626,10.8118],[72.1629,10.8119],[72.1633,10.812],[72.164,10.812],[72.1646,10.8121],[72.1648,10.8121],[72.1653,10.8122],[72.1657,10.8124],[72.166,10.8127],[72.1663,10.8131],[72.1668,10.8134],[72.1674,10.8136],[72.168,10.8137],[72.1686,10.8141],[72.1689,10.8146],[72.1693,10.8152],[72.1694,10.8155],[72.1696,10.8161],[72.1698,10.8168],[72.1702,10.8172],[72.1707,10.8177],[72.1711,10.8184],[72.1713,10.819],[72.1717,10.8196],[72.1721,10.82],[72.1723,10.8203],[72.1731,10.821],[72.1743,10.8223],[72.1756,10.8238],[72.1766,10.8253],[72.1779,10.8271],[72.179,10.8293],[72.1804,10.8321],[72.1816,10.8342],[72.1825,10.8361],[72.1831,10.8376],[72.1838,10.8393],[72.1838,10.8397],[72.1839,10.8399],[72.1843,10.8407],[72.1846,10.8412],[72.1848,10.8417],[72.185,10.842],[72.1852,10.8423],[72.1855,10.8426],[72.1858,10.843],[72.186,10.8433],[72.1863,10.8438],[72.1866,10.8448],[72.1868,10.8452],[72.1872,10.8456],[72.1874,10.846],[72.1877,10.8465],[72.1879,10.8472],[72.1882,10.8477],[72.1884,10.8483],[72.1887,10.8487],[72.1888,10.8493],[72.189,10.8499],[72.189,10.8505],[72.1891,10.8511],[72.1894,10.8517],[72.1899,10.853],[72.1902,10.8541],[72.1905,10.8554],[72.1909,10.8568],[72.1913,10.8584],[72.1918,10.8603],[72.1921,10.8615],[72.1926,10.863],[72.1929,10.8642],[72.1926,10.8644],[72.1924,10.8647],[72.1924,10.865],[72.1926,10.8655],[72.1929,10.866],[72.1932,10.8663],[72.1935,10.8668],[72.1938,10.8674],[72.1941,10.868],[72.1944,10.8689],[72.1947,10.8695],[72.1951,10.8704],[72.1953,10.8706],[72.1956,10.871],[72.1962,10.8718],[72.1975,10.8732],[72.1983,10.8741],[72.1987,10.8746],[72.1991,10.875],[72.1996,10.8755],[72.2001,10.876],[72.2006,10.8766],[72.201,10.8771],[72.2011,10.8775],[72.2013,10.8776],[72.202,10.8779],[72.2025,10.8781],[72.2032,10.8781],[72.204,10.8782],[72.2046,10.8782],[72.205,10.878],[72.2056,10.8779],[72.2062,10.8779],[72.2066,10.8778],[72.207,10.8775],[72.2073,10.8771],[72.2075,10.8765],[72.2076,10.876],[72.2077,10.8754],[72.2077,10.8746],[72.2075,10.8739],[72.2073,10.8734],[72.207,10.8726],[72.2068,10.872],[72.2064,10.8714],[72.2061,10.8705],[72.2059,10.8699],[72.2057,10.8695],[72.2055,10.8687],[72.2053,10.8679],[72.2051,10.8674],[72.2047,10.8667],[72.2045,10.8661],[72.2041,10.8656],[72.2037,10.8651],[72.2033,10.8645],[72.2029,10.8637],[72.2024,10.8629],[72.2022,10.8622],[72.2019,10.8618],[72.2016,10.8613],[72.2013,10.8607],[72.2009,10.8597],[72.2006,10.8591],[72.2002,10.8583],[72.1997,10.8578],[72.1992,10.8572],[72.1988,10.8568],[72.1983,10.8562],[72.1974,10.855],[72.1969,10.8543],[72.1969,10.8541],[72.1969,10.8541],[72.1965,10.8537],[72.196,10.853],[72.1951,10.8518],[72.1946,10.8512],[72.1941,10.8503],[72.1936,10.8497],[72.1932,10.8491],[72.1926,10.8482],[72.1922,10.8475],[72.1918,10.8469],[72.1913,10.8462],[72.1908,10.8452],[72.1903,10.8445],[72.1899,10.8435],[72.1894,10.8428],[72.189,10.8422],[72.1885,10.8413],[72.1881,10.8407],[72.1875,10.8397],[72.1871,10.8389],[72.1868,10.8384],[72.1865,10.8376],[72.1863,10.8366],[72.186,10.8356],[72.1858,10.8347],[72.1854,10.8336],[72.1849,10.8327],[72.1843,10.8312],[72.1839,10.83],[72.1835,10.829],[72.1831,10.828],[72.1826,10.8271],[72.182,10.8262],[72.1815,10.8254],[72.181,10.8244],[72.1805,10.8235],[72.1799,10.8228],[72.1793,10.8222],[72.1788,10.8214],[72.1782,10.8206],[72.1776,10.8196],[72.1774,10.819],[72.1771,10.8183],[72.1772,10.8179],[72.1771,10.817],[72.1769,10.8164],[72.1764,10.8158],[72.1758,10.815],[72.1753,10.8143],[72.1745,10.8135],[72.1739,10.8128],[72.1734,10.8118],[72.1729,10.811],[72.1722,10.8102],[72.1722,10.8101],[72.172,10.81],[72.1716,10.8096],[72.1713,10.8095],[72.171,10.8093],[72.1705,10.8089],[72.17,10.8087]]],[[[72.7912,11.2591],[72.7915,11.2589],[72.7917,11.2588],[72.7919,11.2586],[72.7919,11.2583],[72.7919,11.2579],[72.7918,11.2573],[72.7918,11.2568],[72.7917,11.2562],[72.7916,11.2558],[72.7915,11.2551],[72.7914,11.2545],[72.7912,11.2539],[72.7911,11.2532],[72.7909,11.2527],[72.7907,11.2523],[72.7905,11.2519],[72.7903,11.2515],[72.7902,11.2511],[72.7901,11.2506],[72.7898,11.25],[72.7896,11.2497],[72.7895,11.2494],[72.7892,11.2491],[72.7889,11.2483],[72.7885,11.2472],[72.7881,11.2464],[72.7879,11.2461],[72.7876,11.2456],[72.7875,11.2451],[72.7871,11.244],[72.787,11.2436],[72.7868,11.2431],[72.7866,11.2425],[72.7865,11.2423],[72.7862,11.2418],[72.786,11.2414],[72.7859,11.2409],[72.7855,11.2399],[72.7853,11.2393],[72.7851,11.2385],[72.785,11.238],[72.7849,11.2375],[72.7846,11.2369],[72.7844,11.2364],[72.7842,11.2358],[72.7841,11.2354],[72.7839,11.235],[72.7837,11.2345],[72.7836,11.2342],[72.7835,11.2338],[72.7834,11.2334],[72.7833,11.2332],[72.7831,11.2328],[72.783,11.2323],[72.783,11.2321],[72.7827,11.2314],[72.7824,11.2307],[72.7822,11.2299],[72.7821,11.2291],[72.7818,11.2285],[72.7816,11.2277],[72.7814,11.2269],[72.7813,11.2262],[72.7811,11.2255],[72.7809,11.2249],[72.7805,11.2244],[72.7803,11.2237],[72.7803,11.2233],[72.78,11.2225],[72.78,11.2218],[72.7798,11.221],[72.7797,11.2202],[72.7796,11.2195],[72.7795,11.2189],[72.7794,11.2184],[72.7792,11.2178],[72.779,11.2171],[72.7788,11.2166],[72.7786,11.2159],[72.7785,11.2155],[72.7783,11.2149],[72.7781,11.2141],[72.7778,11.2136],[72.7774,11.2127],[72.777,11.2119],[72.7767,11.2114],[72.7763,11.2108],[72.7758,11.2103],[72.7752,11.2098],[72.7745,11.2088],[72.774,11.2082],[72.7737,11.2075],[72.7733,11.2069],[72.7729,11.2064],[72.7725,11.2059],[72.7722,11.2056],[72.7718,11.2052],[72.7714,11.2043],[72.7712,11.2039],[72.7709,11.2033],[72.7705,11.2028],[72.7704,11.2023],[72.7702,11.2017],[72.7701,11.201],[72.7698,11.2002],[72.7696,11.1997],[72.7691,11.1987],[72.7689,11.198],[72.7686,11.1972],[72.7686,11.1967],[72.7684,11.1962],[72.7683,11.1958],[72.768,11.1949],[72.7679,11.1945],[72.7678,11.1943],[72.7674,11.1937],[72.7672,11.1929],[72.767,11.1924],[72.7667,11.192],[72.7665,11.1912],[72.7663,11.1909],[72.7662,11.1906],[72.7661,11.1903],[72.766,11.1899],[72.7659,11.1896],[72.7658,11.1892],[72.7657,11.1887],[72.7654,11.188],[72.7654,11.1876],[72.7653,11.1871],[72.7652,11.1865],[72.765,11.1856],[72.7651,11.1851],[72.7649,11.1845],[72.7648,11.1841],[72.7648,11.1838],[72.7646,11.1835],[72.7645,11.1829],[72.7644,11.1827],[72.7641,11.1819],[72.7639,11.1815],[72.7635,11.1811],[72.7631,11.1809],[72.7628,11.1808],[72.7626,11.1808],[72.7624,11.1807],[72.7622,11.1808],[72.7622,11.1812],[72.7624,11.1816],[72.7626,11.1818],[72.7626,11.1818],[72.7628,11.1823],[72.763,11.1826],[72.7631,11.1828],[72.7631,11.1831],[72.7631,11.1837],[72.7632,11.1847],[72.7634,11.1853],[72.7635,11.1859],[72.7634,11.1869],[72.7636,11.1877],[72.7634,11.1887],[72.7634,11.1893],[72.7635,11.1898],[72.7634,11.1903],[72.7637,11.1912],[72.7641,11.1925],[72.7643,11.1934],[72.7646,11.1941],[72.7649,11.1948],[72.7651,11.1957],[72.7653,11.1964],[72.7655,11.1972],[72.766,11.1985],[72.7663,11.1992],[72.7666,11.1999],[72.7668,11.2004],[72.7672,11.201],[72.7675,11.2017],[72.7677,11.2024],[72.7678,11.2028],[72.7679,11.2034],[72.768,11.2039],[72.7683,11.2045],[72.7688,11.2055],[72.769,11.2059],[72.7693,11.2068],[72.7701,11.2086],[72.7704,11.2097],[72.7708,11.2109],[72.7712,11.2119],[72.7715,11.2125],[72.7715,11.2128],[72.7717,11.2132],[72.7717,11.2135],[72.7719,11.2139],[72.7721,11.2142],[72.7722,11.2145],[72.7724,11.2147],[72.7725,11.2151],[72.7726,11.2155],[72.7726,11.2159],[72.7726,11.2165],[72.7728,11.2169],[72.7728,11.2174],[72.773,11.2178],[72.7731,11.218],[72.7733,11.2183],[72.7735,11.2189],[72.7736,11.2194],[72.7738,11.2198],[72.7739,11.2202],[72.774,11.2206],[72.7741,11.2211],[72.7743,11.2215],[72.7745,11.222],[72.7746,11.2224],[72.7747,11.2227],[72.7749,11.2233],[72.775,11.2237],[72.7751,11.224],[72.7752,11.2243],[72.7753,11.2245],[72.7755,11.2248],[72.7756,11.2251],[72.7757,11.2257],[72.776,11.2267],[72.7764,11.2281],[72.7766,11.2292],[72.7768,11.23],[72.7771,11.2311],[72.7773,11.2321],[72.7777,11.2334],[72.7781,11.2347],[72.7781,11.235],[72.7784,11.2356],[72.7784,11.2358],[72.7785,11.236],[72.7785,11.236],[72.7786,11.2362],[72.7787,11.2367],[72.7788,11.2372],[72.779,11.2376],[72.7792,11.2383],[72.7792,11.2391],[72.7794,11.2396],[72.7795,11.2404],[72.7799,11.2413],[72.7804,11.2423],[72.781,11.2435],[72.7819,11.2456],[72.7822,11.2463],[72.7828,11.2473],[72.7835,11.2486],[72.7841,11.25],[72.7845,11.251],[72.7849,11.2522],[72.7853,11.2533],[72.7859,11.2544],[72.7864,11.2553],[72.7866,11.2559],[72.787,11.2564],[72.7875,11.257],[72.7877,11.2573],[72.7881,11.2576],[72.7885,11.258],[72.7891,11.2583],[72.7895,11.2584],[72.7899,11.2586],[72.79,11.2586],[72.7902,11.2587],[72.7905,11.2588],[72.7907,11.2589],[72.791,11.259],[72.7911,11.2591],[72.7911,11.2591],[72.7912,11.2591]]],[[[73.0094,11.467],[73.0089,11.4669],[73.0086,11.4669],[73.0086,11.467],[73.0082,11.4672],[73.0078,11.4675],[73.0073,11.4679],[73.0068,11.4683],[73.0061,11.469],[73.0053,11.4696],[73.0045,11.4702],[73.0039,11.4707],[73.0034,11.4714],[73.003,11.4722],[73.0022,11.4731],[73.0018,11.4742],[73.0015,11.4752],[73.0012,11.4759],[73.0007,11.4772],[73.0003,11.4779],[73,11.4791],[73,11.4799],[72.9999,11.4808],[72.9998,11.4817],[72.9996,11.4822],[72.9994,11.4825],[72.9993,11.483],[72.9993,11.483],[72.9991,11.4833],[72.9988,11.4839],[72.9986,11.4848],[72.9985,11.4854],[72.9984,11.4862],[72.9981,11.4868],[72.998,11.4876],[72.998,11.4883],[72.9979,11.489],[72.9978,11.4894],[72.9976,11.4899],[72.9974,11.4904],[72.9973,11.4907],[72.9973,11.4914],[72.9973,11.4918],[72.9973,11.4921],[72.9977,11.4922],[72.9978,11.4924],[72.998,11.4928],[72.998,11.4933],[72.9975,11.4939],[72.9975,11.4944],[72.9976,11.4952],[72.9979,11.4956],[72.9981,11.4958],[72.9982,11.4959],[72.9988,11.4966],[72.9994,11.4968],[72.9994,11.4968],[72.9994,11.4968],[72.9999,11.4971],[73.0007,11.4974],[73.0016,11.4976],[73.0026,11.4975],[73.0033,11.4974],[73.0047,11.4967],[73.0055,11.4963],[73.0065,11.4954],[73.007,11.4948],[73.0073,11.4942],[73.0078,11.4936],[73.0082,11.4927],[73.0084,11.4921],[73.0087,11.4914],[73.0095,11.49],[73.0098,11.4891],[73.0104,11.4884],[73.0109,11.4878],[73.0111,11.487],[73.0113,11.4863],[73.0114,11.4855],[73.0114,11.4848],[73.0115,11.4839],[73.0114,11.4819],[73.0115,11.481],[73.0115,11.4803],[73.0116,11.4792],[73.0117,11.4782],[73.0118,11.4774],[73.0119,11.4767],[73.012,11.4759],[73.0122,11.475],[73.0124,11.4746],[73.0125,11.4746],[73.0127,11.4737],[73.013,11.4731],[73.0132,11.4727],[73.0132,11.4725],[73.0132,11.4717],[73.0131,11.4711],[73.0131,11.4707],[73.0128,11.4703],[73.0124,11.4698],[73.0121,11.4692],[73.0118,11.4688],[73.0112,11.4683],[73.0108,11.4679],[73.0101,11.4674],[73.0094,11.467]]],[[[72.7189,11.6952],[72.7189,11.6945],[72.7189,11.6941],[72.7186,11.6925],[72.7183,11.6918],[72.7179,11.6909],[72.7174,11.69],[72.7167,11.6889],[72.716,11.6879],[72.7155,11.6873],[72.7146,11.6866],[72.7139,11.6857],[72.7133,11.6849],[72.7125,11.6832],[72.7117,11.6823],[72.7111,11.6816],[72.7105,11.6811],[72.7098,11.6807],[72.7094,11.6804],[72.7092,11.6799],[72.7092,11.6796],[72.7092,11.6793],[72.7091,11.6792],[72.7083,11.6791],[72.708,11.679],[72.7071,11.679],[72.7065,11.6791],[72.7059,11.6794],[72.7056,11.6797],[72.7053,11.6802],[72.7044,11.6808],[72.7039,11.6812],[72.7032,11.6815],[72.7025,11.6819],[72.7019,11.6822],[72.7015,11.6826],[72.7009,11.6831],[72.7005,11.6837],[72.7003,11.6845],[72.7001,11.6855],[72.7,11.6863],[72.7,11.6871],[72.7,11.688],[72.7005,11.6893],[72.7011,11.6899],[72.7019,11.6901],[72.702,11.6902],[72.7024,11.6903],[72.7035,11.6905],[72.7043,11.6906],[72.7049,11.6915],[72.7051,11.6922],[72.706,11.6928],[72.7066,11.6934],[72.7066,11.6936],[72.7067,11.6936],[72.7071,11.6938],[72.7072,11.6942],[72.7066,11.6946],[72.7059,11.6945],[72.7056,11.6941],[72.7049,11.6936],[72.7045,11.6931],[72.7038,11.6928],[72.7038,11.6928],[72.7033,11.6928],[72.7029,11.693],[72.703,11.6932],[72.7029,11.6932],[72.7028,11.6937],[72.7027,11.6941],[72.7031,11.6948],[72.7034,11.6953],[72.7034,11.6953],[72.7035,11.6956],[72.7041,11.6963],[72.7042,11.6963],[72.7042,11.6964],[72.7045,11.6969],[72.705,11.6975],[72.7055,11.6979],[72.7059,11.6982],[72.7062,11.6985],[72.7071,11.6993],[72.7076,11.6999],[72.7079,11.7003],[72.7083,11.7005],[72.7083,11.7005],[72.7087,11.7007],[72.7093,11.7009],[72.7095,11.7009],[72.7103,11.701],[72.711,11.701],[72.7118,11.7015],[72.7121,11.7019],[72.7125,11.7023],[72.7133,11.7027],[72.7141,11.7031],[72.7151,11.7034],[72.7157,11.7037],[72.7163,11.7038],[72.7165,11.7038],[72.717,11.7036],[72.7174,11.7035],[72.7175,11.7034],[72.7178,11.703],[72.718,11.7025],[72.7182,11.7021],[72.7183,11.7017],[72.7186,11.7007],[72.7188,11.6995],[72.7189,11.6985],[72.7189,11.6979],[72.719,11.6971],[72.719,11.6966],[72.7189,11.6958],[72.7189,11.6952]]],[[[72.7219,11.1115],[72.7216,11.1114],[72.7211,11.1114],[72.7209,11.1115],[72.7207,11.1116],[72.7203,11.1118],[72.7201,11.1121],[72.7198,11.1124],[72.7196,11.1127],[72.7195,11.1129],[72.7192,11.1133],[72.7191,11.1135],[72.7188,11.1137],[72.7186,11.114],[72.7184,11.1142],[72.7183,11.1144],[72.7182,11.1146],[72.718,11.1148],[72.7178,11.1151],[72.7176,11.1153],[72.7175,11.1156],[72.7173,11.1159],[72.7173,11.1162],[72.7173,11.1166],[72.7172,11.1168],[72.7172,11.117],[72.717,11.1172],[72.7169,11.1175],[72.7169,11.1175],[72.717,11.1177],[72.7169,11.1183],[72.7169,11.1193],[72.7168,11.1197],[72.7168,11.12],[72.7168,11.1203],[72.7169,11.1206],[72.717,11.1211],[72.717,11.1215],[72.7171,11.1217],[72.7172,11.1219],[72.7173,11.1222],[72.7174,11.1224],[72.7175,11.123],[72.7178,11.124],[72.7184,11.1251],[72.7189,11.1261],[72.7195,11.127],[72.7202,11.1279],[72.7208,11.1287],[72.7212,11.1291],[72.7212,11.1292],[72.7212,11.1292],[72.7218,11.1296],[72.7222,11.13],[72.7226,11.1303],[72.7232,11.1308],[72.7238,11.1311],[72.7238,11.1311],[72.724,11.1313],[72.7244,11.1316],[72.725,11.132],[72.7253,11.1322],[72.7258,11.1326],[72.7262,11.1327],[72.7266,11.133],[72.7269,11.1332],[72.7272,11.1335],[72.7276,11.1338],[72.7279,11.1341],[72.7281,11.1344],[72.7284,11.1346],[72.7286,11.1348],[72.7291,11.1351],[72.7294,11.1353],[72.7297,11.1354],[72.7298,11.1354],[72.7298,11.1354],[72.7305,11.1357],[72.7314,11.1358],[72.7317,11.1359],[72.7324,11.1359],[72.7334,11.1357],[72.7345,11.1355],[72.7349,11.1354],[72.7352,11.1353],[72.7353,11.135],[72.7355,11.1347],[72.7356,11.1344],[72.7357,11.1342],[72.7357,11.1339],[72.7358,11.1335],[72.7358,11.1332],[72.7358,11.1329],[72.7358,11.132],[72.7356,11.1314],[72.7355,11.131],[72.7354,11.1306],[72.7352,11.1303],[72.7351,11.1299],[72.735,11.1297],[72.7349,11.1294],[72.7347,11.1287],[72.7345,11.1282],[72.7344,11.128],[72.7343,11.1278],[72.7342,11.1275],[72.734,11.1269],[72.7339,11.1267],[72.7338,11.1265],[72.7336,11.126],[72.7335,11.1256],[72.7334,11.1253],[72.7333,11.125],[72.7331,11.1246],[72.7329,11.1243],[72.7326,11.1238],[72.7322,11.1236],[72.7319,11.1231],[72.7317,11.1227],[72.7315,11.1223],[72.731,11.1215],[72.7306,11.1208],[72.7301,11.1201],[72.7299,11.1198],[72.7297,11.1195],[72.7295,11.1193],[72.7294,11.119],[72.7292,11.1188],[72.729,11.1186],[72.7288,11.1184],[72.7284,11.118],[72.7282,11.1177],[72.7281,11.1177],[72.7279,11.1175],[72.7277,11.1174],[72.7276,11.1173],[72.7272,11.117],[72.727,11.1169],[72.7266,11.1165],[72.7263,11.1162],[72.7259,11.1159],[72.7256,11.1156],[72.7252,11.1153],[72.7249,11.1151],[72.7247,11.1149],[72.7242,11.1144],[72.7238,11.1141],[72.7232,11.1136],[72.7229,11.1134],[72.7225,11.1132],[72.7223,11.113],[72.7221,11.1128],[72.722,11.1127],[72.722,11.1125],[72.722,11.1123],[72.722,11.1121],[72.722,11.1119],[72.722,11.1117],[72.7219,11.1115]]],[[[72.2915,10.9451],[72.2919,10.9451],[72.2925,10.9451],[72.293,10.9451],[72.2936,10.9452],[72.2939,10.9452],[72.2943,10.9452],[72.2946,10.9451],[72.2949,10.9451],[72.2952,10.945],[72.2955,10.9448],[72.2955,10.9446],[72.2954,10.9444],[72.2952,10.9443],[72.2949,10.9442],[72.2946,10.9441],[72.2942,10.9441],[72.2939,10.944],[72.2937,10.944],[72.2934,10.9443],[72.2928,10.9444],[72.2924,10.9444],[72.2924,10.9444],[72.292,10.9443],[72.2917,10.9442],[72.2915,10.9439],[72.2912,10.9435],[72.2911,10.9433],[72.2909,10.943],[72.2908,10.9427],[72.2908,10.9423],[72.2909,10.942],[72.291,10.9417],[72.2911,10.9416],[72.2911,10.9414],[72.2911,10.941],[72.2912,10.9407],[72.2913,10.9403],[72.2914,10.94],[72.2915,10.9396],[72.2917,10.939],[72.2918,10.9387],[72.292,10.9383],[72.2922,10.938],[72.2924,10.9378],[72.2926,10.9376],[72.2929,10.9373],[72.2931,10.9372],[72.2932,10.9371],[72.2934,10.9369],[72.2935,10.9369],[72.2935,10.9369],[72.2937,10.9366],[72.2937,10.9364],[72.2938,10.9362],[72.2939,10.936],[72.2939,10.9356],[72.2937,10.9354],[72.2936,10.9351],[72.2933,10.9349],[72.2929,10.9348],[72.2925,10.9346],[72.2922,10.9343],[72.2922,10.9343],[72.2919,10.9341],[72.2917,10.934],[72.2915,10.9339],[72.2914,10.9338],[72.2909,10.9337],[72.2903,10.9337],[72.2898,10.9337],[72.2894,10.9339],[72.289,10.934],[72.2887,10.9341],[72.2883,10.9341],[72.2883,10.9342],[72.2882,10.9342],[72.288,10.9342],[72.2875,10.9342],[72.2872,10.9342],[72.2872,10.9343],[72.287,10.9343],[72.2866,10.9343],[72.2863,10.9343],[72.2858,10.9345],[72.2855,10.9348],[72.2853,10.9353],[72.2852,10.9358],[72.2852,10.9362],[72.2853,10.9368],[72.2855,10.9372],[72.2856,10.9375],[72.2857,10.938],[72.2858,10.9384],[72.2859,10.9389],[72.2861,10.9394],[72.2862,10.9398],[72.2863,10.9402],[72.2865,10.9407],[72.2867,10.9412],[72.2868,10.9417],[72.2868,10.9422],[72.2868,10.9425],[72.2869,10.943],[72.2869,10.9435],[72.287,10.9439],[72.2872,10.9445],[72.2874,10.9449],[72.2876,10.9454],[72.288,10.9459],[72.2882,10.9459],[72.2882,10.946],[72.2884,10.946],[72.2886,10.946],[72.2887,10.9461],[72.2889,10.9461],[72.2892,10.9461],[72.2894,10.9459],[72.2897,10.9457],[72.2901,10.9456],[72.2903,10.9454],[72.2907,10.9452],[72.291,10.9451],[72.2915,10.9451]]],[[[72.3272,10.9491],[72.3269,10.9489],[72.3266,10.9487],[72.3261,10.9483],[72.3257,10.948],[72.325,10.9474],[72.3242,10.9466],[72.3235,10.946],[72.3229,10.9454],[72.322,10.9448],[72.3213,10.9443],[72.3206,10.9438],[72.3199,10.9434],[72.3193,10.943],[72.3187,10.9427],[72.3181,10.9424],[72.3175,10.942],[72.317,10.9417],[72.3166,10.9415],[72.3161,10.9414],[72.3159,10.9415],[72.3158,10.9416],[72.3155,10.9418],[72.3154,10.942],[72.3154,10.9422],[72.3154,10.9424],[72.3154,10.9425],[72.3153,10.9427],[72.3153,10.943],[72.3153,10.9431],[72.3154,10.9433],[72.3155,10.9438],[72.3155,10.9442],[72.3155,10.9446],[72.3155,10.9452],[72.3155,10.9456],[72.3155,10.9461],[72.3157,10.9465],[72.3158,10.9469],[72.3161,10.9474],[72.3165,10.9478],[72.3169,10.9481],[72.3171,10.9482],[72.3174,10.9484],[72.3177,10.9485],[72.3181,10.9486],[72.319,10.9486],[72.32,10.9486],[72.3211,10.9487],[72.3219,10.9487],[72.3228,10.9489],[72.3235,10.9491],[72.3244,10.9494],[72.3253,10.9496],[72.3257,10.9498],[72.3258,10.9498],[72.3262,10.9499],[72.3265,10.9501],[72.3268,10.9503],[72.327,10.9504],[72.3273,10.9505],[72.3276,10.9505],[72.3278,10.9504],[72.328,10.9504],[72.3281,10.9502],[72.3281,10.95],[72.3281,10.9498],[72.3279,10.9496],[72.3277,10.9494],[72.3274,10.9492],[72.3272,10.9491]]],[[[72.5344,10.7797],[72.5318,10.7792],[72.531,10.7798],[72.5314,10.7808],[72.5317,10.7811],[72.5333,10.7822],[72.5341,10.7827],[72.5351,10.7832],[72.5359,10.7833],[72.5368,10.7832],[72.5373,10.7831],[72.5378,10.7824],[72.5377,10.7815],[72.5365,10.7805],[72.5344,10.7797]]],[[[72.3342,10.9508],[72.3341,10.9506],[72.334,10.9505],[72.3339,10.9504],[72.3336,10.9503],[72.3334,10.9502],[72.3332,10.9501],[72.3331,10.9499],[72.3329,10.9498],[72.3327,10.9496],[72.3326,10.9494],[72.3325,10.9493],[72.3324,10.9491],[72.3323,10.949],[72.3321,10.949],[72.3319,10.949],[72.3316,10.9492],[72.3314,10.9493],[72.3313,10.9495],[72.3312,10.9496],[72.331,10.9497],[72.3308,10.9498],[72.3306,10.95],[72.3304,10.95],[72.3301,10.95],[72.3299,10.95],[72.3297,10.95],[72.3294,10.95],[72.3292,10.95],[72.329,10.95],[72.3288,10.95],[72.3286,10.9501],[72.3285,10.9501],[72.3284,10.9502],[72.3283,10.9503],[72.3283,10.9504],[72.3284,10.9505],[72.3285,10.9505],[72.3287,10.9506],[72.3288,10.9506],[72.3289,10.9506],[72.329,10.9506],[72.3291,10.9506],[72.3292,10.9506],[72.3293,10.9506],[72.3294,10.9506],[72.3297,10.9506],[72.3299,10.9506],[72.3301,10.9506],[72.3303,10.9506],[72.3306,10.9506],[72.3308,10.9506],[72.331,10.9506],[72.3313,10.9506],[72.3314,10.9506],[72.3317,10.9506],[72.3319,10.9507],[72.3321,10.9508],[72.3324,10.951],[72.3327,10.9512],[72.3328,10.9513],[72.333,10.9514],[72.3332,10.9515],[72.3334,10.9516],[72.3336,10.9517],[72.3338,10.9517],[72.334,10.9516],[72.3342,10.9516],[72.3343,10.9514],[72.3343,10.9513],[72.3343,10.951],[72.3342,10.9508]]],[[[72.335,10.9546],[72.3348,10.9545],[72.3346,10.9545],[72.3345,10.9545],[72.3343,10.9546],[72.3343,10.9547],[72.3342,10.9548],[72.3342,10.955],[72.3342,10.9551],[72.3343,10.9553],[72.3344,10.9554],[72.3344,10.9555],[72.3345,10.9557],[72.3345,10.9558],[72.3345,10.9559],[72.3345,10.956],[72.3346,10.9562],[72.3346,10.9563],[72.3346,10.9564],[72.3346,10.9566],[72.3346,10.9567],[72.3346,10.9569],[72.3346,10.957],[72.3346,10.957],[72.3346,10.9571],[72.3346,10.9572],[72.3345,10.9573],[72.3345,10.9574],[72.3345,10.9576],[72.3346,10.9577],[72.3346,10.9577],[72.3347,10.9578],[72.3348,10.9579],[72.3348,10.9579],[72.3349,10.9579],[72.335,10.9579],[72.335,10.9578],[72.3351,10.9577],[72.3352,10.9576],[72.3353,10.9575],[72.3354,10.9573],[72.3355,10.9572],[72.3357,10.9572],[72.3359,10.957],[72.336,10.9569],[72.3361,10.9568],[72.3361,10.9566],[72.3361,10.9565],[72.3361,10.9564],[72.3361,10.9563],[72.3361,10.9562],[72.3362,10.9559],[72.3362,10.9556],[72.3361,10.9552],[72.3361,10.9551],[72.3361,10.955],[72.336,10.9549],[72.3358,10.9548],[72.3356,10.9546],[72.3355,10.9546],[72.3353,10.9546],[72.3351,10.9546],[72.335,10.9546]]],[[[72.3347,10.9536],[72.3348,10.9536],[72.3349,10.9536],[72.3349,10.9537],[72.335,10.9538],[72.3352,10.9539],[72.3353,10.9539],[72.3354,10.9539],[72.3355,10.9539],[72.3355,10.9538],[72.3355,10.9537],[72.3355,10.9536],[72.3355,10.9534],[72.3355,10.9533],[72.3354,10.953],[72.3354,10.9528],[72.3353,10.9525],[72.3352,10.9523],[72.3351,10.952],[72.335,10.9518],[72.3348,10.9517],[72.3347,10.9516],[72.3346,10.9516],[72.3346,10.9516],[72.3344,10.9516],[72.3344,10.9517],[72.3343,10.9518],[72.3343,10.9519],[72.3343,10.952],[72.3344,10.9521],[72.3344,10.9523],[72.3344,10.9524],[72.3344,10.9525],[72.3343,10.9526],[72.3341,10.9527],[72.334,10.9527],[72.3339,10.9527],[72.3338,10.9527],[72.3336,10.9526],[72.3335,10.9526],[72.3332,10.9525],[72.3331,10.9525],[72.3328,10.9524],[72.3327,10.9524],[72.3325,10.9525],[72.3325,10.9526],[72.3325,10.9528],[72.3325,10.9529],[72.3325,10.953],[72.3327,10.9531],[72.3327,10.9532],[72.3329,10.9533],[72.3331,10.9534],[72.3333,10.9535],[72.3333,10.9535],[72.3334,10.9536],[72.3334,10.9537],[72.3336,10.9538],[72.3337,10.9539],[72.3338,10.954],[72.334,10.9541],[72.3342,10.9541],[72.3344,10.954],[72.3346,10.954],[72.3346,10.9539],[72.3346,10.9538],[72.3347,10.9538],[72.3347,10.9537],[72.3347,10.9536]]]]},"properties":{"district_name":"Lakshadweep","raw_district_name":"Lakshadweep","state_code":"LD","state_name":"Lakshadweep","census_code":587,"data_source":"DataMeet India Maps (Census 2011 Boundaries)"}}]}