{"type":"FeatureCollection","properties":{"state_code":"ML","state_name":"Meghalaya","data_source":"DataMeet India Maps"},"features":[{"type":"Feature","geometry":{"type":"Polygon","coordinates":[[[91.0323,25.8875],[91.0322,25.8793],[91.0296,25.8661],[91.0249,25.8608],[91.0182,25.8585],[91.0162,25.8567],[91.0158,25.8483],[91.0118,25.8377],[91.0047,25.8253],[91.0038,25.8217],[91.0015,25.8192],[91,25.8188],[90.9972,25.8169],[90.9934,25.811],[90.9867,25.8047],[90.9828,25.802],[90.979,25.7976],[90.973,25.7936],[90.9687,25.781],[90.9603,25.7777],[90.9538,25.772],[90.9469,25.7699],[90.9437,25.7634],[90.9443,25.756],[90.9464,25.7525],[90.9512,25.7522],[90.9553,25.7545],[90.9571,25.7542],[90.9605,25.751],[90.9646,25.7495],[90.9688,25.7502],[90.9743,25.7525],[90.9784,25.7509],[90.982,25.7483],[90.9854,25.744],[90.9787,25.7376],[90.973,25.7257],[90.966,25.7208],[90.9629,25.7156],[90.9576,25.7103],[90.9545,25.6944],[90.9485,25.6885],[90.9417,25.6839],[90.9341,25.6766],[90.9298,25.6683],[90.9206,25.6567],[90.9151,25.6539],[90.9139,25.6462],[90.9111,25.6404],[90.9051,25.6372],[90.8971,25.6354],[90.8915,25.6289],[90.888,25.6233],[90.883,25.6191],[90.8827,25.6105],[90.8781,25.6074],[90.8751,25.6033],[90.8702,25.6008],[90.8653,25.6001],[90.8521,25.5903],[90.8463,25.5906],[90.8407,25.5878],[90.8328,25.5896],[90.8204,25.5857],[90.8196,25.5788],[90.8153,25.5767],[90.8132,25.5781],[90.8113,25.5836],[90.8046,25.5859],[90.8027,25.5813],[90.7972,25.5773],[90.7958,25.5722],[90.7926,25.5719],[90.787,25.5824],[90.7819,25.5852],[90.7795,25.5789],[90.7759,25.5737],[90.7749,25.5678],[90.7694,25.5616],[90.7702,25.5573],[90.7694,25.5539],[90.7617,25.5515],[90.7529,25.5473],[90.7332,25.5327],[90.7047,25.5068],[90.682,25.4811],[90.6619,25.4518],[90.6584,25.4377],[90.6474,25.4156],[90.6425,25.4149],[90.6346,25.4183],[90.6079,25.4244],[90.5828,25.421],[90.5742,25.4273],[90.5547,25.4332],[90.5217,25.4329],[90.5048,25.4382],[90.4894,25.4464],[90.4789,25.4534],[90.4633,25.4509],[90.4494,25.4508],[90.4388,25.4533],[90.408,25.458],[90.3683,25.4542],[90.3592,25.4575],[90.3521,25.4591],[90.3342,25.4604],[90.3229,25.4654],[90.3256,25.4734],[90.3345,25.4841],[90.3471,25.4938],[90.4059,25.5513],[90.4096,25.6003],[90.4148,25.611],[90.42,25.6321],[90.4353,25.6718],[90.4356,25.6797],[90.4446,25.6957],[90.441,25.7035],[90.4098,25.7504],[90.4025,25.7669],[90.3973,25.7936],[90.3946,25.7985],[90.3783,25.8025],[90.3437,25.802],[90.3419,25.8044],[90.3453,25.8278],[90.3524,25.8317],[90.3708,25.8308],[90.3829,25.8341],[90.3869,25.8406],[90.3854,25.8674],[90.4175,25.9222],[90.4257,25.9527],[90.3996,25.9492],[90.3843,25.9461],[90.3644,25.941],[90.332,25.9303],[90.3205,25.9296],[90.2961,25.9322],[90.2283,25.9253],[90.1849,25.9009],[90.1736,25.9082],[90.1627,25.9136],[90.1547,25.9236],[90.1392,25.9342],[90.1151,25.9541],[90.1179,25.9574],[90.1228,25.9612],[90.1242,25.9577],[90.1274,25.9571],[90.1326,25.9587],[90.1382,25.9578],[90.1442,25.9581],[90.1515,25.9644],[90.1575,25.9646],[90.1578,25.9637],[90.1586,25.9601],[90.1625,25.9582],[90.1676,25.9573],[90.1726,25.9573],[90.1768,25.9587],[90.1802,25.957],[90.1846,25.9469],[90.1866,25.9444],[90.1897,25.9455],[90.1935,25.9532],[90.1981,25.9569],[90.2125,25.9615],[90.2152,25.9556],[90.2168,25.9538],[90.2314,25.9551],[90.2818,25.9631],[90.2906,25.9638],[90.3283,25.9743],[90.333,25.9826],[90.3339,25.9883],[90.3409,25.99],[90.3433,25.9967],[90.3488,26.0011],[90.3506,26.0028],[90.369,26.0101],[90.3848,26.0115],[90.3913,26.0111],[90.3979,26.0139],[90.4004,26.014],[90.4012,26.012],[90.4041,26.0091],[90.4115,26.0074],[90.415,26.0057],[90.4179,26.0011],[90.4204,25.9967],[90.4213,25.9921],[90.4325,25.9888],[90.451,25.9963],[90.4614,25.9994],[90.4618,26.0011],[90.4629,26.003],[90.4692,26.007],[90.4748,26.0124],[90.4812,26.015],[90.4851,26.0138],[90.4934,26.0094],[90.4962,26.0063],[90.5018,26.0034],[90.504,26.0011],[90.5095,25.9958],[90.5173,25.9821],[90.5278,25.9697],[90.5336,25.9616],[90.5382,25.9578],[90.5385,25.9454],[90.5375,25.9361],[90.5359,25.9323],[90.5299,25.928],[90.5222,25.9092],[90.5148,25.8999],[90.5162,25.896],[90.5217,25.8963],[90.5291,25.9008],[90.5373,25.9086],[90.5429,25.9152],[90.5505,25.9196],[90.557,25.9289],[90.5669,25.9353],[90.575,25.9388],[90.5764,25.9437],[90.5765,25.9479],[90.5825,25.9578],[90.5861,25.9595],[90.5909,25.9536],[90.5955,25.9518],[90.6056,25.9515],[90.609,25.9467],[90.6326,25.9371],[90.6112,25.9193],[90.6101,25.912],[90.6117,25.9077],[90.6143,25.9072],[90.6178,25.8992],[90.6284,25.8986],[90.6303,25.9011],[90.6325,25.9063],[90.6304,25.911],[90.6309,25.9167],[90.6414,25.923],[90.6576,25.9294],[90.6737,25.9339],[90.6792,25.9362],[90.6896,25.9505],[90.7166,25.9518],[90.7213,25.9544],[90.7242,25.9488],[90.7289,25.9484],[90.7358,25.9522],[90.7438,25.9545],[90.7443,25.9548],[90.7471,25.9563],[90.7509,25.9569],[90.7495,25.9523],[90.7481,25.9502],[90.7473,25.9491],[90.7482,25.9461],[90.7438,25.9405],[90.7476,25.9324],[90.7509,25.932],[90.7542,25.9337],[90.7561,25.9336],[90.7496,25.9216],[90.744,25.9148],[90.7458,25.9126],[90.7489,25.9119],[90.7535,25.9189],[90.7624,25.9213],[90.7611,25.9162],[90.7612,25.9107],[90.7724,25.9081],[90.7815,25.9079],[90.7819,25.9139],[90.7851,25.9209],[90.7951,25.9353],[90.8005,25.9411],[90.8121,25.9468],[90.8133,25.9517],[90.818,25.9501],[90.8239,25.948],[90.8273,25.9447],[90.8314,25.947],[90.8357,25.9449],[90.8396,25.9468],[90.8401,25.9378],[90.8432,25.938],[90.8444,25.9427],[90.8466,25.9444],[90.8602,25.9439],[90.8729,25.942],[90.8762,25.9425],[90.8758,25.9463],[90.8786,25.9487],[90.8836,25.9458],[90.8848,25.9502],[90.8863,25.9513],[90.8917,25.9432],[90.8957,25.9386],[90.8998,25.937],[90.9004,25.9349],[90.8987,25.9311],[90.9045,25.9291],[90.9158,25.9198],[90.9193,25.9146],[90.9224,25.9128],[90.9196,25.9277],[90.9192,25.9427],[90.9216,25.9427],[90.9354,25.9392],[90.9379,25.9406],[90.9408,25.9443],[90.9461,25.9471],[90.9488,25.9386],[90.9571,25.9362],[90.9612,25.9334],[90.9639,25.9272],[90.9701,25.9048],[90.9705,25.8961],[90.9698,25.8905],[90.9706,25.8867],[90.9745,25.8872],[90.9786,25.8889],[90.988,25.8894],[91,25.8882],[91.0045,25.886],[91.0168,25.8838],[91.0237,25.8867],[91.0288,25.8878],[91.0314,25.888],[91.0323,25.8875]]]},"properties":{"district_name":"East Garo Hills","raw_district_name":"East Garo Hills","state_code":"ML","state_name":"Meghalaya","census_code":294,"data_source":"DataMeet India Maps (Census 2011 Boundaries)"}},{"type":"Feature","geometry":{"type":"Polygon","coordinates":[[[92.0198,25.1868],[92.0139,25.1885],[92.0052,25.1871],[91.9987,25.184],[91.9939,25.1804],[91.99,25.1747],[91.9862,25.171],[91.9777,25.1719],[91.9725,25.176],[91.967,25.1789],[91.9553,25.1821],[91.9501,25.1827],[91.9387,25.1825],[91.9302,25.1821],[91.9164,25.1822],[91.9087,25.1807],[91.9018,25.1801],[91.8954,25.1798],[91.8858,25.1769],[91.879,25.1758],[91.8623,25.1744],[91.8547,25.1749],[91.8442,25.1781],[91.8392,25.177],[91.8331,25.1734],[91.8249,25.1736],[91.8193,25.1708],[91.8094,25.1688],[91.7988,25.1679],[91.7912,25.1679],[91.7857,25.1678],[91.7749,25.1665],[91.7691,25.1667],[91.7603,25.1685],[91.7497,25.1711],[91.7468,25.1666],[91.7492,25.1612],[91.7505,25.157],[91.7506,25.1533],[91.747,25.148],[91.7399,25.1494],[91.7336,25.1511],[91.7296,25.1523],[91.7242,25.1556],[91.7192,25.1568],[91.7142,25.1576],[91.7078,25.1562],[91.7056,25.1496],[91.7009,25.1435],[91.6972,25.1398],[91.6919,25.1375],[91.6853,25.1367],[91.681,25.1372],[91.6749,25.1366],[91.6681,25.1305],[91.6638,25.1288],[91.6597,25.1305],[91.6536,25.1303],[91.65,25.1261],[91.645,25.1237],[91.6377,25.1254],[91.6311,25.1302],[91.6292,25.1387],[91.627,25.143],[91.6216,25.1461],[91.6173,25.1458],[91.6128,25.1439],[91.6081,25.1425],[91.604,25.1464],[91.6068,25.1523],[91.6044,25.1595],[91.6046,25.1661],[91.6113,25.1717],[91.6059,25.1731],[91.5957,25.1711],[91.5878,25.1705],[91.5826,25.1696],[91.5791,25.1666],[91.5774,25.1629],[91.572,25.1599],[91.5641,25.1574],[91.56,25.1538],[91.5568,25.1508],[91.5505,25.1484],[91.5447,25.1472],[91.5401,25.146],[91.531,25.1442],[91.5221,25.1436],[91.5158,25.1441],[91.5108,25.1445],[91.5072,25.1431],[91.5067,25.1393],[91.5033,25.1366],[91.4961,25.1341],[91.4887,25.1342],[91.4805,25.1345],[91.4739,25.1356],[91.4705,25.1439],[91.4698,25.1489],[91.4663,25.1506],[91.4596,25.1507],[91.4538,25.1491],[91.449,25.1492],[91.4423,25.1516],[91.4391,25.1546],[91.4348,25.1552],[91.4269,25.1626],[91.4239,25.166],[91.4218,25.1692],[91.4169,25.1719],[91.412,25.1669],[91.4069,25.1656],[91.3996,25.168],[91.3911,25.1697],[91.3827,25.1763],[91.366,25.2047],[91.3567,25.2286],[91.3573,25.2336],[91.3606,25.2347],[91.368,25.2342],[91.374,25.2422],[91.3784,25.2432],[91.3884,25.239],[91.3903,25.2454],[91.3975,25.2508],[91.4014,25.2559],[91.4056,25.2631],[91.4106,25.2633],[91.4151,25.2644],[91.4257,25.2614],[91.4412,25.2724],[91.4531,25.2715],[91.4651,25.268],[91.4704,25.2707],[91.4753,25.2689],[91.4766,25.265],[91.4818,25.2629],[91.4874,25.2644],[91.4905,25.2707],[91.4919,25.2784],[91.4988,25.2828],[91.5253,25.2781],[91.5305,25.2796],[91.5355,25.2759],[91.5466,25.2789],[91.5508,25.2864],[91.5535,25.2999],[91.5554,25.3042],[91.552,25.3117],[91.5553,25.3199],[91.5514,25.3258],[91.5527,25.3297],[91.5491,25.3334],[91.5424,25.3347],[91.5324,25.3423],[91.528,25.3438],[91.5273,25.3484],[91.5281,25.3535],[91.5326,25.3558],[91.5406,25.3693],[91.5421,25.3733],[91.5405,25.3788],[91.5437,25.3887],[91.5437,25.4004],[91.5453,25.406],[91.5496,25.4127],[91.5494,25.4188],[91.5517,25.4227],[91.5589,25.4284],[91.5594,25.4347],[91.5571,25.4381],[91.5596,25.4445],[91.5591,25.4523],[91.5542,25.4738],[91.5524,25.4766],[91.5521,25.4886],[91.5489,25.4934],[91.5442,25.4981],[91.5465,25.5025],[91.5447,25.5106],[91.5502,25.51],[91.5517,25.514],[91.5649,25.5156],[91.5847,25.5202],[91.6097,25.5359],[91.6179,25.5411],[91.6257,25.5376],[91.6321,25.5408],[91.6359,25.5451],[91.6368,25.5484],[91.6426,25.5483],[91.6567,25.5514],[91.6581,25.5477],[91.6606,25.5405],[91.6616,25.5275],[91.6675,25.5259],[91.6731,25.5215],[91.684,25.5227],[91.692,25.5255],[91.6966,25.5297],[91.7009,25.5309],[91.7032,25.533],[91.6991,25.5422],[91.7017,25.5457],[91.7161,25.5528],[91.7178,25.5583],[91.7235,25.5601],[91.7263,25.5638],[91.7325,25.5628],[91.7352,25.5661],[91.7362,25.5747],[91.7425,25.5732],[91.7741,25.5849],[91.777,25.5882],[91.784,25.5891],[91.788,25.5948],[91.8028,25.609],[91.8032,25.6134],[91.8007,25.6185],[91.8019,25.6272],[91.8104,25.6349],[91.8115,25.6429],[91.8755,25.6446],[91.9019,25.6453],[91.9234,25.6459],[91.9716,25.6462],[91.9769,25.6463],[91.9839,25.6461],[92.033,25.6431],[92.0651,25.6409],[92.0863,25.64],[92.0975,25.6401],[92.1361,25.6407],[92.139,25.6346],[92.1387,25.6284],[92.1423,25.6254],[92.135,25.6152],[92.124,25.6031],[92.1239,25.6017],[92.1271,25.5984],[92.1279,25.5961],[92.125,25.5938],[92.1239,25.5904],[92.1235,25.5818],[92.1217,25.5786],[92.1167,25.5741],[92.1097,25.5611],[92.1091,25.5531],[92.11,25.5504],[92.1136,25.5476],[92.1164,25.5423],[92.1139,25.5362],[92.1084,25.519],[92.1028,25.5126],[92.1024,25.5101],[92.1041,25.5022],[92.1016,25.4996],[92.0992,25.4923],[92.0997,25.4887],[92.1012,25.4857],[92.109,25.4807],[92.1131,25.47],[92.1126,25.4656],[92.1051,25.4573],[92.0996,25.4529],[92.0995,25.4503],[92.1021,25.4447],[92.1062,25.4405],[92.1058,25.432],[92.1108,25.4253],[92.1157,25.4103],[92.1148,25.4051],[92.1136,25.4027],[92.1051,25.3967],[92.1051,25.3949],[92.1128,25.3836],[92.1146,25.3785],[92.1135,25.3713],[92.1143,25.3604],[92.1132,25.3569],[92.1121,25.3547],[92.1119,25.3513],[92.1128,25.3491],[92.1162,25.3456],[92.1152,25.3423],[92.1154,25.3372],[92.1183,25.3317],[92.1225,25.3303],[92.123,25.3286],[92.1177,25.3183],[92.1181,25.314],[92.1162,25.307],[92.1118,25.3033],[92.1025,25.3057],[92.0968,25.3121],[92.0953,25.3121],[92.0882,25.308],[92.0841,25.311],[92.0703,25.3174],[92.064,25.3164],[92.0592,25.3141],[92.0567,25.315],[92.0546,25.3185],[92.0509,25.3193],[92.0422,25.3169],[92.0395,25.314],[92.0351,25.3129],[92.0338,25.3104],[92.0251,25.3097],[92.0236,25.3089],[92.0171,25.3014],[92.0151,25.3016],[92.0114,25.3],[92.0108,25.2985],[92.0073,25.2965],[92.0056,25.2924],[92,25.2867],[91.9931,25.2801],[91.9889,25.2748],[91.9851,25.2556],[91.9882,25.2504],[91.9879,25.2451],[91.9913,25.239],[91.9982,25.2306],[92,25.2228],[92.0052,25.2171],[92.0105,25.208],[92.0132,25.2061],[92.0192,25.2041],[92.0242,25.2014],[92.025,25.1968],[92.0228,25.1902],[92.019,25.1878],[92.0192,25.1871],[92.0198,25.1868]]]},"properties":{"district_name":"East Khasi Hills","raw_district_name":"East Khasi Hills","state_code":"ML","state_name":"Meghalaya","census_code":298,"data_source":"DataMeet India Maps (Census 2011 Boundaries)"}},{"type":"Feature","geometry":{"type":"Polygon","coordinates":[[[92.6616,25.5794],[92.6615,25.5679],[92.6582,25.561],[92.6508,25.5576],[92.6458,25.5442],[92.6455,25.5351],[92.6385,25.5262],[92.6285,25.5198],[92.6225,25.5134],[92.6104,25.5103],[92.6065,25.5058],[92.5945,25.5008],[92.5904,25.4972],[92.5819,25.4929],[92.5765,25.4881],[92.5687,25.4785],[92.5674,25.4728],[92.5682,25.4652],[92.57,25.4625],[92.5723,25.4618],[92.5831,25.4706],[92.5863,25.4653],[92.5945,25.4687],[92.599,25.4693],[92.6022,25.4618],[92.6006,25.4547],[92.601,25.4515],[92.6019,25.4501],[92.6053,25.4479],[92.6063,25.446],[92.6061,25.4396],[92.6085,25.428],[92.6077,25.4248],[92.6078,25.4162],[92.6098,25.4142],[92.6126,25.4138],[92.6155,25.4151],[92.6186,25.4197],[92.6214,25.4213],[92.6294,25.4226],[92.63,25.4246],[92.6293,25.4282],[92.63,25.4323],[92.6334,25.4308],[92.6387,25.4264],[92.6387,25.4203],[92.6399,25.418],[92.6403,25.4172],[92.6424,25.4171],[92.6513,25.4293],[92.655,25.4329],[92.6543,25.4215],[92.6576,25.4133],[92.6608,25.4079],[92.6644,25.4069],[92.6677,25.4116],[92.6716,25.4143],[92.6744,25.4147],[92.6807,25.4061],[92.6888,25.4019],[92.6941,25.3975],[92.701,25.3853],[92.7035,25.3841],[92.7103,25.3836],[92.7135,25.382],[92.7169,25.3768],[92.7187,25.3725],[92.7211,25.3724],[92.7219,25.373],[92.726,25.3779],[92.7354,25.3799],[92.7376,25.3787],[92.7366,25.3713],[92.7411,25.3642],[92.7406,25.3621],[92.7411,25.3612],[92.7462,25.3586],[92.7487,25.3555],[92.7506,25.3518],[92.7517,25.3459],[92.7592,25.3372],[92.761,25.3327],[92.7637,25.333],[92.7699,25.3369],[92.7729,25.337],[92.7829,25.3317],[92.7848,25.3299],[92.7884,25.315],[92.7852,25.3089],[92.7842,25.3053],[92.7873,25.298],[92.7892,25.2889],[92.7926,25.2841],[92.7926,25.2825],[92.7895,25.2759],[92.7825,25.2733],[92.7799,25.2711],[92.7701,25.2663],[92.7765,25.2603],[92.7771,25.2579],[92.765,25.2467],[92.7706,25.2376],[92.7726,25.2306],[92.7866,25.2287],[92.7947,25.2233],[92.8034,25.2188],[92.8047,25.2166],[92.8038,25.2145],[92.7987,25.2108],[92.7932,25.2097],[92.7881,25.2069],[92.7799,25.2004],[92.768,25.2021],[92.7638,25.2012],[92.7592,25.2014],[92.7549,25.2027],[92.752,25.2047],[92.7475,25.2051],[92.7424,25.2005],[92.7337,25.2006],[92.7245,25.1966],[92.7166,25.1916],[92.705,25.188],[92.6943,25.1788],[92.688,25.1798],[92.6832,25.1795],[92.6798,25.1806],[92.6774,25.1797],[92.6726,25.1757],[92.6673,25.1746],[92.6647,25.1729],[92.6634,25.1705],[92.6612,25.1598],[92.6599,25.1567],[92.6561,25.1517],[92.6516,25.1499],[92.6486,25.1502],[92.6444,25.1487],[92.6384,25.1428],[92.6328,25.1351],[92.6312,25.1294],[92.6303,25.1226],[92.6251,25.1163],[92.622,25.1153],[92.6104,25.1217],[92.6036,25.1226],[92.5988,25.1223],[92.5949,25.1259],[92.5821,25.1295],[92.5795,25.1297],[92.5685,25.1278],[92.566,25.1289],[92.5583,25.1277],[92.5536,25.1284],[92.5436,25.1327],[92.5404,25.135],[92.5361,25.1321],[92.5307,25.1346],[92.528,25.1377],[92.5252,25.1378],[92.5257,25.1233],[92.5307,25.1196],[92.5318,25.1176],[92.5335,25.1099],[92.5413,25.1018],[92.5434,25.0973],[92.5385,25.097],[92.5325,25.1017],[92.527,25.1036],[92.5103,25.1032],[92.4996,25.1059],[92.4848,25.1059],[92.4848,25.1059],[92.4848,25.1059],[92.4808,25.0982],[92.4803,25.0936],[92.4807,25.0837],[92.477,25.0761],[92.4751,25.0686],[92.4714,25.0647],[92.468,25.0592],[92.4665,25.055],[92.4642,25.0534],[92.463,25.0536],[92.4625,25.0537],[92.4603,25.0525],[92.4606,25.0474],[92.4633,25.048],[92.4651,25.0451],[92.4637,25.035],[92.4602,25.033],[92.4573,25.0329],[92.4547,25.0345],[92.4515,25.0388],[92.447,25.0399],[92.447,25.0399],[92.4423,25.0377],[92.4384,25.0316],[92.4324,25.0308],[92.4253,25.0295],[92.4183,25.0339],[92.4114,25.0326],[92.4048,25.033],[92.397,25.0381],[92.3923,25.0414],[92.3868,25.0434],[92.3791,25.0436],[92.3727,25.0446],[92.3679,25.0489],[92.3599,25.0475],[92.3522,25.0478],[92.3479,25.0499],[92.3455,25.0551],[92.3464,25.061],[92.347,25.0659],[92.3455,25.0705],[92.344,25.0775],[92.3365,25.0819],[92.3316,25.0823],[92.3267,25.0804],[92.3211,25.0753],[92.3161,25.0728],[92.3115,25.0712],[92.3051,25.0711],[92.3003,25.0715],[92.2932,25.074],[92.2864,25.0761],[92.2816,25.0781],[92.2772,25.0807],[92.2719,25.0822],[92.265,25.0847],[92.2555,25.0884],[92.2471,25.0908],[92.2402,25.0939],[92.2324,25.0965],[92.2252,25.1017],[92.216,25.1083],[92.2123,25.1111],[92.2181,25.1145],[92.2257,25.1145],[92.2278,25.1179],[92.2223,25.1211],[92.2098,25.1236],[92.2027,25.1248],[92.1982,25.1288],[92.1949,25.1341],[92.1907,25.1354],[92.1873,25.1326],[92.1912,25.1275],[92.1928,25.1217],[92.1869,25.1209],[92.179,25.1227],[92.1715,25.1267],[92.1668,25.1297],[92.1613,25.1328],[92.1528,25.1371],[92.1427,25.1409],[92.1386,25.1427],[92.1376,25.1562],[92.1255,25.1653],[92.1147,25.1696],[92.1079,25.1729],[92.1024,25.175],[92.0969,25.1767],[92.0905,25.1799],[92.0845,25.1833],[92.0776,25.1856],[92.0652,25.1873],[92.0604,25.186],[92.0546,25.183],[92.0496,25.1817],[92.0424,25.1842],[92.0383,25.1846],[92.0332,25.1826],[92.0292,25.1829],[92.0198,25.1868],[92.0192,25.1871],[92.019,25.1878],[92.0228,25.1902],[92.025,25.1968],[92.0242,25.2014],[92.0192,25.2041],[92.0132,25.2061],[92.0105,25.208],[92.0052,25.2171],[92,25.2228],[91.9982,25.2306],[91.9913,25.239],[91.9879,25.2451],[91.9882,25.2504],[91.9851,25.2556],[91.9889,25.2748],[91.9931,25.2801],[92,25.2867],[92.0056,25.2924],[92.0073,25.2965],[92.0108,25.2985],[92.0114,25.3],[92.0151,25.3016],[92.0171,25.3014],[92.0236,25.3089],[92.0251,25.3097],[92.0338,25.3104],[92.0351,25.3129],[92.0395,25.314],[92.0422,25.3169],[92.0509,25.3193],[92.0546,25.3185],[92.0567,25.315],[92.0592,25.3141],[92.064,25.3164],[92.0703,25.3174],[92.0841,25.311],[92.0882,25.308],[92.0953,25.3121],[92.0968,25.3121],[92.1025,25.3057],[92.1118,25.3033],[92.1162,25.307],[92.1181,25.314],[92.1177,25.3183],[92.123,25.3286],[92.1225,25.3303],[92.1183,25.3317],[92.1154,25.3372],[92.1152,25.3423],[92.1162,25.3456],[92.1128,25.3491],[92.1119,25.3513],[92.1121,25.3547],[92.1132,25.3569],[92.1143,25.3604],[92.1135,25.3713],[92.1146,25.3785],[92.1128,25.3836],[92.1051,25.3949],[92.1051,25.3967],[92.1136,25.4027],[92.1148,25.4051],[92.1157,25.4103],[92.1108,25.4253],[92.1058,25.432],[92.1062,25.4405],[92.1021,25.4447],[92.0995,25.4503],[92.0996,25.4529],[92.1051,25.4573],[92.1126,25.4656],[92.1131,25.47],[92.109,25.4807],[92.1012,25.4857],[92.0997,25.4887],[92.0992,25.4923],[92.1016,25.4996],[92.1041,25.5022],[92.1024,25.5101],[92.1028,25.5126],[92.1084,25.519],[92.1139,25.5362],[92.1164,25.5423],[92.1136,25.5476],[92.11,25.5504],[92.1091,25.5531],[92.1097,25.5611],[92.1167,25.5741],[92.1217,25.5786],[92.1235,25.5818],[92.1239,25.5904],[92.125,25.5938],[92.1279,25.5961],[92.1271,25.5984],[92.1239,25.6017],[92.124,25.6031],[92.135,25.6152],[92.1423,25.6254],[92.1387,25.6284],[92.139,25.6346],[92.1361,25.6407],[92.1383,25.6405],[92.139,25.6401],[92.1408,25.6391],[92.1442,25.6392],[92.1503,25.6421],[92.1526,25.6488],[92.1568,25.6452],[92.1586,25.6471],[92.1585,25.6515],[92.1536,25.6636],[92.1554,25.6693],[92.1608,25.6697],[92.1621,25.6716],[92.1623,25.6702],[92.166,25.6676],[92.1713,25.6647],[92.1725,25.6652],[92.1765,25.6685],[92.1864,25.6794],[92.1895,25.6817],[92.1935,25.6846],[92.1956,25.6844],[92.1985,25.6852],[92.1999,25.6846],[92.2016,25.6856],[92.2031,25.688],[92.2122,25.6942],[92.2265,25.7122],[92.2306,25.7145],[92.2342,25.7133],[92.2354,25.7083],[92.2363,25.707],[92.2384,25.7066],[92.2496,25.7092],[92.2551,25.7083],[92.2572,25.7089],[92.2624,25.7085],[92.272,25.7091],[92.2861,25.714],[92.2895,25.7141],[92.2951,25.7155],[92.3076,25.7213],[92.3098,25.7243],[92.313,25.7242],[92.3154,25.7228],[92.3191,25.7219],[92.335,25.7233],[92.3405,25.725],[92.3495,25.73],[92.3533,25.7329],[92.3644,25.7346],[92.3697,25.7385],[92.369,25.7404],[92.3729,25.7445],[92.3865,25.7516],[92.3884,25.7505],[92.3858,25.7484],[92.385,25.7455],[92.3864,25.7428],[92.3884,25.7411],[92.3935,25.7406],[92.3962,25.7395],[92.4062,25.7417],[92.4121,25.7411],[92.4178,25.7385],[92.4138,25.7354],[92.4146,25.732],[92.4141,25.731],[92.4183,25.7277],[92.4227,25.7274],[92.4334,25.7299],[92.4345,25.7294],[92.4433,25.7188],[92.4378,25.7136],[92.431,25.7112],[92.4285,25.7084],[92.4328,25.7022],[92.4346,25.6932],[92.4334,25.689],[92.4356,25.6855],[92.4417,25.6861],[92.4413,25.6872],[92.4443,25.6856],[92.4526,25.6845],[92.4565,25.6822],[92.4611,25.6809],[92.4667,25.6804],[92.4728,25.6729],[92.4759,25.6712],[92.4826,25.6618],[92.4895,25.6479],[92.4944,25.634],[92.499,25.6248],[92.5028,25.6208],[92.5117,25.615],[92.5184,25.6179],[92.5343,25.6138],[92.5415,25.6156],[92.5456,25.612],[92.5543,25.6116],[92.5587,25.6098],[92.5597,25.6067],[92.5572,25.6036],[92.5583,25.594],[92.5574,25.5906],[92.5619,25.5805],[92.562,25.572],[92.5657,25.566],[92.5705,25.5622],[92.5735,25.5581],[92.5771,25.5574],[92.5824,25.5575],[92.5884,25.5507],[92.5944,25.5516],[92.6035,25.5551],[92.6044,25.5588],[92.6096,25.5634],[92.6134,25.5632],[92.622,25.566],[92.627,25.5657],[92.6298,25.5671],[92.6315,25.5683],[92.6342,25.5724],[92.6351,25.5765],[92.6415,25.585],[92.6493,25.59],[92.6521,25.5904],[92.6544,25.5898],[92.6585,25.5867],[92.6614,25.5827],[92.6616,25.5794]]]},"properties":{"district_name":"Jaintia Hills","raw_district_name":"Jaintia Hills","state_code":"ML","state_name":"Meghalaya","census_code":299,"data_source":"DataMeet India Maps (Census 2011 Boundaries)"}},{"type":"Feature","geometry":{"type":"Polygon","coordinates":[[[92.1804,26.0779],[92.183,26.0746],[92.181,26.0676],[92.1825,26.0669],[92.1844,26.0687],[92.1867,26.0676],[92.1904,26.0672],[92.1914,26.0652],[92.2039,26.0684],[92.2103,26.0669],[92.2114,26.0675],[92.2109,26.069],[92.2125,26.0694],[92.214,26.0693],[92.2156,26.068],[92.2182,26.0676],[92.2204,26.0685],[92.2304,26.066],[92.2432,26.0608],[92.2535,26.0626],[92.2677,26.0637],[92.2706,26.0662],[92.2743,26.0649],[92.2757,26.0641],[92.2757,26.0633],[92.2827,26.0674],[92.29,26.0682],[92.2921,26.071],[92.292,26.072],[92.2959,26.076],[92.2979,26.0771],[92.2993,26.0774],[92.3016,26.075],[92.3035,26.0747],[92.2577,26.0272],[92.2234,26.0006],[92.2211,25.9991],[92.2171,25.9946],[92.2129,25.993],[92.2097,25.9901],[92.2106,25.9887],[92.211,25.988],[92.2093,25.9865],[92.2029,25.9839],[92.1936,25.9835],[92.1829,25.9736],[92.1789,25.9715],[92.1751,25.9706],[92.1694,25.966],[92.1675,25.9628],[92.1693,25.9571],[92.1673,25.9523],[92.1627,25.9499],[92.1583,25.9432],[92.1581,25.9414],[92.1594,25.9377],[92.1633,25.9309],[92.1621,25.9243],[92.1618,25.9136],[92.1656,25.9101],[92.1762,25.9075],[92.1828,25.9069],[92.185,25.9093],[92.1855,25.9112],[92.1886,25.9141],[92.1939,25.9141],[92.199,25.9164],[92.1989,25.912],[92.1996,25.9096],[92.2024,25.9066],[92.207,25.907],[92.2094,25.9088],[92.2194,25.9082],[92.2244,25.9096],[92.2257,25.9085],[92.2273,25.9053],[92.2268,25.8999],[92.2257,25.899],[92.22,25.8985],[92.2174,25.8921],[92.2147,25.8904],[92.2082,25.8898],[92.2051,25.8884],[92.1968,25.8796],[92.1887,25.8731],[92.1829,25.8699],[92.1817,25.8685],[92.1809,25.8662],[92.1826,25.8615],[92.1827,25.8497],[92.1801,25.8464],[92.177,25.8449],[92.1732,25.8361],[92.1711,25.8337],[92.1673,25.8314],[92.165,25.8241],[92.1649,25.8202],[92.1575,25.8149],[92.1549,25.8111],[92.1554,25.7938],[92.1529,25.7858],[92.1527,25.782],[92.1569,25.777],[92.1559,25.7751],[92.1558,25.7713],[92.1577,25.7629],[92.1591,25.7603],[92.1599,25.7555],[92.1665,25.7431],[92.1672,25.7328],[92.1659,25.7271],[92.1626,25.7246],[92.1579,25.7231],[92.1554,25.721],[92.1527,25.7177],[92.1512,25.7129],[92.1527,25.7102],[92.1575,25.7075],[92.1592,25.6994],[92.1631,25.6943],[92.1621,25.6892],[92.1659,25.6832],[92.1671,25.6767],[92.1621,25.6716],[92.1608,25.6697],[92.1554,25.6693],[92.1536,25.6636],[92.1585,25.6515],[92.1586,25.6471],[92.1568,25.6452],[92.1526,25.6488],[92.1503,25.6421],[92.1442,25.6392],[92.1408,25.6391],[92.139,25.6401],[92.1383,25.6405],[92.1361,25.6407],[92.0975,25.6401],[92.0863,25.64],[92.0651,25.6409],[92.033,25.6431],[91.9839,25.6461],[91.9769,25.6463],[91.9716,25.6462],[91.9234,25.6459],[91.9019,25.6453],[91.8755,25.6446],[91.8115,25.6429],[91.8143,25.6528],[91.8112,25.6582],[91.8156,25.6616],[91.8164,25.6643],[91.8302,25.6688],[91.8316,25.6733],[91.8292,25.6771],[91.831,25.6882],[91.8229,25.702],[91.8163,25.705],[91.8182,25.7204],[91.8144,25.7288],[91.8113,25.7328],[91.8065,25.7325],[91.8004,25.7309],[91.794,25.7326],[91.7912,25.732],[91.7861,25.7332],[91.7871,25.7384],[91.7829,25.7374],[91.7765,25.7393],[91.7754,25.744],[91.7713,25.7428],[91.7683,25.7493],[91.7797,25.7621],[91.7821,25.7628],[91.7823,25.7659],[91.7914,25.7817],[91.7908,25.7903],[91.7822,25.7942],[91.7732,25.8082],[91.7638,25.8154],[91.7526,25.8267],[91.741,25.8284],[91.7269,25.8265],[91.7103,25.8194],[91.7073,25.8123],[91.7009,25.8042],[91.6898,25.8086],[91.6748,25.8106],[91.6623,25.8139],[91.6594,25.8111],[91.6519,25.8081],[91.6476,25.8036],[91.6432,25.806],[91.6346,25.8095],[91.625,25.81],[91.6155,25.809],[91.603,25.8094],[91.5996,25.8048],[91.5945,25.8085],[91.5899,25.8114],[91.5823,25.81],[91.5599,25.8078],[91.552,25.8055],[91.5404,25.7983],[91.5343,25.8012],[91.5174,25.7988],[91.5066,25.7973],[91.4995,25.7983],[91.4932,25.7961],[91.483,25.7962],[91.4777,25.7911],[91.4701,25.7885],[91.4614,25.788],[91.4604,25.7946],[91.4559,25.7927],[91.4487,25.792],[91.4446,25.7947],[91.4407,25.7919],[91.4338,25.7915],[91.4256,25.7927],[91.4229,25.8006],[91.4211,25.8026],[91.4161,25.8022],[91.3978,25.8047],[91.3917,25.8043],[91.3832,25.8005],[91.3745,25.8021],[91.367,25.8062],[91.3625,25.8061],[91.3546,25.8148],[91.3448,25.8242],[91.3452,25.8353],[91.3471,25.8386],[91.3513,25.8395],[91.356,25.8369],[91.3596,25.8406],[91.3664,25.8397],[91.3732,25.8435],[91.3795,25.844],[91.3848,25.8461],[91.3912,25.8465],[91.4038,25.8502],[91.4077,25.849],[91.4154,25.8531],[91.4215,25.8538],[91.4269,25.8527],[91.4335,25.8469],[91.4438,25.8407],[91.447,25.8401],[91.45,25.8448],[91.4576,25.8504],[91.4713,25.8581],[91.4776,25.8563],[91.481,25.8568],[91.4856,25.862],[91.4986,25.8614],[91.5104,25.8638],[91.5153,25.8656],[91.5217,25.8722],[91.5243,25.8734],[91.5279,25.8719],[91.5314,25.8799],[91.5352,25.8831],[91.5346,25.8872],[91.5323,25.8887],[91.5284,25.8891],[91.5248,25.885],[91.5223,25.8771],[91.5198,25.8737],[91.5161,25.87],[91.5103,25.8665],[91.5009,25.8662],[91.4963,25.8646],[91.48,25.8678],[91.4774,25.8703],[91.4786,25.8771],[91.4813,25.8838],[91.486,25.8901],[91.4912,25.8939],[91.4955,25.8946],[91.4989,25.8928],[91.5012,25.8915],[91.5059,25.8912],[91.5038,25.8975],[91.5111,25.9088],[91.5274,25.9198],[91.5339,25.9228],[91.5385,25.933],[91.5243,25.9239],[91.5195,25.9191],[91.5134,25.9145],[91.5096,25.9128],[91.5082,25.9121],[91.506,25.9134],[91.5043,25.9198],[91.5189,25.9374],[91.5224,25.9399],[91.5208,25.9518],[91.5212,25.9572],[91.5265,25.9584],[91.5285,25.9604],[91.5351,25.9613],[91.5398,25.9611],[91.5399,25.9674],[91.5516,25.9741],[91.5539,25.9739],[91.5575,25.9856],[91.5681,26.0008],[91.5688,26.0028],[91.5678,26.0065],[91.5713,26.011],[91.5724,26.0158],[91.5715,26.0207],[91.5727,26.0265],[91.5785,26.0321],[91.5868,26.031],[91.5908,26.0291],[91.5997,26.016],[91.5995,26.0198],[91.6045,26.0216],[91.6192,26.0237],[91.6229,26.026],[91.6287,26.0229],[91.6348,26.0214],[91.636,26.0168],[91.6347,26.0129],[91.6356,26.0038],[91.6346,26.0008],[91.633,25.9988],[91.6293,25.9966],[91.6313,25.9941],[91.6273,25.9848],[91.6294,25.9813],[91.6306,25.9759],[91.6347,25.9697],[91.6405,25.9638],[91.6366,25.9594],[91.6326,25.9436],[91.6272,25.9449],[91.6135,25.9435],[91.6137,25.9389],[91.6253,25.9299],[91.6353,25.9247],[91.6504,25.9127],[91.6539,25.9066],[91.6593,25.9068],[91.6644,25.9088],[91.6697,25.9071],[91.6717,25.9043],[91.6784,25.9107],[91.6811,25.9162],[91.6888,25.9201],[91.6948,25.928],[91.7044,25.9368],[91.7034,25.9408],[91.7106,25.9432],[91.7164,25.9461],[91.7226,25.9529],[91.7241,25.9639],[91.7222,25.9772],[91.7237,26.0007],[91.7253,26.0187],[91.7272,26.0261],[91.7257,26.0292],[91.729,26.0458],[91.7355,26.0499],[91.7371,26.0555],[91.7338,26.0581],[91.762,26.0701],[91.7811,26.0901],[91.783,26.0871],[91.7871,26.0854],[91.7929,26.0858],[91.8043,26.1037],[91.8106,26.1026],[91.8133,26.1039],[91.8181,26.1102],[91.8219,26.1175],[91.8291,26.1169],[91.8563,26.1035],[91.8672,26.0991],[91.8783,26.0964],[91.8777,26.0833],[91.8718,26.0556],[91.8726,26.0509],[91.8856,26.0287],[91.8943,26.0282],[91.9033,26.0249],[91.9098,26.0258],[91.914,26.0225],[91.9193,26.0201],[91.9191,26.0124],[91.9179,26.009],[91.921,26.0059],[91.9218,26.0002],[91.9218,25.9988],[91.9244,25.9982],[91.9281,25.9984],[91.9291,26.0003],[91.9302,26.0022],[91.9362,26.0133],[91.9436,26.0126],[91.9486,26.0131],[91.9547,26.0164],[91.9601,26.0175],[91.9804,26.0244],[91.9865,26.0291],[91.9897,26.0373],[91.9933,26.0396],[91.9999,26.0374],[92.0027,26.0377],[92.0056,26.0366],[92.0104,26.038],[92.0198,26.0381],[92.0244,26.0378],[92.0261,26.037],[92.0301,26.0384],[92.0369,26.0382],[92.0383,26.0379],[92.0418,26.0347],[92.0524,26.0315],[92.055,26.0313],[92.0654,26.0332],[92.0726,26.0363],[92.0758,26.0388],[92.081,26.0403],[92.0833,26.0421],[92.0955,26.047],[92.111,26.0482],[92.1184,26.045],[92.1255,26.0433],[92.1291,26.0443],[92.1352,26.0443],[92.1403,26.0512],[92.1459,26.0561],[92.1483,26.057],[92.1511,26.06],[92.1526,26.0633],[92.1568,26.0665],[92.1712,26.076],[92.1804,26.0779]]]},"properties":{"district_name":"Ri Bhoi","raw_district_name":"Ri Bhoi","state_code":"ML","state_name":"Meghalaya","census_code":297,"data_source":"DataMeet India Maps (Census 2011 Boundaries)"}},{"type":"Feature","geometry":{"type":"Polygon","coordinates":[[[90.9726,25.172],[90.9585,25.1697],[90.9478,25.1688],[90.9377,25.1671],[90.9276,25.1644],[90.9169,25.1625],[90.9115,25.1615],[90.9018,25.1641],[90.8945,25.1656],[90.8798,25.1614],[90.8723,25.1591],[90.8577,25.1591],[90.844,25.1613],[90.8373,25.1615],[90.8224,25.163],[90.8118,25.1668],[90.8039,25.1718],[90.7988,25.178],[90.7931,25.1818],[90.783,25.1832],[90.778,25.1817],[90.7744,25.1775],[90.7697,25.1696],[90.7634,25.1646],[90.7556,25.1645],[90.7443,25.1646],[90.7432,25.1568],[90.735,25.1541],[90.7296,25.1594],[90.7236,25.1643],[90.7177,25.1643],[90.7114,25.1613],[90.7041,25.1595],[90.6964,25.1592],[90.6869,25.1659],[90.6828,25.1694],[90.6778,25.167],[90.6714,25.1718],[90.6697,25.1779],[90.6679,25.1841],[90.658,25.1926],[90.6543,25.1851],[90.6466,25.179],[90.6398,25.1777],[90.6392,25.1726],[90.6331,25.1719],[90.6225,25.1719],[90.6151,25.1734],[90.5995,25.1731],[90.5762,25.1715],[90.5613,25.1701],[90.5494,25.1703],[90.5225,25.1682],[90.5133,25.1679],[90.5,25.1637],[90.4928,25.1611],[90.4874,25.1592],[90.4831,25.1561],[90.4754,25.1536],[90.4697,25.1522],[90.4605,25.1517],[90.4556,25.1501],[90.4474,25.1432],[90.4383,25.1452],[90.4328,25.1461],[90.4235,25.1496],[90.4185,25.1508],[90.4123,25.1555],[90.4011,25.1579],[90.3922,25.1589],[90.3864,25.1597],[90.3802,25.1612],[90.369,25.1664],[90.3609,25.1702],[90.355,25.1736],[90.351,25.1771],[90.3453,25.1814],[90.3389,25.1877],[90.3346,25.1912],[90.3268,25.1887],[90.3177,25.1874],[90.3118,25.1866],[90.3038,25.1871],[90.2942,25.1889],[90.288,25.193],[90.2783,25.1974],[90.2697,25.196],[90.2631,25.1949],[90.2577,25.1957],[90.2497,25.1999],[90.2426,25.202],[90.2365,25.2032],[90.2308,25.2178],[90.2321,25.2347],[90.2504,25.253],[90.2585,25.2768],[90.2586,25.3076],[90.2643,25.3207],[90.2841,25.3396],[90.2979,25.3529],[90.3115,25.3648],[90.3165,25.3839],[90.3064,25.4179],[90.3102,25.4346],[90.3229,25.4654],[90.3342,25.4604],[90.3521,25.4591],[90.3592,25.4575],[90.3683,25.4542],[90.408,25.458],[90.4388,25.4533],[90.4494,25.4508],[90.4633,25.4509],[90.4789,25.4534],[90.4894,25.4464],[90.5048,25.4382],[90.5217,25.4329],[90.5547,25.4332],[90.5742,25.4273],[90.5828,25.421],[90.6079,25.4244],[90.6346,25.4183],[90.6425,25.4149],[90.6474,25.4156],[90.6584,25.4377],[90.6619,25.4518],[90.682,25.4811],[90.7047,25.5068],[90.7332,25.5327],[90.7529,25.5473],[90.7617,25.5515],[90.7694,25.5539],[90.7674,25.5504],[90.7714,25.5434],[90.7804,25.5403],[90.7835,25.5354],[90.7841,25.5266],[90.7906,25.5106],[90.7932,25.5074],[90.7919,25.5017],[90.7922,25.4959],[90.7954,25.4902],[90.7948,25.4858],[90.79,25.4789],[90.7774,25.4753],[90.7749,25.4717],[90.7768,25.4682],[90.7845,25.469],[90.7881,25.4679],[90.7874,25.464],[90.78,25.4527],[90.7683,25.4556],[90.7622,25.4546],[90.7603,25.4509],[90.7633,25.449],[90.7646,25.4458],[90.7606,25.4394],[90.7603,25.4315],[90.7625,25.4253],[90.7665,25.4204],[90.7663,25.4125],[90.7649,25.4047],[90.7656,25.3975],[90.7537,25.3915],[90.752,25.387],[90.7522,25.3802],[90.7594,25.3759],[90.7619,25.3709],[90.7677,25.3675],[90.7862,25.3648],[90.7933,25.3694],[90.8009,25.3678],[90.8089,25.3677],[90.8143,25.3648],[90.8153,25.3643],[90.8172,25.3601],[90.822,25.3587],[90.8262,25.3591],[90.8337,25.3572],[90.8401,25.3575],[90.8445,25.351],[90.8409,25.3403],[90.8426,25.3358],[90.8427,25.3121],[90.8471,25.3067],[90.8553,25.301],[90.857,25.297],[90.8601,25.293],[90.8669,25.2933],[90.8791,25.2921],[90.8944,25.2952],[90.9035,25.2962],[90.9123,25.2893],[90.9174,25.2853],[90.9223,25.2745],[90.9285,25.2666],[90.9395,25.2619],[90.9482,25.2603],[90.9548,25.2557],[90.9617,25.246],[90.9623,25.2341],[90.9603,25.2304],[90.9557,25.2276],[90.9562,25.2218],[90.9527,25.2179],[90.9527,25.2142],[90.9585,25.2115],[90.9622,25.2034],[90.9715,25.2007],[90.9744,25.191],[90.9726,25.172]]]},"properties":{"district_name":"South Garo Hills","raw_district_name":"South Garo Hills","state_code":"ML","state_name":"Meghalaya","census_code":295,"data_source":"DataMeet India Maps (Census 2011 Boundaries)"}},{"type":"Feature","geometry":{"type":"Polygon","coordinates":[[[90.3229,25.4654],[90.3102,25.4346],[90.3064,25.4179],[90.3165,25.3839],[90.3115,25.3648],[90.2979,25.3529],[90.2841,25.3396],[90.2643,25.3207],[90.2586,25.3076],[90.2585,25.2768],[90.2504,25.253],[90.2321,25.2347],[90.2308,25.2178],[90.2365,25.2032],[90.2283,25.202],[90.2173,25.2026],[90.2104,25.2069],[90.2052,25.2097],[90.1989,25.2121],[90.1906,25.2157],[90.1808,25.2183],[90.1721,25.2212],[90.1625,25.223],[90.1537,25.2235],[90.1421,25.2243],[90.1344,25.2242],[90.1271,25.2226],[90.1219,25.2225],[90.1152,25.2237],[90.1097,25.2276],[90.1036,25.2342],[90.0969,25.2374],[90.0903,25.2383],[90.0845,25.2386],[90.0752,25.2434],[90.0689,25.2499],[90.0627,25.2555],[90.055,25.2588],[90.0462,25.2613],[90.0345,25.2636],[90.0216,25.2684],[90.0124,25.2713],[90.0067,25.2738],[90.0008,25.2765],[89.9947,25.279],[89.9838,25.2848],[89.9809,25.2894],[89.9793,25.2978],[89.9751,25.3005],[89.9648,25.2995],[89.9526,25.2997],[89.9442,25.299],[89.9321,25.299],[89.9236,25.3036],[89.9167,25.3059],[89.9109,25.3073],[89.9026,25.3046],[89.8966,25.299],[89.8935,25.2948],[89.8867,25.2905],[89.8774,25.2867],[89.8722,25.2866],[89.8653,25.2889],[89.8589,25.2905],[89.8536,25.2923],[89.848,25.2933],[89.8427,25.2935],[89.8377,25.2955],[89.84,25.304],[89.8427,25.3123],[89.8429,25.318],[89.8381,25.3257],[89.8319,25.3297],[89.8231,25.347],[89.8183,25.3631],[89.8168,25.3694],[89.8185,25.3881],[89.8222,25.3963],[89.8289,25.4033],[89.8306,25.4083],[89.8313,25.414],[89.8321,25.4201],[89.8351,25.4293],[89.837,25.4344],[89.8412,25.4419],[89.8449,25.4492],[89.8511,25.4566],[89.8558,25.4627],[89.8575,25.4677],[89.8561,25.4766],[89.8635,25.4757],[89.8681,25.4792],[89.8712,25.4818],[89.8794,25.4915],[89.8795,25.4985],[89.875,25.5083],[89.8733,25.5164],[89.8698,25.5244],[89.8725,25.532],[89.8707,25.5398],[89.8778,25.5495],[89.8815,25.5491],[89.8903,25.558],[89.9083,25.5597],[89.922,25.5628],[89.93,25.5637],[89.9397,25.5629],[89.9455,25.5678],[89.9533,25.5684],[89.9607,25.5706],[89.9703,25.5718],[89.9767,25.5747],[89.9789,25.5836],[89.983,25.5909],[89.9934,25.5889],[89.9992,25.5865],[90.006,25.5843],[90.0097,25.5885],[90.0149,25.5985],[90.0212,25.6023],[90.0223,25.6085],[90.0084,25.6239],[90.0053,25.6245],[90.0032,25.622],[89.9992,25.6231],[89.9872,25.6268],[89.9862,25.6285],[89.9844,25.6377],[89.9509,25.6589],[89.9459,25.6738],[89.9458,25.6782],[89.9411,25.6867],[89.9364,25.6901],[89.9252,25.6945],[89.9236,25.6969],[89.9226,25.7028],[89.9184,25.7041],[89.9167,25.7072],[89.909,25.7149],[89.8984,25.7273],[89.8968,25.7351],[89.8996,25.7442],[89.9032,25.7442],[89.9155,25.7417],[89.9202,25.7393],[89.926,25.7393],[89.932,25.7414],[89.9376,25.7446],[89.9388,25.7476],[89.9378,25.7526],[89.9476,25.7606],[89.9508,25.7648],[89.9565,25.7702],[89.9594,25.7745],[89.9591,25.7817],[89.9567,25.7835],[89.955,25.792],[89.9562,25.811],[89.9535,25.8145],[89.9498,25.8162],[89.95,25.8203],[89.9488,25.8245],[89.9548,25.8249],[89.963,25.8266],[89.9721,25.8262],[89.9777,25.8282],[89.9801,25.8341],[89.995,25.8355],[89.9989,25.8388],[90.0019,25.8397],[90.0057,25.8423],[90.004,25.8437],[90.0016,25.8442],[90.0017,25.8467],[90.0044,25.8486],[90.0125,25.8469],[90.0157,25.8497],[90.0249,25.8616],[90.0261,25.8655],[90.0255,25.8685],[90.0229,25.8714],[90.0185,25.8718],[90.014,25.8757],[90.0089,25.8787],[90.0194,25.8886],[90.0254,25.8932],[90.0321,25.8943],[90.0387,25.8935],[90.0463,25.8907],[90.0563,25.8987],[90.0592,25.9081],[90.0631,25.9103],[90.0675,25.9155],[90.0718,25.9161],[90.0766,25.9193],[90.0821,25.9177],[90.0836,25.9193],[90.0849,25.9245],[90.0915,25.9262],[90.0961,25.9287],[90.0921,25.9362],[90.0969,25.9381],[90.1003,25.9395],[90.1033,25.9392],[90.1047,25.942],[90.1095,25.9419],[90.1121,25.9505],[90.1151,25.9541],[90.1392,25.9342],[90.1547,25.9236],[90.1627,25.9136],[90.1736,25.9082],[90.1849,25.9009],[90.2283,25.9253],[90.2961,25.9322],[90.3205,25.9296],[90.332,25.9303],[90.3644,25.941],[90.3843,25.9461],[90.3996,25.9492],[90.4257,25.9527],[90.4175,25.9222],[90.3854,25.8674],[90.3869,25.8406],[90.3829,25.8341],[90.3708,25.8308],[90.3524,25.8317],[90.3453,25.8278],[90.3419,25.8044],[90.3437,25.802],[90.3783,25.8025],[90.3946,25.7985],[90.3973,25.7936],[90.4025,25.7669],[90.4098,25.7504],[90.441,25.7035],[90.4446,25.6957],[90.4356,25.6797],[90.4353,25.6718],[90.42,25.6321],[90.4148,25.611],[90.4096,25.6003],[90.4059,25.5513],[90.3471,25.4938],[90.3345,25.4841],[90.3256,25.4734],[90.3229,25.4654]]]},"properties":{"district_name":"West Garo Hills","raw_district_name":"West Garo Hills","state_code":"ML","state_name":"Meghalaya","census_code":293,"data_source":"DataMeet India Maps (Census 2011 Boundaries)"}},{"type":"Feature","geometry":{"type":"Polygon","coordinates":[[[91.8115,25.6429],[91.8104,25.6349],[91.8019,25.6272],[91.8007,25.6185],[91.8032,25.6134],[91.8028,25.609],[91.788,25.5948],[91.784,25.5891],[91.777,25.5882],[91.7741,25.5849],[91.7425,25.5732],[91.7362,25.5747],[91.7352,25.5661],[91.7325,25.5628],[91.7263,25.5638],[91.7235,25.5601],[91.7178,25.5583],[91.7161,25.5528],[91.7017,25.5457],[91.6991,25.5422],[91.7032,25.533],[91.7009,25.5309],[91.6966,25.5297],[91.692,25.5255],[91.684,25.5227],[91.6731,25.5215],[91.6675,25.5259],[91.6616,25.5275],[91.6606,25.5405],[91.6581,25.5477],[91.6567,25.5514],[91.6426,25.5483],[91.6368,25.5484],[91.6359,25.5451],[91.6321,25.5408],[91.6257,25.5376],[91.6179,25.5411],[91.6097,25.5359],[91.5847,25.5202],[91.5649,25.5156],[91.5517,25.514],[91.5502,25.51],[91.5447,25.5106],[91.5465,25.5025],[91.5442,25.4981],[91.5489,25.4934],[91.5521,25.4886],[91.5524,25.4766],[91.5542,25.4738],[91.5591,25.4523],[91.5596,25.4445],[91.5571,25.4381],[91.5594,25.4347],[91.5589,25.4284],[91.5517,25.4227],[91.5494,25.4188],[91.5496,25.4127],[91.5453,25.406],[91.5437,25.4004],[91.5437,25.3887],[91.5405,25.3788],[91.5421,25.3733],[91.5406,25.3693],[91.5326,25.3558],[91.5281,25.3535],[91.5273,25.3484],[91.528,25.3438],[91.5324,25.3423],[91.5424,25.3347],[91.5491,25.3334],[91.5527,25.3297],[91.5514,25.3258],[91.5553,25.3199],[91.552,25.3117],[91.5554,25.3042],[91.5535,25.2999],[91.5508,25.2864],[91.5466,25.2789],[91.5355,25.2759],[91.5305,25.2796],[91.5253,25.2781],[91.4988,25.2828],[91.4919,25.2784],[91.4905,25.2707],[91.4874,25.2644],[91.4818,25.2629],[91.4766,25.265],[91.4753,25.2689],[91.4704,25.2707],[91.4651,25.268],[91.4531,25.2715],[91.4412,25.2724],[91.4257,25.2614],[91.4151,25.2644],[91.4106,25.2633],[91.4056,25.2631],[91.4014,25.2559],[91.3975,25.2508],[91.3903,25.2454],[91.3884,25.239],[91.3784,25.2432],[91.374,25.2422],[91.368,25.2342],[91.3606,25.2347],[91.3573,25.2336],[91.3567,25.2286],[91.366,25.2047],[91.3827,25.1763],[91.3911,25.1697],[91.3861,25.1672],[91.3793,25.1666],[91.3752,25.1695],[91.3713,25.1726],[91.3655,25.1756],[91.3595,25.1767],[91.355,25.1752],[91.3483,25.1719],[91.3414,25.1731],[91.3365,25.1744],[91.3307,25.1768],[91.3297,25.1823],[91.3239,25.1845],[91.3193,25.1841],[91.3152,25.1834],[91.31,25.1833],[91.3043,25.1839],[91.2984,25.1847],[91.2945,25.1863],[91.2935,25.193],[91.2887,25.1968],[91.2819,25.2006],[91.2773,25.204],[91.2676,25.2062],[91.2592,25.1993],[91.255,25.197],[91.2448,25.1961],[91.2333,25.1967],[91.2251,25.1982],[91.2159,25.1998],[91.1961,25.1992],[91.1885,25.1979],[91.1839,25.1953],[91.1769,25.1943],[91.1699,25.1947],[91.1617,25.1966],[91.1525,25.1957],[91.1441,25.1933],[91.1377,25.1924],[91.1282,25.1925],[91.124,25.1931],[91.1181,25.1938],[91.1103,25.1955],[91.1021,25.1983],[91.0971,25.1998],[91.091,25.2002],[91.0845,25.2014],[91.0753,25.1971],[91.071,25.1938],[91.0667,25.1916],[91.0623,25.1915],[91.0582,25.1907],[91.0531,25.1907],[91.0481,25.1898],[91.0386,25.188],[91.0279,25.1853],[91.0227,25.1833],[91.017,25.182],[91.0116,25.1805],[91.0048,25.1791],[90.9989,25.1777],[90.9909,25.1762],[90.9839,25.1747],[90.978,25.1736],[90.9726,25.172],[90.9744,25.191],[90.9715,25.2007],[90.9622,25.2034],[90.9585,25.2115],[90.9527,25.2142],[90.9527,25.2179],[90.9562,25.2218],[90.9557,25.2276],[90.9603,25.2304],[90.9623,25.2341],[90.9617,25.246],[90.9548,25.2557],[90.9482,25.2603],[90.9395,25.2619],[90.9285,25.2666],[90.9223,25.2745],[90.9174,25.2853],[90.9123,25.2893],[90.9035,25.2962],[90.8944,25.2952],[90.8791,25.2921],[90.8669,25.2933],[90.8601,25.293],[90.857,25.297],[90.8553,25.301],[90.8471,25.3067],[90.8427,25.3121],[90.8426,25.3358],[90.8409,25.3403],[90.8445,25.351],[90.8401,25.3575],[90.8337,25.3572],[90.8262,25.3591],[90.822,25.3587],[90.8172,25.3601],[90.8153,25.3643],[90.8143,25.3648],[90.8089,25.3677],[90.8009,25.3678],[90.7933,25.3694],[90.7862,25.3648],[90.7677,25.3675],[90.7619,25.3709],[90.7594,25.3759],[90.7522,25.3802],[90.752,25.387],[90.7537,25.3915],[90.7656,25.3975],[90.7649,25.4047],[90.7663,25.4125],[90.7665,25.4204],[90.7625,25.4253],[90.7603,25.4315],[90.7606,25.4394],[90.7646,25.4458],[90.7633,25.449],[90.7603,25.4509],[90.7622,25.4546],[90.7683,25.4556],[90.78,25.4527],[90.7874,25.464],[90.7881,25.4679],[90.7845,25.469],[90.7768,25.4682],[90.7749,25.4717],[90.7774,25.4753],[90.79,25.4789],[90.7948,25.4858],[90.7954,25.4902],[90.7922,25.4959],[90.7919,25.5017],[90.7932,25.5074],[90.7906,25.5106],[90.7841,25.5266],[90.7835,25.5354],[90.7804,25.5403],[90.7714,25.5434],[90.7674,25.5504],[90.7694,25.5539],[90.7702,25.5573],[90.7694,25.5616],[90.7749,25.5678],[90.7759,25.5737],[90.7795,25.5789],[90.7819,25.5852],[90.787,25.5824],[90.7926,25.5719],[90.7958,25.5722],[90.7972,25.5773],[90.8027,25.5813],[90.8046,25.5859],[90.8113,25.5836],[90.8132,25.5781],[90.8153,25.5767],[90.8196,25.5788],[90.8204,25.5857],[90.8328,25.5896],[90.8407,25.5878],[90.8463,25.5906],[90.8521,25.5903],[90.8653,25.6001],[90.8702,25.6008],[90.8751,25.6033],[90.8781,25.6074],[90.8827,25.6105],[90.883,25.6191],[90.888,25.6233],[90.8915,25.6289],[90.8971,25.6354],[90.9051,25.6372],[90.9111,25.6404],[90.9139,25.6462],[90.9151,25.6539],[90.9206,25.6567],[90.9298,25.6683],[90.9341,25.6766],[90.9417,25.6839],[90.9485,25.6885],[90.9545,25.6944],[90.9576,25.7103],[90.9629,25.7156],[90.966,25.7208],[90.973,25.7257],[90.9787,25.7376],[90.9854,25.744],[90.982,25.7483],[90.9784,25.7509],[90.9743,25.7525],[90.9688,25.7502],[90.9646,25.7495],[90.9605,25.751],[90.9571,25.7542],[90.9553,25.7545],[90.9512,25.7522],[90.9464,25.7525],[90.9443,25.756],[90.9437,25.7634],[90.9469,25.7699],[90.9538,25.772],[90.9603,25.7777],[90.9687,25.781],[90.973,25.7936],[90.979,25.7976],[90.9828,25.802],[90.9867,25.8047],[90.9934,25.811],[90.9972,25.8169],[91,25.8188],[91.0015,25.8192],[91.0038,25.8217],[91.0092,25.8202],[91.0158,25.8205],[91.0238,25.8221],[91.028,25.827],[91.045,25.8388],[91.0521,25.8482],[91.0689,25.8458],[91.0815,25.852],[91.076,25.8419],[91.0759,25.8378],[91.0705,25.8357],[91.0648,25.8355],[91.0602,25.8315],[91.0529,25.8283],[91.062,25.8217],[91.0662,25.8198],[91.0695,25.8252],[91.0843,25.8288],[91.1237,25.8307],[91.1293,25.8376],[91.1346,25.8413],[91.1408,25.8415],[91.1483,25.8467],[91.1558,25.8494],[91.1646,25.8487],[91.1711,25.845],[91.1819,25.8421],[91.1846,25.8434],[91.1884,25.8493],[91.1959,25.8546],[91.1994,25.8583],[91.201,25.8541],[91.2015,25.847],[91.2055,25.8399],[91.1974,25.8299],[91.1972,25.8257],[91.1927,25.8201],[91.191,25.8149],[91.1938,25.81],[91.1901,25.8026],[91.1876,25.7944],[91.1868,25.7819],[91.1827,25.7757],[91.184,25.7727],[91.1887,25.7693],[91.1885,25.7662],[91.192,25.7628],[91.1914,25.7383],[91.1951,25.7354],[91.1947,25.7289],[91.2007,25.7303],[91.2186,25.7232],[91.2241,25.7254],[91.2266,25.7227],[91.2352,25.7285],[91.2581,25.7471],[91.265,25.7486],[91.2783,25.7462],[91.2791,25.7509],[91.2823,25.7559],[91.29,25.7634],[91.2996,25.7775],[91.309,25.7956],[91.3277,25.823],[91.3335,25.8294],[91.3351,25.8313],[91.3349,25.8329],[91.3363,25.838],[91.3392,25.8376],[91.3452,25.8353],[91.3448,25.8242],[91.3546,25.8148],[91.3625,25.8061],[91.367,25.8062],[91.3745,25.8021],[91.3832,25.8005],[91.3917,25.8043],[91.3978,25.8047],[91.4161,25.8022],[91.4211,25.8026],[91.4229,25.8006],[91.4256,25.7927],[91.4338,25.7915],[91.4407,25.7919],[91.4446,25.7947],[91.4487,25.792],[91.4559,25.7927],[91.4604,25.7946],[91.4614,25.788],[91.4701,25.7885],[91.4777,25.7911],[91.483,25.7962],[91.4932,25.7961],[91.4995,25.7983],[91.5066,25.7973],[91.5174,25.7988],[91.5343,25.8012],[91.5404,25.7983],[91.552,25.8055],[91.5599,25.8078],[91.5823,25.81],[91.5899,25.8114],[91.5945,25.8085],[91.5996,25.8048],[91.603,25.8094],[91.6155,25.809],[91.625,25.81],[91.6346,25.8095],[91.6432,25.806],[91.6476,25.8036],[91.6519,25.8081],[91.6594,25.8111],[91.6623,25.8139],[91.6748,25.8106],[91.6898,25.8086],[91.7009,25.8042],[91.7073,25.8123],[91.7103,25.8194],[91.7269,25.8265],[91.741,25.8284],[91.7526,25.8267],[91.7638,25.8154],[91.7732,25.8082],[91.7822,25.7942],[91.7908,25.7903],[91.7914,25.7817],[91.7823,25.7659],[91.7821,25.7628],[91.7797,25.7621],[91.7683,25.7493],[91.7713,25.7428],[91.7754,25.744],[91.7765,25.7393],[91.7829,25.7374],[91.7871,25.7384],[91.7861,25.7332],[91.7912,25.732],[91.794,25.7326],[91.8004,25.7309],[91.8065,25.7325],[91.8113,25.7328],[91.8144,25.7288],[91.8182,25.7204],[91.8163,25.705],[91.8229,25.702],[91.831,25.6882],[91.8292,25.6771],[91.8316,25.6733],[91.8302,25.6688],[91.8164,25.6643],[91.8156,25.6616],[91.8112,25.6582],[91.8143,25.6528],[91.8115,25.6429]]]},"properties":{"district_name":"West Khasi Hills","raw_district_name":"West Khasi Hills","state_code":"ML","state_name":"Meghalaya","census_code":296,"data_source":"DataMeet India Maps (Census 2011 Boundaries)"}}]}