{"type":"FeatureCollection","properties":{"state_code":"MN","state_name":"Manipur","data_source":"DataMeet India Maps"},"features":[{"type":"Feature","geometry":{"type":"Polygon","coordinates":[[[93.876,24.5521],[93.8701,24.538],[93.8701,24.5257],[93.8699,24.52],[93.8713,24.5174],[93.8742,24.5187],[93.8771,24.5174],[93.877,24.5072],[93.8812,24.5059],[93.8798,24.5008],[93.8754,24.4983],[93.8825,24.4919],[93.8839,24.4881],[93.8825,24.4843],[93.8796,24.4818],[93.8753,24.4742],[93.8738,24.4692],[93.8652,24.4604],[93.8609,24.4592],[93.8566,24.4567],[93.8594,24.4542],[93.8594,24.4517],[93.8565,24.4492],[93.8565,24.4416],[93.8536,24.4391],[93.8507,24.4329],[93.8464,24.4329],[93.8407,24.4279],[93.8407,24.4229],[93.8492,24.4115],[93.8435,24.4103],[93.842,24.4078],[93.8434,24.4028],[93.8477,24.399],[93.8491,24.3952],[93.849,24.3827],[93.8519,24.3789],[93.8519,24.3776],[93.849,24.3751],[93.8503,24.3626],[93.8546,24.3613],[93.8546,24.3575],[93.8517,24.355],[93.8517,24.35],[93.8574,24.3525],[93.8603,24.355],[93.8631,24.3512],[93.8588,24.3475],[93.8545,24.3413],[93.8645,24.3337],[93.8616,24.33],[93.8616,24.3238],[93.8559,24.3263],[93.8573,24.3176],[93.8545,24.3114],[93.8573,24.3101],[93.8659,24.3102],[93.8702,24.3077],[93.8703,24.3028],[93.8803,24.2856],[93.8761,24.2856],[93.8732,24.2868],[93.8674,24.2867],[93.8674,24.2917],[93.8516,24.3089],[93.8487,24.3163],[93.8432,24.3526],[93.8389,24.3576],[93.8346,24.3601],[93.8146,24.3552],[93.8104,24.3553],[93.8018,24.3616],[93.8091,24.3829],[93.8076,24.3841],[93.8091,24.3892],[93.7891,24.3955],[93.7749,24.3981],[93.7577,24.3982],[93.7521,24.4045],[93.7478,24.4046],[93.7463,24.4008],[93.7435,24.3995],[93.7406,24.392],[93.7349,24.392],[93.732,24.3971],[93.7321,24.4084],[93.7364,24.4184],[93.735,24.4209],[93.7235,24.4135],[93.7136,24.4223],[93.7122,24.4324],[93.708,24.4437],[93.7123,24.4487],[93.7137,24.4537],[93.7152,24.465],[93.7195,24.4713],[93.7196,24.4839],[93.7325,24.4989],[93.7328,24.5211],[93.7329,24.5475],[93.7301,24.5538],[93.7287,24.5663],[93.723,24.5827],[93.7245,24.5915],[93.7389,24.6204],[93.7404,24.6216],[93.7519,24.648],[93.7505,24.6593],[93.7491,24.6631],[93.7521,24.6819],[93.7564,24.6857],[93.7592,24.6844],[93.7649,24.6844],[93.7693,24.6919],[93.7693,24.6982],[93.7722,24.7057],[93.7723,24.7259],[93.7766,24.7309],[93.7737,24.7347],[93.7738,24.7372],[93.7895,24.7296],[93.7995,24.7283],[93.8052,24.7308],[93.8238,24.7194],[93.8324,24.7181],[93.8424,24.7193],[93.8725,24.7149],[93.8825,24.7099],[93.8925,24.7099],[93.8911,24.7061],[93.8925,24.701],[93.8925,24.6972],[93.891,24.6896],[93.8766,24.6796],[93.868,24.6771],[93.8479,24.6759],[93.8465,24.6809],[93.8365,24.6797],[93.8006,24.6685],[93.8047,24.6433],[93.8176,24.6357],[93.8147,24.6294],[93.806,24.6219],[93.806,24.6156],[93.8117,24.6093],[93.8203,24.6067],[93.849,24.6242],[93.8533,24.6229],[93.8561,24.6204],[93.8532,24.6154],[93.8561,24.6091],[93.869,24.6116],[93.8718,24.6091],[93.8732,24.6041],[93.8718,24.5991],[93.8889,24.5854],[93.8903,24.5805],[93.8889,24.5768],[93.8717,24.5707],[93.8688,24.5632],[93.876,24.5521]]]},"properties":{"district_name":"Bishnupur","raw_district_name":"Bishnupur","state_code":"MN","state_name":"Manipur","census_code":275,"data_source":"DataMeet India Maps (Census 2011 Boundaries)"}},{"type":"Feature","geometry":{"type":"Polygon","coordinates":[[[94.2035,24.6261],[94.208,24.6241],[94.2158,24.6217],[94.2199,24.6189],[94.2281,24.6186],[94.2354,24.6166],[94.2519,24.6163],[94.2546,24.6155],[94.2599,24.6096],[94.2637,24.6035],[94.2713,24.5958],[94.2855,24.601],[94.2931,24.5936],[94.2966,24.5878],[94.3079,24.5826],[94.3126,24.5776],[94.3138,24.5735],[94.3179,24.5715],[94.3293,24.5695],[94.3311,24.5651],[94.3349,24.5644],[94.3373,24.5632],[94.3341,24.5616],[94.3366,24.5548],[94.3334,24.5518],[94.3364,24.5486],[94.351,24.5527],[94.3544,24.5525],[94.3567,24.5484],[94.3619,24.5487],[94.364,24.5505],[94.374,24.5497],[94.3755,24.5467],[94.3752,24.5446],[94.3728,24.5415],[94.3734,24.5391],[94.3728,24.5357],[94.3705,24.5318],[94.3669,24.5294],[94.3673,24.5231],[94.3641,24.5206],[94.3665,24.5186],[94.373,24.5179],[94.3741,24.5157],[94.3714,24.5128],[94.38,24.5142],[94.3807,24.5112],[94.38,24.5091],[94.3767,24.5106],[94.3759,24.5085],[94.3798,24.5073],[94.3791,24.5043],[94.3826,24.5038],[94.3823,24.5011],[94.3785,24.4979],[94.3802,24.4968],[94.3843,24.4969],[94.386,24.4944],[94.3883,24.4927],[94.39,24.4896],[94.3962,24.4842],[94.3995,24.4867],[94.4042,24.4857],[94.4065,24.4831],[94.401,24.4813],[94.409,24.4631],[94.4007,24.4585],[94.398,24.4556],[94.4055,24.4473],[94.4064,24.4376],[94.405,24.4247],[94.4014,24.4146],[94.3967,24.4066],[94.3891,24.4032],[94.3809,24.4011],[94.3719,24.3983],[94.3643,24.3981],[94.3629,24.3933],[94.3738,24.3864],[94.3836,24.3781],[94.3808,24.3729],[94.375,24.3646],[94.3668,24.3555],[94.3532,24.3401],[94.3492,24.3356],[94.3445,24.333],[94.3323,24.3323],[94.3238,24.3326],[94.3227,24.3278],[94.3243,24.3243],[94.3254,24.3126],[94.3257,24.2997],[94.3254,24.2861],[94.3192,24.2696],[94.3122,24.2534],[94.3107,24.2478],[94.3012,24.2392],[94.2926,24.2336],[94.289,24.2168],[94.2851,24.207],[94.2825,24.1964],[94.2818,24.1854],[94.2811,24.1736],[94.2771,24.1697],[94.2639,24.166],[94.2601,24.1615],[94.2575,24.1495],[94.2554,24.1367],[94.2564,24.1254],[94.2566,24.1136],[94.2541,24.1004],[94.2557,24.0954],[94.2574,24.09],[94.257,24.0833],[94.2514,24.0715],[94.2475,24.0643],[94.2445,24.0564],[94.2372,24.0598],[94.2304,24.0607],[94.2325,24.0525],[94.2409,24.0417],[94.2426,24.038],[94.2289,24.0153],[94.2229,24.008],[94.2176,23.9999],[94.2127,23.9913],[94.2076,23.9862],[94.1986,23.9719],[94.1918,23.9589],[94.1908,23.9451],[94.1941,23.9379],[94.1932,23.9316],[94.1877,23.928],[94.1791,23.9318],[94.1742,23.9328],[94.168,23.9291],[94.1668,23.9227],[94.1655,23.8831],[94.1622,23.8588],[94.1587,23.8468],[94.1527,23.8455],[94.1444,23.8501],[94.1365,23.8499],[94.1324,23.8401],[94.1261,23.8369],[94.1199,23.8368],[94.112,23.8466],[94.1114,23.8608],[94.1089,23.865],[94.1015,23.8713],[94.0983,23.8832],[94.0934,23.8877],[94.0879,23.8887],[94.0828,23.8874],[94.0731,23.8873],[94.0658,23.8899],[94.0583,23.8916],[94.054,23.8919],[94.0485,23.8947],[94.0467,23.9017],[94.0443,23.9077],[94.0406,23.9123],[94.0353,23.9149],[94.0315,23.9165],[94.0252,23.9204],[94.0189,23.9259],[94.0151,23.9284],[94.0108,23.9289],[94.0055,23.9276],[93.999,23.9256],[93.9929,23.926],[93.9871,23.9265],[93.9791,23.9278],[93.9739,23.9298],[93.9669,23.9285],[93.9598,23.9317],[93.9593,23.9379],[93.9575,23.9415],[93.9513,23.9448],[93.9392,23.9474],[93.9334,23.948],[93.924,23.9501],[93.9186,23.9515],[93.9115,23.9521],[93.9046,23.9518],[93.8997,23.9503],[93.8937,23.9496],[93.8887,23.9465],[93.8847,23.9422],[93.8792,23.9419],[93.8747,23.9417],[93.8708,23.9387],[93.8639,23.9327],[93.8463,23.9329],[93.8352,23.927],[93.8259,23.9263],[93.8137,23.9248],[93.8058,23.9281],[93.8034,23.9323],[93.803,23.9422],[93.8013,23.9461],[93.7989,23.9505],[93.795,23.9516],[93.7921,23.9578],[93.7913,23.9625],[93.7834,23.9645],[93.7772,23.9729],[93.7713,23.9775],[93.7681,23.9851],[93.7644,23.9921],[93.7601,23.9992],[93.7548,24.0046],[93.7445,24.0037],[93.7381,24.0029],[93.7394,24.0092],[93.7428,24.0168],[93.7431,24.0219],[93.7465,24.0295],[93.7559,24.0409],[93.7562,24.0472],[93.7607,24.0497],[93.761,24.056],[93.7627,24.0636],[93.7687,24.0699],[93.7659,24.0762],[93.7717,24.0799],[93.7704,24.0875],[93.7761,24.0912],[93.7776,24.0975],[93.7776,24.1051],[93.7748,24.1101],[93.7719,24.1201],[93.7776,24.1252],[93.7755,24.1288],[93.7809,24.1382],[93.7894,24.1394],[93.7908,24.1432],[93.8008,24.1444],[93.808,24.1531],[93.8123,24.1669],[93.8251,24.1732],[93.828,24.1794],[93.8366,24.1832],[93.8395,24.1932],[93.8438,24.1957],[93.8467,24.2057],[93.8524,24.212],[93.8581,24.2069],[93.8652,24.2044],[93.8681,24.2107],[93.8681,24.2157],[93.8767,24.217],[93.8796,24.2195],[93.8796,24.2245],[93.8725,24.2283],[93.8625,24.2296],[93.8611,24.2321],[93.8654,24.2371],[93.8683,24.2422],[93.8641,24.2435],[93.8656,24.2511],[93.8628,24.2574],[93.8643,24.2625],[93.8701,24.2677],[93.873,24.2716],[93.8803,24.2856],[93.886,24.283],[93.8874,24.2779],[93.8829,24.2651],[93.8841,24.241],[93.8854,24.2359],[93.8926,24.2384],[93.8984,24.2461],[93.9114,24.2488],[93.9116,24.2615],[93.9173,24.259],[93.9216,24.2616],[93.923,24.2703],[93.9201,24.2776],[93.9216,24.2801],[93.9272,24.2788],[93.9343,24.2836],[93.9371,24.2885],[93.94,24.2897],[93.94,24.2946],[93.9329,24.3084],[93.9244,24.3209],[93.9159,24.3285],[93.9116,24.3372],[93.9131,24.3497],[93.916,24.356],[93.9189,24.3685],[93.9261,24.3747],[93.929,24.386],[93.9376,24.3935],[93.9476,24.3923],[93.9476,24.3961],[93.9462,24.3999],[93.9477,24.4037],[93.952,24.4075],[93.9577,24.4076],[93.9634,24.4051],[93.9663,24.4064],[93.9678,24.409],[93.9664,24.4182],[93.9737,24.4294],[93.9782,24.4468],[93.9769,24.4534],[93.9726,24.4628],[93.9712,24.4708],[93.9712,24.4845],[93.9727,24.4857],[93.977,24.4871],[93.9799,24.4872],[93.9841,24.482],[93.9856,24.4677],[93.9999,24.4631],[94.0033,24.46],[94.0031,24.4457],[94.0052,24.4409],[94.0126,24.4415],[94.0222,24.4438],[94.0384,24.4548],[94.0509,24.4697],[94.0367,24.5011],[94.0364,24.5019],[94.041,24.5229],[94.0409,24.5378],[94.0488,24.5332],[94.0541,24.5282],[94.0588,24.5302],[94.0591,24.5275],[94.0554,24.5244],[94.0539,24.5221],[94.0545,24.5168],[94.058,24.5123],[94.0626,24.5169],[94.0653,24.5213],[94.0673,24.5158],[94.0728,24.5165],[94.0842,24.5153],[94.0894,24.5175],[94.0757,24.5407],[94.0724,24.5543],[94.0741,24.5631],[94.0814,24.5619],[94.0921,24.5518],[94.0975,24.5534],[94.1023,24.5593],[94.1088,24.5764],[94.1193,24.5908],[94.1215,24.598],[94.1203,24.6022],[94.1235,24.6051],[94.1299,24.6041],[94.1356,24.6021],[94.1418,24.601],[94.1467,24.6011],[94.1515,24.6032],[94.152,24.611],[94.1503,24.6181],[94.1512,24.618],[94.1582,24.6196],[94.164,24.6231],[94.1744,24.6345],[94.1772,24.6352],[94.2035,24.6261]]]},"properties":{"district_name":"Chandel","raw_district_name":"Chandel","state_code":"MN","state_name":"Manipur","census_code":280,"data_source":"DataMeet India Maps (Census 2011 Boundaries)"}},{"type":"Feature","geometry":{"type":"Polygon","coordinates":[[[93.7245,24.5915],[93.723,24.5827],[93.7287,24.5663],[93.7301,24.5538],[93.7329,24.5475],[93.7328,24.5211],[93.7325,24.4989],[93.7196,24.4839],[93.7195,24.4713],[93.7152,24.465],[93.7137,24.4537],[93.7123,24.4487],[93.708,24.4437],[93.7122,24.4324],[93.7136,24.4223],[93.7235,24.4135],[93.735,24.4209],[93.7364,24.4184],[93.7321,24.4084],[93.732,24.3971],[93.7349,24.392],[93.7406,24.392],[93.7435,24.3995],[93.7463,24.4008],[93.7478,24.4046],[93.7521,24.4045],[93.7577,24.3982],[93.7749,24.3981],[93.7891,24.3955],[93.8091,24.3892],[93.8076,24.3841],[93.8091,24.3829],[93.8018,24.3616],[93.8104,24.3553],[93.8146,24.3552],[93.8346,24.3601],[93.8389,24.3576],[93.8432,24.3526],[93.8487,24.3163],[93.8516,24.3089],[93.8674,24.2917],[93.8674,24.2867],[93.8732,24.2868],[93.8761,24.2856],[93.8803,24.2856],[93.873,24.2716],[93.8701,24.2677],[93.8643,24.2625],[93.8628,24.2574],[93.8656,24.2511],[93.8641,24.2435],[93.8683,24.2422],[93.8654,24.2371],[93.8611,24.2321],[93.8625,24.2296],[93.8725,24.2283],[93.8796,24.2245],[93.8796,24.2195],[93.8767,24.217],[93.8681,24.2157],[93.8681,24.2107],[93.8652,24.2044],[93.8581,24.2069],[93.8524,24.212],[93.8467,24.2057],[93.8438,24.1957],[93.8395,24.1932],[93.8366,24.1832],[93.828,24.1794],[93.8251,24.1732],[93.8123,24.1669],[93.808,24.1531],[93.8008,24.1444],[93.7908,24.1432],[93.7894,24.1394],[93.7809,24.1382],[93.7755,24.1288],[93.7776,24.1252],[93.7719,24.1201],[93.7748,24.1101],[93.7776,24.1051],[93.7776,24.0975],[93.7761,24.0912],[93.7704,24.0875],[93.7717,24.0799],[93.7659,24.0762],[93.7687,24.0699],[93.7627,24.0636],[93.761,24.056],[93.7607,24.0497],[93.7562,24.0472],[93.7559,24.0409],[93.7465,24.0295],[93.7431,24.0219],[93.7428,24.0168],[93.7394,24.0092],[93.7381,24.0029],[93.7445,24.0037],[93.7422,23.9964],[93.7378,23.9943],[93.7306,23.997],[93.7247,23.999],[93.7181,24.0008],[93.7106,24.0005],[93.704,24.0017],[93.6949,24.0027],[93.6844,24.005],[93.6755,24.0064],[93.6724,24.0034],[93.6655,24.0007],[93.6608,24],[93.6568,24.0026],[93.6529,24.0053],[93.6504,24.0089],[93.6429,24.0095],[93.6333,24.0088],[93.6257,24.0106],[93.6187,24.0097],[93.6143,24.0062],[93.6147,23.9984],[93.6181,23.995],[93.6187,23.9907],[93.6189,23.9867],[93.6139,23.9769],[93.6103,23.9726],[93.6073,23.9689],[93.6015,23.9651],[93.5952,23.9628],[93.5906,23.9635],[93.5819,23.964],[93.5781,23.9658],[93.5752,23.9734],[93.5705,23.9788],[93.5669,23.9842],[93.5616,23.9852],[93.5593,23.9812],[93.5553,23.9753],[93.5556,23.9657],[93.553,23.9608],[93.5444,23.9589],[93.5375,23.9589],[93.5286,23.9564],[93.5223,23.9504],[93.5175,23.9457],[93.5132,23.9429],[93.5068,23.9446],[93.5006,23.9515],[93.4941,23.9529],[93.4875,23.9573],[93.4839,23.9634],[93.4762,23.9653],[93.4704,23.9665],[93.467,23.9698],[93.4643,23.975],[93.4649,23.9834],[93.4656,23.9878],[93.4652,23.9951],[93.4613,23.9994],[93.457,24.0055],[93.4556,24.0109],[93.4515,24.0187],[93.4423,24.0236],[93.4394,24.0306],[93.4382,24.0395],[93.4312,24.0576],[93.423,24.0676],[93.4185,24.072],[93.4137,24.0752],[93.4088,24.0776],[93.4026,24.0803],[93.3895,24.0842],[93.3817,24.0853],[93.3689,24.0883],[93.367,24.0886],[93.3648,24.089],[93.3599,24.0963],[93.3552,24.1052],[93.3499,24.1085],[93.3453,24.1091],[93.3475,24.1012],[93.3493,24.0977],[93.3523,24.0938],[93.3452,24.0884],[93.342,24.0905],[93.3378,24.0893],[93.3325,24.0863],[93.3344,24.0811],[93.336,24.075],[93.3373,24.0684],[93.3404,24.0636],[93.3358,24.0571],[93.3347,24.0528],[93.3358,24.0495],[93.311,24.0503],[93.2967,24.0478],[93.2866,24.0478],[93.2838,24.0428],[93.2752,24.0365],[93.2724,24.0302],[93.2538,24.0201],[93.2509,24.0301],[93.2608,24.054],[93.2651,24.0565],[93.2622,24.0641],[93.2622,24.0691],[93.2466,24.0817],[93.2409,24.0829],[93.2352,24.0804],[93.2253,24.0829],[93.221,24.0779],[93.2238,24.0703],[93.221,24.0641],[93.2195,24.0578],[93.2153,24.0465],[93.2072,24.0475],[93.1968,24.049],[93.1926,24.0527],[93.1741,24.0502],[93.1684,24.0515],[93.1656,24.0577],[93.1685,24.0678],[93.16,24.0741],[93.1571,24.0804],[93.1466,24.0846],[93.1409,24.0834],[93.1338,24.0758],[93.1337,24.0695],[93.128,24.0607],[93.1195,24.0569],[93.1181,24.0531],[93.111,24.0518],[93.1096,24.0468],[93.0996,24.0417],[93.0982,24.0455],[93.1025,24.0493],[93.0996,24.053],[93.101,24.0593],[93.0996,24.0631],[93.101,24.0707],[93.0939,24.077],[93.0882,24.0807],[93.084,24.087],[93.0783,24.0997],[93.0725,24.0972],[93.064,24.091],[93.0525,24.0874],[93.0365,24.092],[93.0335,24.096],[93.0291,24.0976],[93.0261,24.1005],[93.0203,24.0983],[93.013,24.1014],[93.0085,24.1068],[92.9996,24.1121],[92.9882,24.1132],[92.9837,24.1117],[92.9753,24.1118],[92.9738,24.1139],[92.9725,24.1208],[92.9765,24.1233],[92.985,24.1258],[92.9918,24.1373],[92.9898,24.1437],[92.9901,24.1472],[92.992,24.1501],[92.9996,24.1536],[93.0044,24.1575],[93.0022,24.1709],[93.0098,24.1791],[93.002,24.1912],[93.002,24.1944],[93.0113,24.1944],[93.0156,24.1969],[93.0169,24.2044],[93.0212,24.2069],[93.0226,24.2144],[93.0184,24.2219],[93.0184,24.2257],[93.0255,24.2294],[93.017,24.2332],[93.0057,24.2508],[93.0058,24.2596],[93.0129,24.2685],[93.0072,24.2773],[93.0101,24.2849],[93.0172,24.29],[93.0229,24.2976],[93.0343,24.3152],[93.0424,24.3402],[93.0308,24.3413],[93.0206,24.3436],[93.0184,24.3557],[93.0192,24.3628],[93.0212,24.371],[93.0162,24.3768],[93.0234,24.3873],[92.9996,24.4001],[93.0056,24.4088],[93.008,24.4022],[93.0151,24.3994],[93.0151,24.3994],[93.0283,24.4031],[93.0383,24.4079],[93.0383,24.4079],[93.0383,24.4079],[93.0385,24.4143],[93.0313,24.4257],[93.0359,24.4407],[93.0371,24.4579],[93.0474,24.4607],[93.0474,24.4607],[93.0477,24.4722],[93.0449,24.4786],[93.035,24.4937],[93.0435,24.5026],[93.0392,24.5076],[93.0406,24.5114],[93.052,24.5164],[93.052,24.5214],[93.0477,24.5277],[93.0505,24.5339],[93.0519,24.5415],[93.0604,24.5515],[93.0648,24.544],[93.0648,24.544],[93.0648,24.544],[93.0719,24.5578],[93.0604,24.5716],[93.0705,24.5729],[93.0777,24.5716],[93.0864,24.5679],[93.0864,24.5679],[93.0864,24.5679],[93.0954,24.5769],[93.0965,24.5792],[93.1037,24.5792],[93.1058,24.58],[93.1062,24.5802],[93.1062,24.5802],[93.1165,24.5692],[93.1292,24.5616],[93.1461,24.5591],[93.1561,24.5591],[93.166,24.5553],[93.1746,24.554],[93.1774,24.5528],[93.191,24.5504],[93.1838,24.5454],[93.181,24.5404],[93.1781,24.5316],[93.1724,24.5278],[93.1752,24.5203],[93.1738,24.5152],[93.1781,24.5152],[93.1838,24.5127],[93.1853,24.5215],[93.1938,24.5203],[93.1981,24.514],[93.2067,24.5127],[93.2139,24.4977],[93.2224,24.4939],[93.2296,24.5015],[93.2353,24.5103],[93.2467,24.5128],[93.2539,24.5078],[93.261,24.5078],[93.2668,24.509],[93.2668,24.5166],[93.2696,24.5203],[93.261,24.5228],[93.2682,24.5354],[93.2739,24.5404],[93.271,24.5442],[93.2768,24.5467],[93.2853,24.5593],[93.2811,24.5631],[93.2882,24.5656],[93.3082,24.5618],[93.3182,24.5643],[93.3268,24.5656],[93.3368,24.5656],[93.3411,24.5719],[93.3483,24.5744],[93.3554,24.5731],[93.3897,24.5643],[93.3955,24.5744],[93.4012,24.5719],[93.4026,24.5681],[93.4069,24.5631],[93.4126,24.5593],[93.4298,24.5543],[93.4483,24.5379],[93.4541,24.5442],[93.4655,24.5668],[93.4713,24.5693],[93.4784,24.5693],[93.4841,24.5655],[93.4927,24.5504],[93.4984,24.5555],[93.5013,24.5542],[93.5084,24.5592],[93.5127,24.5643],[93.5327,24.5554],[93.537,24.5567],[93.5371,24.568],[93.5399,24.5705],[93.5428,24.578],[93.5471,24.5768],[93.55,24.5805],[93.5586,24.5805],[93.56,24.5843],[93.5714,24.5906],[93.5757,24.5843],[93.5829,24.5792],[93.5871,24.5742],[93.59,24.5679],[93.5957,24.5654],[93.5986,24.5692],[93.6072,24.5704],[93.6115,24.5754],[93.6158,24.5817],[93.623,24.6005],[93.6258,24.603],[93.6344,24.6043],[93.6501,24.5904],[93.653,24.5942],[93.6545,24.6017],[93.6616,24.6067],[93.6673,24.6067],[93.6802,24.6042],[93.6888,24.6092],[93.7003,24.6116],[93.7174,24.6041],[93.7217,24.599],[93.7245,24.5915]]]},"properties":{"district_name":"Churachandpur","raw_district_name":"Churachandpur","state_code":"MN","state_name":"Manipur","census_code":274,"data_source":"DataMeet India Maps (Census 2011 Boundaries)"}},{"type":"Feature","geometry":{"type":"Polygon","coordinates":[[[94.0872,24.6926],[94.0858,24.687],[94.0818,24.6887],[94.0809,24.686],[94.0794,24.6872],[94.0756,24.6875],[94.0757,24.6845],[94.0616,24.6854],[94.0599,24.6837],[94.0587,24.6794],[94.0467,24.6804],[94.0472,24.674],[94.0414,24.6719],[94.0419,24.6762],[94.0354,24.6724],[94.0347,24.675],[94.0326,24.6773],[94.0334,24.6724],[94.0294,24.6714],[94.0252,24.6724],[94.0233,24.6666],[94.0199,24.6667],[94.0178,24.6705],[94.0156,24.682],[94.0101,24.686],[94.0176,24.6951],[94.0177,24.7003],[94.0142,24.7042],[94.0077,24.7085],[94.004,24.7139],[94.0043,24.7242],[94,24.7274],[93.9957,24.7274],[93.9818,24.7253],[93.9737,24.7231],[93.9723,24.7195],[93.9738,24.7119],[93.9696,24.7108],[93.9682,24.7046],[93.9597,24.7074],[93.9469,24.7089],[93.9469,24.7114],[93.9441,24.7177],[93.9426,24.7152],[93.9383,24.7127],[93.9297,24.7127],[93.9269,24.7076],[93.9268,24.7025],[93.9183,24.7037],[93.9125,24.6986],[93.9068,24.6998],[93.9082,24.6948],[93.9082,24.6909],[93.9067,24.6871],[93.9095,24.6795],[93.9067,24.677],[93.9052,24.6745],[93.9095,24.6719],[93.9181,24.6719],[93.918,24.6694],[93.9152,24.6656],[93.9166,24.663],[93.9266,24.6617],[93.928,24.6605],[93.9352,24.6617],[93.9351,24.6453],[93.9322,24.6503],[93.9279,24.6516],[93.9207,24.6365],[93.9106,24.6353],[93.9049,24.6315],[93.9006,24.6278],[93.9005,24.6177],[93.8919,24.614],[93.9004,24.6065],[93.9076,24.6114],[93.9119,24.6101],[93.9133,24.6064],[93.9118,24.5989],[93.9118,24.5902],[93.9075,24.5903],[93.9132,24.5791],[93.9118,24.5693],[93.9075,24.5619],[93.9017,24.557],[93.896,24.5545],[93.8902,24.5532],[93.876,24.5521],[93.8688,24.5632],[93.8717,24.5707],[93.8889,24.5768],[93.8903,24.5805],[93.8889,24.5854],[93.8718,24.5991],[93.8732,24.6041],[93.8718,24.6091],[93.869,24.6116],[93.8561,24.6091],[93.8532,24.6154],[93.8561,24.6204],[93.8533,24.6229],[93.849,24.6242],[93.8203,24.6067],[93.8117,24.6093],[93.806,24.6156],[93.806,24.6219],[93.8147,24.6294],[93.8176,24.6357],[93.8047,24.6433],[93.8006,24.6685],[93.8365,24.6797],[93.8465,24.6809],[93.8479,24.6759],[93.868,24.6771],[93.8766,24.6796],[93.891,24.6896],[93.8925,24.6972],[93.8925,24.701],[93.8911,24.7061],[93.8925,24.7099],[93.8825,24.7099],[93.8725,24.7149],[93.8424,24.7193],[93.8324,24.7181],[93.8238,24.7194],[93.8052,24.7308],[93.7995,24.7283],[93.7895,24.7296],[93.7738,24.7372],[93.7808,24.7392],[93.7823,24.7468],[93.7938,24.7656],[93.7909,24.7694],[93.7952,24.7744],[93.7938,24.7782],[93.7895,24.7845],[93.7867,24.7921],[93.7838,24.8047],[93.7881,24.8085],[93.7881,24.8185],[93.7939,24.8236],[93.8111,24.8361],[93.8111,24.8449],[93.8096,24.8538],[93.8125,24.8563],[93.8082,24.8638],[93.811,24.8689],[93.8182,24.8714],[93.8225,24.8865],[93.8282,24.8903],[93.8325,24.9054],[93.8355,24.9218],[93.8443,24.9293],[93.8447,24.9432],[93.8479,24.9508],[93.866,24.956],[93.8724,24.9751],[93.8883,25.0003],[93.8919,25.0095],[93.8932,25.018],[93.901,25.0309],[93.9108,25.0403],[93.9163,25.0425],[93.9181,25.0447],[93.9211,25.0515],[93.9218,25.0553],[93.9647,25.072],[93.9754,25.075],[93.9824,25.073],[93.9864,25.0698],[93.9878,25.0641],[93.9846,25.055],[93.9646,25.0326],[93.958,25.0267],[93.9345,25.0145],[93.9261,25.0091],[93.915,25.0003],[93.9136,24.9838],[93.9066,24.975],[93.9108,24.9737],[93.9118,24.9711],[93.9176,24.9723],[93.9199,24.9697],[93.911,24.966],[93.9079,24.9635],[93.9058,24.9584],[93.8983,24.956],[93.8935,24.9522],[93.8896,24.9408],[93.8963,24.9332],[93.9074,24.9268],[93.9099,24.9444],[93.9301,24.9655],[93.9324,24.9629],[93.9366,24.9652],[93.9335,24.9603],[93.9262,24.9542],[93.925,24.9392],[93.9257,24.9228],[93.9228,24.9203],[93.9226,24.914],[93.9183,24.9115],[93.9196,24.9064],[93.9138,24.9002],[93.9209,24.9026],[93.928,24.9038],[93.9337,24.9025],[93.9351,24.8988],[93.935,24.8962],[93.9365,24.8937],[93.9423,24.8962],[93.9466,24.8962],[93.954,24.9012],[93.9525,24.9025],[93.9482,24.9025],[93.9482,24.9038],[93.9615,24.9124],[93.963,24.916],[93.9498,24.9113],[93.9485,24.9163],[93.9514,24.9187],[93.9616,24.9221],[93.963,24.9233],[93.9645,24.9291],[93.9559,24.9295],[93.9531,24.9321],[93.9546,24.938],[93.9644,24.9359],[93.9699,24.9365],[93.9715,24.9319],[93.9771,24.9303],[93.9774,24.9214],[93.9788,24.919],[93.9817,24.9166],[93.9873,24.922],[93.9859,24.9232],[93.9853,24.9335],[93.9838,24.9357],[93.981,24.937],[93.9808,24.94],[93.967,24.9457],[93.9655,24.9493],[93.956,24.9509],[93.9601,24.9538],[93.9562,24.9606],[93.9641,24.9555],[93.9667,24.9572],[93.9707,24.9562],[93.9734,24.9542],[93.9749,24.9494],[93.979,24.9472],[93.9843,24.9466],[93.9941,24.9428],[93.9946,24.9506],[94.0001,24.9556],[94.0072,24.9512],[94.0107,24.9503],[94.0154,24.9506],[94.0182,24.9544],[94.0196,24.9723],[94.0239,24.9922],[94.0226,24.9971],[94.018,24.9974],[94.0122,24.9993],[94,25],[94.0066,25.0029],[94.0165,25.0033],[94.0189,25.0041],[94.0204,25.0063],[94.0217,25.0141],[94.0212,25.018],[94.0183,25.0273],[94.0158,25.032],[94.02,25.0413],[94.0236,25.0454],[94.0337,25.0498],[94.0335,25.0476],[94.0311,25.0446],[94.0278,25.0342],[94.0283,25.0317],[94.0323,25.0263],[94.0324,25.0199],[94.0351,25.0172],[94.0392,25.0176],[94.0413,25.019],[94.0436,25.0186],[94.0488,25.0121],[94.0463,25.0107],[94.0447,25.0112],[94.0428,25.0132],[94.0414,25.0131],[94.0397,25.0102],[94.034,25.0103],[94.0322,25.0065],[94.0322,25.0042],[94.0319,25.0033],[94.0371,25.0023],[94.04,25.0034],[94.0417,25.0039],[94.0433,25.0037],[94.0458,25.0008],[94.0476,25.0001],[94.0472,24.9989],[94.0502,24.9963],[94.0472,24.9952],[94.0409,24.9947],[94.0356,24.988],[94.0354,24.9859],[94.0445,24.987],[94.0466,24.9815],[94.039,24.9803],[94.0345,24.9723],[94.0335,24.9693],[94.034,24.9662],[94.04,24.9683],[94.0441,24.9714],[94.0483,24.9729],[94.0487,24.9663],[94.0472,24.962],[94.047,24.9573],[94.0494,24.955],[94.0611,24.9538],[94.0647,24.951],[94.062,24.9478],[94.0542,24.9441],[94.0534,24.9422],[94.0587,24.9404],[94.0648,24.9409],[94.0684,24.9404],[94.0604,24.9009],[94.0622,24.887],[94.0651,24.8824],[94.0702,24.8795],[94.0793,24.8804],[94.0894,24.885],[94.0951,24.8893],[94.099,24.9033],[94.1066,24.9049],[94.1131,24.9054],[94.1189,24.9121],[94.1207,24.9162],[94.1292,24.922],[94.1292,24.9361],[94.1323,24.9385],[94.1369,24.9376],[94.1383,24.9333],[94.1382,24.9284],[94.1394,24.9248],[94.1429,24.9215],[94.145,24.9182],[94.1394,24.9111],[94.1275,24.8998],[94.1227,24.8852],[94.118,24.8813],[94.1143,24.8761],[94.1124,24.8681],[94.1106,24.8529],[94.1067,24.8517],[94.1002,24.8518],[94.096,24.8496],[94.0997,24.8305],[94.0965,24.8227],[94.0918,24.8159],[94.0878,24.8063],[94.0861,24.7963],[94.0781,24.7521],[94.0747,24.7509],[94.0757,24.7463],[94.0739,24.7423],[94.0694,24.7418],[94.0701,24.7385],[94.0658,24.7405],[94.0649,24.7382],[94.0672,24.7361],[94.0646,24.7342],[94.0645,24.7309],[94.0682,24.7288],[94.0664,24.7276],[94.063,24.7275],[94.0598,24.7182],[94.0692,24.7206],[94.069,24.7182],[94.0652,24.7161],[94.0672,24.7157],[94.0659,24.7137],[94.0667,24.7123],[94.0638,24.7109],[94.0664,24.7079],[94.0636,24.7057],[94.0614,24.7026],[94.0615,24.6952],[94.0627,24.6918],[94.0673,24.6945],[94.07,24.7051],[94.0781,24.7069],[94.0823,24.6983],[94.0857,24.6951],[94.0872,24.6926]]]},"properties":{"district_name":"Imphal East","raw_district_name":"Imphal East","state_code":"MN","state_name":"Manipur","census_code":278,"data_source":"DataMeet India Maps (Census 2011 Boundaries)"}},{"type":"Feature","geometry":{"type":"Polygon","coordinates":[[[93.191,24.5504],[93.1774,24.5528],[93.1746,24.554],[93.166,24.5553],[93.1561,24.5591],[93.1461,24.5591],[93.1292,24.5616],[93.1165,24.5692],[93.1062,24.5802],[93.1059,24.5806],[93.1037,24.5843],[93.0979,24.588],[93.0878,24.5867],[93.0791,24.5892],[93.0747,24.5929],[93.0747,24.5967],[93.076,24.6005],[93.086,24.608],[93.086,24.6105],[93.0816,24.6143],[93.0787,24.618],[93.0786,24.623],[93.0815,24.6243],[93.0887,24.6243],[93.0887,24.6243],[93.0887,24.6243],[93.0886,24.6306],[93.0842,24.6444],[93.0856,24.6481],[93.0884,24.6494],[93.0956,24.6494],[93.0956,24.6494],[93.0956,24.6494],[93.0955,24.6532],[93.097,24.6557],[93.0969,24.6594],[93.0983,24.6632],[93.1026,24.6682],[93.104,24.672],[93.104,24.6758],[93.1011,24.677],[93.1011,24.677],[93.1008,24.6768],[93.0969,24.6745],[93.0926,24.6732],[93.0911,24.6745],[93.0911,24.677],[93.0925,24.6808],[93.0925,24.6845],[93.0896,24.6896],[93.0839,24.6946],[93.0824,24.6983],[93.0796,24.7008],[93.0752,24.7071],[93.0781,24.7109],[93.0881,24.7059],[93.0881,24.7059],[93.0881,24.7059],[93.0924,24.7122],[93.0938,24.7172],[93.0934,24.7183],[93.0924,24.721],[93.0938,24.721],[93.0938,24.721],[93.0938,24.721],[93.0967,24.7247],[93.0966,24.7285],[93.1038,24.7335],[93.1066,24.7386],[93.1052,24.7423],[93.103,24.7433],[93.1023,24.7436],[93.1023,24.7436],[93.1023,24.7436],[93.1023,24.7398],[93.1009,24.7386],[93.098,24.7411],[93.1009,24.7461],[93.0994,24.7474],[93.0994,24.7511],[93.1037,24.7599],[93.1051,24.7662],[93.1022,24.77],[93.1008,24.775],[93.1065,24.78],[93.105,24.7813],[93.105,24.785],[93.1079,24.7876],[93.1121,24.7989],[93.1092,24.8064],[93.1107,24.8089],[93.1193,24.814],[93.1196,24.8142],[93.1221,24.8165],[93.1221,24.8115],[93.1193,24.8077],[93.1207,24.8052],[93.1264,24.8052],[93.1308,24.8027],[93.1308,24.8027],[93.1308,24.8027],[93.1365,24.8077],[93.1394,24.8014],[93.1422,24.7977],[93.1437,24.7964],[93.148,24.7951],[93.1509,24.7926],[93.1523,24.7901],[93.1523,24.7864],[93.1523,24.7864],[93.1566,24.7889],[93.1609,24.7939],[93.1652,24.7952],[93.1652,24.7952],[93.1652,24.7952],[93.168,24.7977],[93.1738,24.8002],[93.1752,24.7939],[93.1767,24.7927],[93.1781,24.7927],[93.1781,24.7927],[93.1781,24.7927],[93.1795,24.7952],[93.1795,24.7989],[93.1809,24.8015],[93.1852,24.8015],[93.1895,24.8027],[93.1924,24.8027],[93.1924,24.8027],[93.1924,24.8027],[93.1938,24.8053],[93.1967,24.8078],[93.1981,24.8115],[93.1953,24.8128],[93.191,24.8191],[93.1924,24.8228],[93.1967,24.8304],[93.1947,24.8304],[93.1924,24.8304],[93.1923,24.8329],[93.1938,24.8341],[93.1952,24.8341],[93.1981,24.8329],[93.1981,24.8329],[93.1981,24.8329],[93.2009,24.8367],[93.1995,24.8379],[93.1995,24.8379],[93.1995,24.8379],[93.1981,24.8367],[93.1966,24.8367],[93.1938,24.8404],[93.1952,24.8429],[93.2009,24.8404],[93.2009,24.8404],[93.2009,24.8404],[93.2009,24.8467],[93.198,24.8492],[93.1966,24.853],[93.1995,24.8543],[93.2052,24.8518],[93.2052,24.8518],[93.2081,24.853],[93.2081,24.853],[93.2081,24.853],[93.2095,24.8555],[93.2121,24.8573],[93.2137,24.8584],[93.2137,24.8584],[93.2266,24.8572],[93.2323,24.8547],[93.238,24.8534],[93.2438,24.8534],[93.2452,24.8509],[93.2423,24.8408],[93.2323,24.822],[93.2252,24.8056],[93.2237,24.7993],[93.2237,24.7943],[93.2209,24.7918],[93.2166,24.7905],[93.208,24.783],[93.2051,24.7792],[93.1994,24.7767],[93.1951,24.7767],[93.1922,24.7779],[93.1894,24.7817],[93.1893,24.7842],[93.1793,24.783],[93.1722,24.7616],[93.1579,24.7427],[93.1493,24.7251],[93.1479,24.7176],[93.145,24.7113],[93.1479,24.7088],[93.1651,24.7088],[93.1808,24.705],[93.1923,24.705],[93.2066,24.7025],[93.2066,24.7],[93.208,24.6988],[93.2166,24.6963],[93.2181,24.6975],[93.2166,24.6937],[93.2095,24.685],[93.2066,24.6673],[93.2209,24.6711],[93.2209,24.6636],[93.2181,24.6623],[93.2138,24.6648],[93.2109,24.6623],[93.2109,24.6585],[93.2152,24.651],[93.2152,24.6447],[93.2209,24.641],[93.2238,24.6372],[93.2238,24.6322],[93.221,24.6259],[93.2124,24.6259],[93.2109,24.6221],[93.2181,24.6158],[93.2167,24.6108],[93.2167,24.6058],[93.2195,24.5995],[93.2167,24.5869],[93.2153,24.5844],[93.2124,24.5831],[93.2038,24.5869],[93.2024,24.5882],[93.2038,24.5768],[93.2081,24.5743],[93.2052,24.5718],[93.2081,24.5706],[93.211,24.5668],[93.2081,24.5655],[93.2052,24.5655],[93.2024,24.568],[93.1967,24.5706],[93.1938,24.5668],[93.1967,24.5643],[93.1981,24.5618],[93.1981,24.5592],[93.1952,24.5555],[93.191,24.5504]]]},"properties":{"district_name":"Imphal West","raw_district_name":"Imphal West","state_code":"MN","state_name":"Manipur","census_code":277,"data_source":"DataMeet India Maps (Census 2011 Boundaries)"}},{"type":"Feature","geometry":{"type":"Polygon","coordinates":[[[94.4923,25.6084],[94.493,25.607],[94.4865,25.5961],[94.476,25.5881],[94.4702,25.5825],[94.4668,25.5706],[94.464,25.5545],[94.4492,25.5364],[94.443,25.5267],[94.4411,25.5215],[94.4386,25.5188],[94.4384,25.5158],[94.4353,25.5133],[94.433,25.5094],[94.4277,25.4896],[94.4231,25.4812],[94.4193,25.4712],[94.4221,25.4664],[94.4113,25.4553],[94.4055,25.4482],[94.404,25.4403],[94.397,25.4291],[94.3937,25.4223],[94.3908,25.4233],[94.3878,25.4229],[94.386,25.4211],[94.3889,25.4171],[94.3824,25.4081],[94.3863,25.403],[94.3816,25.3966],[94.3789,25.3915],[94.378,25.3878],[94.3774,25.3767],[94.3784,25.3687],[94.3813,25.3653],[94.3793,25.3599],[94.3806,25.3572],[94.3774,25.3531],[94.3701,25.348],[94.3623,25.3396],[94.3589,25.3355],[94.3576,25.3317],[94.352,25.3233],[94.3479,25.314],[94.3429,25.3108],[94.3392,25.3074],[94.331,25.2929],[94.3293,25.2846],[94.3263,25.2783],[94.3169,25.2673],[94.3151,25.2649],[94.3113,25.2625],[94.2989,25.249],[94.2847,25.2388],[94.2643,25.2309],[94.2587,25.2277],[94.2569,25.2236],[94.2553,25.2168],[94.2513,25.2089],[94.2461,25.2032],[94.2361,25.1977],[94.2287,25.1954],[94.2243,25.1893],[94.222,25.182],[94.2158,25.1781],[94.208,25.1759],[94.1958,25.1761],[94.1919,25.1715],[94.1849,25.1678],[94.1827,25.1666],[94.1832,25.1633],[94.1846,25.1605],[94.1807,25.1607],[94.1763,25.1585],[94.1773,25.1525],[94.1744,25.1519],[94.1706,25.1476],[94.1675,25.1412],[94.1634,25.1432],[94.1627,25.1395],[94.1653,25.1357],[94.1619,25.1335],[94.1581,25.1361],[94.1564,25.1324],[94.1515,25.133],[94.1488,25.1258],[94.14,25.1192],[94.1359,25.1176],[94.1359,25.1153],[94.1349,25.1133],[94.1317,25.112],[94.1308,25.1003],[94.1277,25.0934],[94.125,25.0908],[94.1238,25.0857],[94.1246,25.0789],[94.1221,25.076],[94.1208,25.0691],[94.1219,25.0658],[94.1244,25.064],[94.1273,25.0599],[94.1276,25.0571],[94.1293,25.0528],[94.1412,25.0483],[94.1496,25.0349],[94.151,25.0268],[94.1526,25.0232],[94.1489,25.0004],[94.1541,24.991],[94.1643,24.9648],[94.1664,24.9534],[94.17,24.9445],[94.1762,24.9407],[94.1759,24.9385],[94.1742,24.938],[94.1723,24.9384],[94.1719,24.9365],[94.173,24.9347],[94.1733,24.9324],[94.1721,24.9283],[94.1736,24.9255],[94.1729,24.9209],[94.171,24.9177],[94.1655,24.9169],[94.1648,24.9153],[94.1662,24.9124],[94.1631,24.9028],[94.1654,24.8999],[94.1647,24.8971],[94.1631,24.8958],[94.1623,24.891],[94.1631,24.8873],[94.1617,24.8855],[94.1555,24.8837],[94.1541,24.8743],[94.1501,24.8752],[94.1481,24.8741],[94.147,24.8719],[94.1499,24.8715],[94.1477,24.8613],[94.1455,24.8608],[94.1437,24.8591],[94.1448,24.856],[94.1481,24.8531],[94.1473,24.8477],[94.1502,24.8455],[94.1529,24.8422],[94.1529,24.8403],[94.1498,24.839],[94.1539,24.8354],[94.1545,24.8334],[94.1523,24.8319],[94.1539,24.8292],[94.1525,24.827],[94.1503,24.8291],[94.1471,24.8287],[94.1482,24.8186],[94.1426,24.8107],[94.1417,24.8068],[94.1375,24.8047],[94.1376,24.8042],[94.1397,24.8025],[94.1426,24.7999],[94.147,24.7989],[94.1582,24.7986],[94.1629,24.7972],[94.1691,24.7834],[94.1774,24.7761],[94.184,24.7656],[94.1848,24.7603],[94.1805,24.7558],[94.1837,24.7518],[94.1823,24.7444],[94.1778,24.738],[94.1767,24.7346],[94.1887,24.7198],[94.191,24.7129],[94.1916,24.6924],[94.191,24.684],[94.1857,24.6708],[94.1921,24.6609],[94.2004,24.6543],[94.2026,24.6401],[94.2025,24.633],[94.2035,24.6261],[94.1772,24.6352],[94.1744,24.6345],[94.164,24.6231],[94.1582,24.6196],[94.1512,24.618],[94.1503,24.6181],[94.1329,24.6209],[94.1256,24.625],[94.119,24.6314],[94.115,24.6373],[94.1118,24.649],[94.115,24.6495],[94.1123,24.653],[94.1096,24.659],[94.1065,24.6612],[94.1014,24.6688],[94.1055,24.6741],[94.1097,24.6767],[94.1149,24.6789],[94.1192,24.6765],[94.1229,24.6786],[94.1215,24.6811],[94.1233,24.6825],[94.1263,24.6827],[94.1318,24.6887],[94.131,24.6923],[94.1248,24.6946],[94.1176,24.6961],[94.1195,24.6997],[94.1241,24.7002],[94.127,24.697],[94.131,24.6983],[94.1289,24.7018],[94.1309,24.7048],[94.1354,24.7066],[94.1317,24.7096],[94.1309,24.7185],[94.1294,24.7231],[94.1231,24.7164],[94.1228,24.7119],[94.1212,24.7079],[94.1179,24.7041],[94.1118,24.7],[94.1052,24.6984],[94.0945,24.6919],[94.0872,24.6926],[94.0857,24.6951],[94.0823,24.6983],[94.0781,24.7069],[94.07,24.7051],[94.0673,24.6945],[94.0627,24.6918],[94.0615,24.6952],[94.0614,24.7026],[94.0636,24.7057],[94.0664,24.7079],[94.0638,24.7109],[94.0667,24.7123],[94.0659,24.7137],[94.0672,24.7157],[94.0652,24.7161],[94.069,24.7182],[94.0692,24.7206],[94.0598,24.7182],[94.063,24.7275],[94.0664,24.7276],[94.0682,24.7288],[94.0645,24.7309],[94.0646,24.7342],[94.0672,24.7361],[94.0649,24.7382],[94.0658,24.7405],[94.0701,24.7385],[94.0694,24.7418],[94.0739,24.7423],[94.0757,24.7463],[94.0747,24.7509],[94.0781,24.7521],[94.0861,24.7963],[94.0878,24.8063],[94.0918,24.8159],[94.0965,24.8227],[94.0997,24.8305],[94.096,24.8496],[94.1002,24.8518],[94.1067,24.8517],[94.1106,24.8529],[94.1124,24.8681],[94.1143,24.8761],[94.118,24.8813],[94.1227,24.8852],[94.1275,24.8998],[94.1394,24.9111],[94.145,24.9182],[94.1429,24.9215],[94.1394,24.9248],[94.1382,24.9284],[94.1383,24.9333],[94.1369,24.9376],[94.1323,24.9385],[94.1292,24.9361],[94.1292,24.922],[94.1207,24.9162],[94.1189,24.9121],[94.1131,24.9054],[94.1066,24.9049],[94.099,24.9033],[94.0951,24.8893],[94.0894,24.885],[94.0793,24.8804],[94.0702,24.8795],[94.0651,24.8824],[94.0622,24.887],[94.0604,24.9009],[94.0684,24.9404],[94.0648,24.9409],[94.0587,24.9404],[94.0534,24.9422],[94.0542,24.9441],[94.062,24.9478],[94.0647,24.951],[94.0611,24.9538],[94.0494,24.955],[94.047,24.9573],[94.0472,24.962],[94.0487,24.9663],[94.0483,24.9729],[94.0441,24.9714],[94.04,24.9683],[94.034,24.9662],[94.0335,24.9693],[94.0345,24.9723],[94.039,24.9803],[94.0466,24.9815],[94.0445,24.987],[94.0354,24.9859],[94.0356,24.988],[94.0409,24.9947],[94.0472,24.9952],[94.0502,24.9963],[94.0472,24.9989],[94.0476,25.0001],[94.0458,25.0008],[94.0433,25.0037],[94.0417,25.0039],[94.04,25.0034],[94.0371,25.0023],[94.0319,25.0033],[94.0322,25.0042],[94.0322,25.0065],[94.034,25.0103],[94.0397,25.0102],[94.0414,25.0131],[94.0428,25.0132],[94.0447,25.0112],[94.0463,25.0107],[94.0488,25.0121],[94.0436,25.0186],[94.0413,25.019],[94.0392,25.0176],[94.0351,25.0172],[94.0324,25.0199],[94.0323,25.0263],[94.0283,25.0317],[94.0278,25.0342],[94.0311,25.0446],[94.0335,25.0476],[94.0337,25.0498],[94.0236,25.0454],[94.02,25.0413],[94.0158,25.032],[94.0183,25.0273],[94.0212,25.018],[94.0217,25.0141],[94.0204,25.0063],[94.0189,25.0041],[94.0165,25.0033],[94.0066,25.0029],[94,25],[94.0122,24.9993],[94.018,24.9974],[94.0226,24.9971],[94.0239,24.9922],[94.0196,24.9723],[94.0182,24.9544],[94.0154,24.9506],[94.0107,24.9503],[94.0072,24.9512],[94.0001,24.9556],[93.9946,24.9506],[93.9941,24.9428],[93.9843,24.9466],[93.979,24.9472],[93.9749,24.9494],[93.9734,24.9542],[93.9707,24.9562],[93.9667,24.9572],[93.9641,24.9555],[93.9562,24.9606],[93.9601,24.9538],[93.956,24.9509],[93.9655,24.9493],[93.967,24.9457],[93.9808,24.94],[93.981,24.937],[93.9838,24.9357],[93.9853,24.9335],[93.9859,24.9232],[93.9873,24.922],[93.9817,24.9166],[93.9788,24.919],[93.9774,24.9214],[93.9771,24.9303],[93.9715,24.9319],[93.9699,24.9365],[93.9644,24.9359],[93.9546,24.938],[93.9531,24.9321],[93.9559,24.9295],[93.9645,24.9291],[93.963,24.9233],[93.9616,24.9221],[93.9514,24.9187],[93.9485,24.9163],[93.9498,24.9113],[93.963,24.916],[93.9615,24.9124],[93.9482,24.9038],[93.9482,24.9025],[93.9525,24.9025],[93.954,24.9012],[93.9466,24.8962],[93.9423,24.8962],[93.9365,24.8937],[93.935,24.8962],[93.9351,24.8988],[93.9337,24.9025],[93.928,24.9038],[93.9209,24.9026],[93.9138,24.9002],[93.9196,24.9064],[93.9183,24.9115],[93.9226,24.914],[93.9228,24.9203],[93.9257,24.9228],[93.925,24.9392],[93.9262,24.9542],[93.9335,24.9603],[93.9366,24.9652],[93.9324,24.9629],[93.9301,24.9655],[93.9099,24.9444],[93.9074,24.9268],[93.8963,24.9332],[93.8896,24.9408],[93.8935,24.9522],[93.8983,24.956],[93.9058,24.9584],[93.9079,24.9635],[93.911,24.966],[93.9199,24.9697],[93.9176,24.9723],[93.9118,24.9711],[93.9108,24.9737],[93.9066,24.975],[93.9136,24.9838],[93.915,25.0003],[93.9261,25.0091],[93.9345,25.0145],[93.958,25.0267],[93.9646,25.0326],[93.9846,25.055],[93.9878,25.0641],[93.9864,25.0698],[93.9824,25.073],[93.9754,25.075],[93.9647,25.072],[93.9218,25.0553],[93.9211,25.0515],[93.9181,25.0447],[93.9163,25.0425],[93.9108,25.0403],[93.901,25.0309],[93.8932,25.018],[93.8919,25.0095],[93.8883,25.0003],[93.8724,24.9751],[93.866,24.956],[93.8479,24.9508],[93.8447,24.9432],[93.8443,24.9293],[93.8355,24.9218],[93.8325,24.9054],[93.8282,24.8903],[93.8225,24.8865],[93.8182,24.8714],[93.811,24.8689],[93.8082,24.8638],[93.8125,24.8563],[93.8096,24.8538],[93.8111,24.8449],[93.8111,24.8361],[93.7939,24.8236],[93.7881,24.8185],[93.7881,24.8085],[93.7838,24.8047],[93.7867,24.7921],[93.7895,24.7845],[93.7938,24.7782],[93.7952,24.7744],[93.7909,24.7694],[93.7938,24.7656],[93.7823,24.7468],[93.7808,24.7392],[93.7738,24.7372],[93.7737,24.7347],[93.7766,24.7309],[93.7723,24.7259],[93.7722,24.7057],[93.7693,24.6982],[93.7693,24.6919],[93.7649,24.6844],[93.7592,24.6844],[93.7564,24.6857],[93.7521,24.6819],[93.7491,24.6631],[93.7505,24.6593],[93.7519,24.648],[93.7404,24.6216],[93.7389,24.6204],[93.7245,24.5915],[93.7217,24.599],[93.7174,24.6041],[93.7003,24.6116],[93.6998,24.6203],[93.6942,24.6589],[93.6871,24.707],[93.6651,24.7928],[93.6736,24.7978],[93.6765,24.7991],[93.6793,24.7991],[93.6822,24.8028],[93.6879,24.8053],[93.6894,24.8091],[93.6922,24.8104],[93.6951,24.8141],[93.7022,24.8141],[93.7051,24.8204],[93.708,24.8191],[93.7165,24.8203],[93.7237,24.8253],[93.7237,24.8291],[93.7208,24.8341],[93.7279,24.8479],[93.7365,24.8542],[93.7307,24.863],[93.7306,24.8718],[93.7234,24.8768],[93.7205,24.8819],[93.7147,24.8857],[93.7132,24.8894],[93.7103,24.892],[93.7101,24.897],[93.7057,24.9108],[93.7114,24.9184],[93.7201,24.9259],[93.726,24.9334],[93.7348,24.9371],[93.7479,24.9409],[93.7702,24.9535],[93.7734,24.9573],[93.7807,24.9573],[93.7869,24.9611],[93.7943,24.9623],[93.8009,24.9699],[93.8019,24.9776],[93.8013,24.984],[93.796,24.9879],[93.8006,24.9917],[93.7951,24.998],[93.7951,25.0006],[93.7936,25.0069],[93.7956,25.0121],[93.7998,25.0164],[93.8045,25.018],[93.8108,25.0178],[93.8169,25.0157],[93.8197,25.0168],[93.821,25.0234],[93.8202,25.0282],[93.8181,25.034],[93.8142,25.0412],[93.8141,25.045],[93.8108,25.0503],[93.807,25.0541],[93.8041,25.0605],[93.8006,25.0769],[93.8012,25.0804],[93.7993,25.0828],[93.7996,25.0862],[93.7998,25.0987],[93.7982,25.106],[93.796,25.1123],[93.7937,25.116],[93.79,25.1208],[93.7839,25.1254],[93.7809,25.1403],[93.7776,25.1499],[93.7789,25.153],[93.7825,25.155],[93.7834,25.158],[93.7917,25.166],[93.7952,25.1662],[93.7982,25.1695],[93.7966,25.1722],[93.7973,25.1749],[93.8003,25.1753],[93.8017,25.1848],[93.8057,25.1846],[93.8137,25.1951],[93.8183,25.1993],[93.8188,25.2065],[93.8241,25.2137],[93.8304,25.2209],[93.8361,25.223],[93.8416,25.2234],[93.8459,25.2247],[93.8498,25.2271],[93.8554,25.2283],[93.8687,25.2435],[93.8808,25.2524],[93.8878,25.2567],[93.8877,25.2591],[93.8938,25.2622],[93.8953,25.2645],[93.8993,25.2678],[93.9054,25.2712],[93.9261,25.2712],[93.9309,25.2725],[93.9424,25.2783],[93.9555,25.2863],[93.9585,25.2896],[93.9498,25.29],[93.9474,25.2921],[93.9408,25.3016],[93.9367,25.3117],[93.931,25.3138],[93.9274,25.318],[93.9239,25.3245],[93.921,25.3283],[93.9089,25.3297],[93.906,25.3313],[93.8992,25.3325],[93.896,25.335],[93.8896,25.334],[93.8897,25.3371],[93.8931,25.3391],[93.8936,25.3449],[93.8921,25.3491],[93.8933,25.3507],[93.9024,25.357],[93.9039,25.3656],[93.9076,25.3685],[93.9088,25.3767],[93.9168,25.385],[93.9231,25.386],[93.9229,25.3891],[93.9238,25.3898],[93.9222,25.3966],[93.9167,25.4041],[93.9129,25.4072],[93.9078,25.4097],[93.9028,25.4164],[93.8926,25.4216],[93.8892,25.4227],[93.8804,25.4211],[93.8721,25.4214],[93.8655,25.4242],[93.8536,25.4261],[93.8426,25.4272],[93.8333,25.4269],[93.8322,25.4365],[93.8268,25.4474],[93.8252,25.4549],[93.8223,25.4605],[93.817,25.4586],[93.8118,25.459],[93.8084,25.4611],[93.8133,25.4802],[93.8071,25.4911],[93.8035,25.4945],[93.7967,25.4999],[93.788,25.502],[93.7729,25.4934],[93.7689,25.4924],[93.7653,25.4955],[93.7638,25.5111],[93.7688,25.5133],[93.7677,25.5209],[93.7685,25.5263],[93.7705,25.5316],[93.7702,25.5359],[93.7714,25.5364],[93.779,25.5336],[93.8074,25.5401],[93.8154,25.541],[93.8192,25.5399],[93.8229,25.5437],[93.8246,25.5515],[93.8328,25.5519],[93.833,25.5569],[93.836,25.5586],[93.8437,25.5572],[93.8518,25.5541],[93.8617,25.553],[93.8778,25.5574],[93.8914,25.5638],[93.8955,25.5639],[93.8997,25.5641],[93.9043,25.5628],[93.9103,25.5629],[93.9165,25.562],[93.9188,25.5593],[93.9295,25.5607],[93.9429,25.5587],[93.9431,25.5586],[93.9568,25.552],[93.9646,25.5518],[93.972,25.5564],[93.9772,25.5614],[93.9798,25.5664],[93.9999,25.569],[94.0068,25.565],[94.0097,25.5664],[94.0109,25.5679],[94.0116,25.5704],[94.0111,25.5742],[94.0072,25.5827],[94.007,25.5861],[94.0097,25.5905],[94.0141,25.5913],[94.0249,25.5885],[94.0266,25.5831],[94.0327,25.5798],[94.0342,25.5766],[94.0372,25.577],[94.0385,25.5781],[94.0383,25.5749],[94.0429,25.5725],[94.0453,25.576],[94.0534,25.5718],[94.0639,25.5614],[94.0687,25.554],[94.0793,25.5566],[94.0852,25.5547],[94.0942,25.5414],[94.0954,25.5366],[94.0917,25.5329],[94.0913,25.5276],[94.1052,25.5238],[94.1276,25.5207],[94.1378,25.5185],[94.1444,25.5224],[94.1473,25.5265],[94.151,25.5366],[94.152,25.5426],[94.1593,25.55],[94.1626,25.5447],[94.167,25.5418],[94.1787,25.5449],[94.1819,25.548],[94.1909,25.5457],[94.194,25.5471],[94.193,25.5369],[94.1892,25.5293],[94.1898,25.5255],[94.1983,25.5174],[94.2059,25.5086],[94.2059,25.5063],[94.2119,25.5028],[94.2118,25.4974],[94.2138,25.4949],[94.2189,25.4942],[94.222,25.4914],[94.2281,25.4906],[94.2307,25.4929],[94.251,25.4936],[94.2562,25.4979],[94.2659,25.4969],[94.2731,25.4975],[94.2788,25.4999],[94.2857,25.5062],[94.2897,25.504],[94.2979,25.4951],[94.3015,25.489],[94.3079,25.4882],[94.3124,25.4888],[94.3196,25.4936],[94.3279,25.5027],[94.3635,25.5158],[94.3874,25.5308],[94.4033,25.5351],[94.4097,25.5377],[94.4156,25.5361],[94.4191,25.5368],[94.4244,25.5471],[94.4252,25.5556],[94.424,25.5672],[94.4212,25.5702],[94.4245,25.5757],[94.4289,25.5869],[94.4366,25.59],[94.4431,25.5902],[94.4467,25.5922],[94.4481,25.5952],[94.4729,25.6157],[94.49,25.6139],[94.49,25.6127],[94.4923,25.6084]]]},"properties":{"district_name":"Senapati","raw_district_name":"Senapati","state_code":"MN","state_name":"Manipur","census_code":272,"data_source":"DataMeet India Maps (Census 2011 Boundaries)"}},{"type":"Feature","geometry":{"type":"Polygon","coordinates":[[[93.7003,24.6116],[93.6888,24.6092],[93.6802,24.6042],[93.6673,24.6067],[93.6616,24.6067],[93.6545,24.6017],[93.653,24.5942],[93.6501,24.5904],[93.6344,24.6043],[93.6258,24.603],[93.623,24.6005],[93.6158,24.5817],[93.6115,24.5754],[93.6072,24.5704],[93.5986,24.5692],[93.5957,24.5654],[93.59,24.5679],[93.5871,24.5742],[93.5829,24.5792],[93.5757,24.5843],[93.5714,24.5906],[93.56,24.5843],[93.5586,24.5805],[93.55,24.5805],[93.5471,24.5768],[93.5428,24.578],[93.5399,24.5705],[93.5371,24.568],[93.537,24.5567],[93.5327,24.5554],[93.5127,24.5643],[93.5084,24.5592],[93.5013,24.5542],[93.4984,24.5555],[93.4927,24.5504],[93.4841,24.5655],[93.4784,24.5693],[93.4713,24.5693],[93.4655,24.5668],[93.4541,24.5442],[93.4483,24.5379],[93.4298,24.5543],[93.4126,24.5593],[93.4069,24.5631],[93.4026,24.5681],[93.4012,24.5719],[93.3955,24.5744],[93.3897,24.5643],[93.3554,24.5731],[93.3483,24.5744],[93.3411,24.5719],[93.3368,24.5656],[93.3268,24.5656],[93.3182,24.5643],[93.3082,24.5618],[93.2882,24.5656],[93.2811,24.5631],[93.2853,24.5593],[93.2768,24.5467],[93.271,24.5442],[93.2739,24.5404],[93.2682,24.5354],[93.261,24.5228],[93.2696,24.5203],[93.2668,24.5166],[93.2668,24.509],[93.261,24.5078],[93.2539,24.5078],[93.2467,24.5128],[93.2353,24.5103],[93.2296,24.5015],[93.2224,24.4939],[93.2139,24.4977],[93.2067,24.5127],[93.1981,24.514],[93.1938,24.5203],[93.1853,24.5215],[93.1838,24.5127],[93.1781,24.5152],[93.1738,24.5152],[93.1752,24.5203],[93.1724,24.5278],[93.1781,24.5316],[93.181,24.5404],[93.1838,24.5454],[93.191,24.5504],[93.1952,24.5555],[93.1981,24.5592],[93.1981,24.5618],[93.1967,24.5643],[93.1938,24.5668],[93.1967,24.5706],[93.2024,24.568],[93.2052,24.5655],[93.2081,24.5655],[93.211,24.5668],[93.2081,24.5706],[93.2052,24.5718],[93.2081,24.5743],[93.2038,24.5768],[93.2024,24.5882],[93.2038,24.5869],[93.2124,24.5831],[93.2153,24.5844],[93.2167,24.5869],[93.2195,24.5995],[93.2167,24.6058],[93.2167,24.6108],[93.2181,24.6158],[93.2109,24.6221],[93.2124,24.6259],[93.221,24.6259],[93.2238,24.6322],[93.2238,24.6372],[93.2209,24.641],[93.2152,24.6447],[93.2152,24.651],[93.2109,24.6585],[93.2109,24.6623],[93.2138,24.6648],[93.2181,24.6623],[93.2209,24.6636],[93.2209,24.6711],[93.2066,24.6673],[93.2095,24.685],[93.2166,24.6937],[93.2181,24.6975],[93.2166,24.6963],[93.208,24.6988],[93.2066,24.7],[93.2066,24.7025],[93.1923,24.705],[93.1808,24.705],[93.1651,24.7088],[93.1479,24.7088],[93.145,24.7113],[93.1479,24.7176],[93.1493,24.7251],[93.1579,24.7427],[93.1722,24.7616],[93.1793,24.783],[93.1893,24.7842],[93.1894,24.7817],[93.1922,24.7779],[93.1951,24.7767],[93.1994,24.7767],[93.2051,24.7792],[93.208,24.783],[93.2166,24.7905],[93.2209,24.7918],[93.2237,24.7943],[93.2237,24.7993],[93.2252,24.8056],[93.2323,24.822],[93.2423,24.8408],[93.2452,24.8509],[93.2438,24.8534],[93.238,24.8534],[93.2323,24.8547],[93.2266,24.8572],[93.2137,24.8584],[93.2156,24.8612],[93.2185,24.8662],[93.2213,24.8675],[93.2242,24.8712],[93.2285,24.8737],[93.2256,24.8775],[93.2285,24.8813],[93.2328,24.8813],[93.2328,24.8813],[93.2328,24.8813],[93.2342,24.8863],[93.2299,24.8913],[93.2328,24.8914],[93.2328,24.8914],[93.2328,24.8914],[93.2328,24.8951],[93.2356,24.8989],[93.2413,24.8976],[93.2413,24.8976],[93.2413,24.8976],[93.2428,24.9002],[93.2428,24.9039],[93.2413,24.9077],[93.2384,24.9115],[93.2398,24.9127],[93.2413,24.9115],[93.2499,24.9115],[93.2499,24.9115],[93.2499,24.9115],[93.2527,24.9152],[93.2521,24.9174],[93.2496,24.9265],[93.2439,24.9265],[93.2425,24.9278],[93.2466,24.9328],[93.2479,24.9365],[93.2465,24.9365],[93.2465,24.9365],[93.245,24.9359],[93.2409,24.934],[93.2395,24.934],[93.2394,24.9353],[93.2408,24.9378],[93.2435,24.9403],[93.2464,24.9403],[93.2493,24.939],[93.2536,24.939],[93.2536,24.939],[93.2536,24.939],[93.2505,24.9428],[93.2504,24.9465],[93.2488,24.949],[93.2487,24.9515],[93.253,24.9515],[93.2589,24.9478],[93.2618,24.9478],[93.2618,24.9478],[93.2618,24.9478],[93.2603,24.9503],[93.26,24.9553],[93.2628,24.9603],[93.2627,24.9628],[93.2582,24.9691],[93.2524,24.9691],[93.2524,24.9716],[93.2538,24.9753],[93.251,24.9778],[93.2525,24.9791],[93.2527,24.9828],[93.2515,24.9852],[93.2547,24.9888],[93.2564,24.9924],[93.2565,24.9949],[93.2551,24.9961],[93.2552,24.9986],[93.2566,24.9974],[93.2609,24.9973],[93.2628,25.0007],[93.2619,25.0024],[93.2594,25.0029],[93.2575,25.0006],[93.2572,24.9999],[93.2566,24.9996],[93.256,24.9995],[93.2553,24.9997],[93.2548,25.0001],[93.2547,25.0006],[93.253,25.0028],[93.2513,25.0006],[93.2507,24.9999],[93.2501,24.9996],[93.2495,24.9994],[93.2489,24.9993],[93.2482,24.9993],[93.2476,24.9995],[93.247,24.9997],[93.2464,25.0001],[93.2462,25.0006],[93.2487,25.0096],[93.2512,25.0125],[93.2484,25.0152],[93.2534,25.0178],[93.2573,25.0182],[93.2579,25.0216],[93.2551,25.0251],[93.2594,25.0285],[93.2633,25.0323],[93.2634,25.0353],[93.2625,25.0383],[93.2679,25.0405],[93.269,25.043],[93.2673,25.0452],[93.2677,25.0461],[93.284,25.0479],[93.2864,25.0432],[93.2914,25.0435],[93.2965,25.044],[93.2988,25.0468],[93.2996,25.0489],[93.3019,25.0483],[93.3019,25.0445],[93.3041,25.0443],[93.3037,25.0524],[93.3084,25.0548],[93.3056,25.0608],[93.3083,25.0669],[93.3103,25.069],[93.3122,25.0743],[93.3219,25.0847],[93.3231,25.088],[93.329,25.0908],[93.3353,25.0921],[93.3387,25.1027],[93.34,25.1107],[93.3439,25.1124],[93.3439,25.1176],[93.346,25.1214],[93.3487,25.1217],[93.3466,25.1237],[93.3456,25.1261],[93.3484,25.1311],[93.3464,25.134],[93.3505,25.1408],[93.3481,25.1498],[93.3484,25.1535],[93.3469,25.1602],[93.3487,25.163],[93.3527,25.1781],[93.3604,25.1882],[93.3618,25.1919],[93.3681,25.1963],[93.3702,25.1998],[93.3692,25.2043],[93.3777,25.2123],[93.3791,25.217],[93.3816,25.2201],[93.3844,25.222],[93.3851,25.2248],[93.3872,25.2283],[93.3867,25.2386],[93.3883,25.2422],[93.3942,25.2465],[93.4032,25.2593],[93.406,25.2603],[93.4117,25.2596],[93.4203,25.2624],[93.4229,25.2683],[93.4229,25.2741],[93.4261,25.2772],[93.4383,25.2827],[93.4444,25.2885],[93.4516,25.2909],[93.4596,25.2908],[93.4652,25.2952],[93.4736,25.3054],[93.4747,25.2958],[93.4742,25.2885],[93.4722,25.2815],[93.4763,25.2751],[93.4829,25.2727],[93.4871,25.272],[93.4944,25.2748],[93.5039,25.2718],[93.5103,25.2716],[93.5037,25.2494],[93.5046,25.2401],[93.5079,25.2397],[93.5159,25.2407],[93.5201,25.2448],[93.5288,25.2443],[93.5407,25.2413],[93.5466,25.2444],[93.5542,25.2464],[93.5625,25.2425],[93.5695,25.2315],[93.5702,25.2283],[93.5742,25.2234],[93.5776,25.2215],[93.581,25.2219],[93.5852,25.2181],[93.5874,25.218],[93.5896,25.2158],[93.5913,25.2097],[93.5942,25.2069],[93.5922,25.2025],[93.5924,25.1997],[93.5964,25.2001],[93.6004,25.1982],[93.6036,25.2001],[93.6073,25.1978],[93.6119,25.202],[93.6205,25.2207],[93.6282,25.2315],[93.6312,25.2387],[93.6374,25.2461],[93.6425,25.2557],[93.6429,25.2616],[93.6492,25.2648],[93.6507,25.2694],[93.651,25.2747],[93.665,25.2941],[93.6641,25.2999],[93.6655,25.304],[93.6723,25.3072],[93.6733,25.313],[93.6715,25.3244],[93.6833,25.3253],[93.6865,25.3269],[93.6908,25.3431],[93.6922,25.3573],[93.6994,25.3551],[93.711,25.3537],[93.7174,25.3572],[93.7184,25.366],[93.7225,25.3712],[93.7304,25.376],[93.7392,25.38],[93.7407,25.385],[93.7395,25.3908],[93.7414,25.3955],[93.7461,25.4013],[93.7597,25.4097],[93.7638,25.4137],[93.7805,25.4202],[93.7799,25.425],[93.7839,25.4275],[93.7875,25.4314],[93.7896,25.4389],[93.7932,25.4442],[93.7978,25.4494],[93.8018,25.4559],[93.8046,25.4589],[93.8084,25.4611],[93.8118,25.459],[93.817,25.4586],[93.8223,25.4605],[93.8252,25.4549],[93.8268,25.4474],[93.8322,25.4365],[93.8333,25.4269],[93.8426,25.4272],[93.8536,25.4261],[93.8655,25.4242],[93.8721,25.4214],[93.8804,25.4211],[93.8892,25.4227],[93.8926,25.4216],[93.9028,25.4164],[93.9078,25.4097],[93.9129,25.4072],[93.9167,25.4041],[93.9222,25.3966],[93.9238,25.3898],[93.9229,25.3891],[93.9231,25.386],[93.9168,25.385],[93.9088,25.3767],[93.9076,25.3685],[93.9039,25.3656],[93.9024,25.357],[93.8933,25.3507],[93.8921,25.3491],[93.8936,25.3449],[93.8931,25.3391],[93.8897,25.3371],[93.8896,25.334],[93.896,25.335],[93.8992,25.3325],[93.906,25.3313],[93.9089,25.3297],[93.921,25.3283],[93.9239,25.3245],[93.9274,25.318],[93.931,25.3138],[93.9367,25.3117],[93.9408,25.3016],[93.9474,25.2921],[93.9498,25.29],[93.9585,25.2896],[93.9555,25.2863],[93.9424,25.2783],[93.9309,25.2725],[93.9261,25.2712],[93.9054,25.2712],[93.8993,25.2678],[93.8953,25.2645],[93.8938,25.2622],[93.8877,25.2591],[93.8878,25.2567],[93.8808,25.2524],[93.8687,25.2435],[93.8554,25.2283],[93.8498,25.2271],[93.8459,25.2247],[93.8416,25.2234],[93.8361,25.223],[93.8304,25.2209],[93.8241,25.2137],[93.8188,25.2065],[93.8183,25.1993],[93.8137,25.1951],[93.8057,25.1846],[93.8017,25.1848],[93.8003,25.1753],[93.7973,25.1749],[93.7966,25.1722],[93.7982,25.1695],[93.7952,25.1662],[93.7917,25.166],[93.7834,25.158],[93.7825,25.155],[93.7789,25.153],[93.7776,25.1499],[93.7809,25.1403],[93.7839,25.1254],[93.79,25.1208],[93.7937,25.116],[93.796,25.1123],[93.7982,25.106],[93.7998,25.0987],[93.7996,25.0862],[93.7993,25.0828],[93.8012,25.0804],[93.8006,25.0769],[93.8041,25.0605],[93.807,25.0541],[93.8108,25.0503],[93.8141,25.045],[93.8142,25.0412],[93.8181,25.034],[93.8202,25.0282],[93.821,25.0234],[93.8197,25.0168],[93.8169,25.0157],[93.8108,25.0178],[93.8045,25.018],[93.7998,25.0164],[93.7956,25.0121],[93.7936,25.0069],[93.7951,25.0006],[93.7951,24.998],[93.8006,24.9917],[93.796,24.9879],[93.8013,24.984],[93.8019,24.9776],[93.8009,24.9699],[93.7943,24.9623],[93.7869,24.9611],[93.7807,24.9573],[93.7734,24.9573],[93.7702,24.9535],[93.7479,24.9409],[93.7348,24.9371],[93.726,24.9334],[93.7201,24.9259],[93.7114,24.9184],[93.7057,24.9108],[93.7101,24.897],[93.7103,24.892],[93.7132,24.8894],[93.7147,24.8857],[93.7205,24.8819],[93.7234,24.8768],[93.7306,24.8718],[93.7307,24.863],[93.7365,24.8542],[93.7279,24.8479],[93.7208,24.8341],[93.7237,24.8291],[93.7237,24.8253],[93.7165,24.8203],[93.708,24.8191],[93.7051,24.8204],[93.7022,24.8141],[93.6951,24.8141],[93.6922,24.8104],[93.6894,24.8091],[93.6879,24.8053],[93.6822,24.8028],[93.6793,24.7991],[93.6765,24.7991],[93.6736,24.7978],[93.6651,24.7928],[93.6871,24.707],[93.6942,24.6589],[93.6998,24.6203],[93.7003,24.6116]]]},"properties":{"district_name":"Tamenglong","raw_district_name":"Tamenglong","state_code":"MN","state_name":"Manipur","census_code":273,"data_source":"DataMeet India Maps (Census 2011 Boundaries)"}},{"type":"Feature","geometry":{"type":"Polygon","coordinates":[[[94.1503,24.6181],[94.152,24.611],[94.1515,24.6032],[94.1467,24.6011],[94.1418,24.601],[94.1356,24.6021],[94.1299,24.6041],[94.1235,24.6051],[94.1203,24.6022],[94.1215,24.598],[94.1193,24.5908],[94.1088,24.5764],[94.1023,24.5593],[94.0975,24.5534],[94.0921,24.5518],[94.0814,24.5619],[94.0741,24.5631],[94.0724,24.5543],[94.0757,24.5407],[94.0894,24.5175],[94.0842,24.5153],[94.0728,24.5165],[94.0673,24.5158],[94.0653,24.5213],[94.0626,24.5169],[94.058,24.5123],[94.0545,24.5168],[94.0539,24.5221],[94.0554,24.5244],[94.0591,24.5275],[94.0588,24.5302],[94.0541,24.5282],[94.0488,24.5332],[94.0409,24.5378],[94.041,24.5229],[94.0364,24.5019],[94.0367,24.5011],[94.0509,24.4697],[94.0384,24.4548],[94.0222,24.4438],[94.0126,24.4415],[94.0052,24.4409],[94.0031,24.4457],[94.0033,24.46],[93.9999,24.4631],[93.9856,24.4677],[93.9841,24.482],[93.9799,24.4872],[93.977,24.4871],[93.9727,24.4857],[93.9712,24.4845],[93.9712,24.4708],[93.9726,24.4628],[93.9769,24.4534],[93.9782,24.4468],[93.9737,24.4294],[93.9664,24.4182],[93.9678,24.409],[93.9663,24.4064],[93.9634,24.4051],[93.9577,24.4076],[93.952,24.4075],[93.9477,24.4037],[93.9462,24.3999],[93.9476,24.3961],[93.9476,24.3923],[93.9376,24.3935],[93.929,24.386],[93.9261,24.3747],[93.9189,24.3685],[93.916,24.356],[93.9131,24.3497],[93.9116,24.3372],[93.9159,24.3285],[93.9244,24.3209],[93.9329,24.3084],[93.94,24.2946],[93.94,24.2897],[93.9371,24.2885],[93.9343,24.2836],[93.9272,24.2788],[93.9216,24.2801],[93.9201,24.2776],[93.923,24.2703],[93.9216,24.2616],[93.9173,24.259],[93.9116,24.2615],[93.9114,24.2488],[93.8984,24.2461],[93.8926,24.2384],[93.8854,24.2359],[93.8841,24.241],[93.8829,24.2651],[93.8874,24.2779],[93.886,24.283],[93.8803,24.2856],[93.8703,24.3028],[93.8702,24.3077],[93.8659,24.3102],[93.8573,24.3101],[93.8545,24.3114],[93.8573,24.3176],[93.8559,24.3263],[93.8616,24.3238],[93.8616,24.33],[93.8645,24.3337],[93.8545,24.3413],[93.8588,24.3475],[93.8631,24.3512],[93.8603,24.355],[93.8574,24.3525],[93.8517,24.35],[93.8517,24.355],[93.8546,24.3575],[93.8546,24.3613],[93.8503,24.3626],[93.849,24.3751],[93.8519,24.3776],[93.8519,24.3789],[93.849,24.3827],[93.8491,24.3952],[93.8477,24.399],[93.8434,24.4028],[93.842,24.4078],[93.8435,24.4103],[93.8492,24.4115],[93.8407,24.4229],[93.8407,24.4279],[93.8464,24.4329],[93.8507,24.4329],[93.8536,24.4391],[93.8565,24.4416],[93.8565,24.4492],[93.8594,24.4517],[93.8594,24.4542],[93.8566,24.4567],[93.8609,24.4592],[93.8652,24.4604],[93.8738,24.4692],[93.8753,24.4742],[93.8796,24.4818],[93.8825,24.4843],[93.8839,24.4881],[93.8825,24.4919],[93.8754,24.4983],[93.8798,24.5008],[93.8812,24.5059],[93.877,24.5072],[93.8771,24.5174],[93.8742,24.5187],[93.8713,24.5174],[93.8699,24.52],[93.8701,24.5257],[93.8701,24.538],[93.876,24.5521],[93.8902,24.5532],[93.896,24.5545],[93.9017,24.557],[93.9075,24.5619],[93.9118,24.5693],[93.9132,24.5791],[93.9075,24.5903],[93.9118,24.5902],[93.9118,24.5989],[93.9133,24.6064],[93.9119,24.6101],[93.9076,24.6114],[93.9004,24.6065],[93.8919,24.614],[93.9005,24.6177],[93.9006,24.6278],[93.9049,24.6315],[93.9106,24.6353],[93.9207,24.6365],[93.9279,24.6516],[93.9322,24.6503],[93.9351,24.6453],[93.9352,24.6617],[93.928,24.6605],[93.9266,24.6617],[93.9166,24.663],[93.9152,24.6656],[93.918,24.6694],[93.9181,24.6719],[93.9095,24.6719],[93.9052,24.6745],[93.9067,24.677],[93.9095,24.6795],[93.9067,24.6871],[93.9082,24.6909],[93.9082,24.6948],[93.9068,24.6998],[93.9125,24.6986],[93.9183,24.7037],[93.9268,24.7025],[93.9269,24.7076],[93.9297,24.7127],[93.9383,24.7127],[93.9426,24.7152],[93.9441,24.7177],[93.9469,24.7114],[93.9469,24.7089],[93.9597,24.7074],[93.9682,24.7046],[93.9696,24.7108],[93.9738,24.7119],[93.9723,24.7195],[93.9737,24.7231],[93.9818,24.7253],[93.9957,24.7274],[94,24.7274],[94.0043,24.7242],[94.004,24.7139],[94.0077,24.7085],[94.0142,24.7042],[94.0177,24.7003],[94.0176,24.6951],[94.0101,24.686],[94.0156,24.682],[94.0178,24.6705],[94.0199,24.6667],[94.0233,24.6666],[94.0252,24.6724],[94.0294,24.6714],[94.0334,24.6724],[94.0326,24.6773],[94.0347,24.675],[94.0354,24.6724],[94.0419,24.6762],[94.0414,24.6719],[94.0472,24.674],[94.0467,24.6804],[94.0587,24.6794],[94.0599,24.6837],[94.0616,24.6854],[94.0757,24.6845],[94.0756,24.6875],[94.0794,24.6872],[94.0809,24.686],[94.0818,24.6887],[94.0858,24.687],[94.0872,24.6926],[94.0945,24.6919],[94.1052,24.6984],[94.1118,24.7],[94.1179,24.7041],[94.1212,24.7079],[94.1228,24.7119],[94.1231,24.7164],[94.1294,24.7231],[94.1309,24.7185],[94.1317,24.7096],[94.1354,24.7066],[94.1309,24.7048],[94.1289,24.7018],[94.131,24.6983],[94.127,24.697],[94.1241,24.7002],[94.1195,24.6997],[94.1176,24.6961],[94.1248,24.6946],[94.131,24.6923],[94.1318,24.6887],[94.1263,24.6827],[94.1233,24.6825],[94.1215,24.6811],[94.1229,24.6786],[94.1192,24.6765],[94.1149,24.6789],[94.1097,24.6767],[94.1055,24.6741],[94.1014,24.6688],[94.1065,24.6612],[94.1096,24.659],[94.1123,24.653],[94.115,24.6495],[94.1118,24.649],[94.115,24.6373],[94.119,24.6314],[94.1256,24.625],[94.1329,24.6209],[94.1503,24.6181]]]},"properties":{"district_name":"Thoubal","raw_district_name":"Thoubal","state_code":"MN","state_name":"Manipur","census_code":276,"data_source":"DataMeet India Maps (Census 2011 Boundaries)"}},{"type":"Feature","geometry":{"type":"Polygon","coordinates":[[[94.6808,25.4532],[94.6805,25.4439],[94.678,25.4358],[94.6775,25.4264],[94.6765,25.42],[94.6746,25.414],[94.6722,25.4096],[94.6693,25.406],[94.6546,25.4024],[94.6476,25.3998],[94.6428,25.3951],[94.6387,25.3857],[94.6356,25.3739],[94.636,25.3683],[94.6358,25.3611],[94.6343,25.3526],[94.6321,25.349],[94.6294,25.3441],[94.6266,25.3402],[94.6225,25.3331],[94.6199,25.3296],[94.6173,25.3254],[94.6135,25.3187],[94.6115,25.3155],[94.6079,25.307],[94.6002,25.2922],[94.597,25.2826],[94.5971,25.2746],[94.5964,25.2681],[94.5975,25.2604],[94.5954,25.2505],[94.5918,25.2397],[94.5901,25.2309],[94.587,25.2234],[94.5848,25.2185],[94.5836,25.2092],[94.5903,25.1989],[94.5957,25.1935],[94.5998,25.1886],[94.607,25.1845],[94.6113,25.1829],[94.6155,25.1832],[94.6208,25.1847],[94.629,25.1837],[94.632,25.1805],[94.6362,25.1749],[94.6416,25.1698],[94.6459,25.1677],[94.6557,25.1657],[94.665,25.1614],[94.6755,25.1582],[94.6792,25.1545],[94.6852,25.151],[94.6917,25.1527],[94.6966,25.1538],[94.7015,25.1529],[94.7062,25.147],[94.7116,25.143],[94.7268,25.1368],[94.7338,25.1359],[94.7399,25.1324],[94.7436,25.1296],[94.7431,25.1198],[94.7436,25.1117],[94.7432,25.1042],[94.7434,25.0946],[94.746,25.0829],[94.7476,25.0729],[94.7488,25.0684],[94.7485,25.0636],[94.7485,25.0564],[94.7471,25.0509],[94.7455,25.0422],[94.7435,25.0374],[94.7428,25.0324],[94.7408,25.023],[94.74,25.0182],[94.7372,25.0134],[94.733,25.0056],[94.7239,24.9943],[94.711,24.9867],[94.7036,24.9766],[94.7009,24.9713],[94.6997,24.9614],[94.7016,24.9565],[94.7035,24.9526],[94.7069,24.9488],[94.7113,24.9459],[94.7149,24.9394],[94.7168,24.9354],[94.7124,24.9325],[94.7036,24.9272],[94.6992,24.9205],[94.6907,24.9009],[94.6898,24.8928],[94.6866,24.888],[94.6774,24.8799],[94.6697,24.8752],[94.6593,24.8705],[94.6545,24.8666],[94.6556,24.8602],[94.6538,24.8559],[94.6458,24.8481],[94.6389,24.8418],[94.6355,24.8354],[94.6325,24.8224],[94.6331,24.8161],[94.6324,24.8078],[94.6301,24.804],[94.625,24.7974],[94.6225,24.7889],[94.623,24.7779],[94.6272,24.7703],[94.6306,24.7659],[94.6309,24.758],[94.6226,24.7471],[94.6188,24.7424],[94.6153,24.7371],[94.61,24.7266],[94.6089,24.7227],[94.6084,24.7152],[94.5969,24.7084],[94.5886,24.7041],[94.5821,24.708],[94.5841,24.7155],[94.5834,24.7232],[94.5793,24.7245],[94.5752,24.7234],[94.5722,24.7188],[94.571,24.7152],[94.573,24.7117],[94.5742,24.7052],[94.5682,24.7048],[94.565,24.7071],[94.5601,24.7115],[94.5543,24.7124],[94.5486,24.7098],[94.5442,24.7007],[94.5484,24.6928],[94.5506,24.686],[94.5483,24.6681],[94.5447,24.6597],[94.5382,24.6422],[94.529,24.6256],[94.5183,24.6101],[94.5051,24.5948],[94.5,24.5897],[94.4958,24.5861],[94.4874,24.5825],[94.4829,24.5756],[94.4758,24.5724],[94.4701,24.5713],[94.4631,24.569],[94.4571,24.5602],[94.4534,24.5487],[94.4477,24.5362],[94.443,24.5249],[94.438,24.5139],[94.4341,24.5094],[94.4327,24.5045],[94.4299,24.4977],[94.4271,24.4868],[94.4191,24.484],[94.4065,24.4831],[94.4042,24.4857],[94.3995,24.4867],[94.3962,24.4842],[94.39,24.4896],[94.3883,24.4927],[94.386,24.4944],[94.3843,24.4969],[94.3802,24.4968],[94.3785,24.4979],[94.3823,24.5011],[94.3826,24.5038],[94.3791,24.5043],[94.3798,24.5073],[94.3759,24.5085],[94.3767,24.5106],[94.38,24.5091],[94.3807,24.5112],[94.38,24.5142],[94.3714,24.5128],[94.3741,24.5157],[94.373,24.5179],[94.3665,24.5186],[94.3641,24.5206],[94.3673,24.5231],[94.3669,24.5294],[94.3705,24.5318],[94.3728,24.5357],[94.3734,24.5391],[94.3728,24.5415],[94.3752,24.5446],[94.3755,24.5467],[94.374,24.5497],[94.364,24.5505],[94.3619,24.5487],[94.3567,24.5484],[94.3544,24.5525],[94.351,24.5527],[94.3364,24.5486],[94.3334,24.5518],[94.3366,24.5548],[94.3341,24.5616],[94.3373,24.5632],[94.3349,24.5644],[94.3311,24.5651],[94.3293,24.5695],[94.3179,24.5715],[94.3138,24.5735],[94.3126,24.5776],[94.3079,24.5826],[94.2966,24.5878],[94.2931,24.5936],[94.2855,24.601],[94.2713,24.5958],[94.2637,24.6035],[94.2599,24.6096],[94.2546,24.6155],[94.2519,24.6163],[94.2354,24.6166],[94.2281,24.6186],[94.2199,24.6189],[94.2158,24.6217],[94.208,24.6241],[94.2035,24.6261],[94.2025,24.633],[94.2026,24.6401],[94.2004,24.6543],[94.1921,24.6609],[94.1857,24.6708],[94.191,24.684],[94.1916,24.6924],[94.191,24.7129],[94.1887,24.7198],[94.1767,24.7346],[94.1778,24.738],[94.1823,24.7444],[94.1837,24.7518],[94.1805,24.7558],[94.1848,24.7603],[94.184,24.7656],[94.1774,24.7761],[94.1691,24.7834],[94.1629,24.7972],[94.1582,24.7986],[94.147,24.7989],[94.1426,24.7999],[94.1397,24.8025],[94.1376,24.8042],[94.1375,24.8047],[94.1417,24.8068],[94.1426,24.8107],[94.1482,24.8186],[94.1471,24.8287],[94.1503,24.8291],[94.1525,24.827],[94.1539,24.8292],[94.1523,24.8319],[94.1545,24.8334],[94.1539,24.8354],[94.1498,24.839],[94.1529,24.8403],[94.1529,24.8422],[94.1502,24.8455],[94.1473,24.8477],[94.1481,24.8531],[94.1448,24.856],[94.1437,24.8591],[94.1455,24.8608],[94.1477,24.8613],[94.1499,24.8715],[94.147,24.8719],[94.1481,24.8741],[94.1501,24.8752],[94.1541,24.8743],[94.1555,24.8837],[94.1617,24.8855],[94.1631,24.8873],[94.1623,24.891],[94.1631,24.8958],[94.1647,24.8971],[94.1654,24.8999],[94.1631,24.9028],[94.1662,24.9124],[94.1648,24.9153],[94.1655,24.9169],[94.171,24.9177],[94.1729,24.9209],[94.1736,24.9255],[94.1721,24.9283],[94.1733,24.9324],[94.173,24.9347],[94.1719,24.9365],[94.1723,24.9384],[94.1742,24.938],[94.1759,24.9385],[94.1762,24.9407],[94.17,24.9445],[94.1664,24.9534],[94.1643,24.9648],[94.1541,24.991],[94.1489,25.0004],[94.1526,25.0232],[94.151,25.0268],[94.1496,25.0349],[94.1412,25.0483],[94.1293,25.0528],[94.1276,25.0571],[94.1273,25.0599],[94.1244,25.064],[94.1219,25.0658],[94.1208,25.0691],[94.1221,25.076],[94.1246,25.0789],[94.1238,25.0857],[94.125,25.0908],[94.1277,25.0934],[94.1308,25.1003],[94.1317,25.112],[94.1349,25.1133],[94.1359,25.1153],[94.1359,25.1176],[94.14,25.1192],[94.1488,25.1258],[94.1515,25.133],[94.1564,25.1324],[94.1581,25.1361],[94.1619,25.1335],[94.1653,25.1357],[94.1627,25.1395],[94.1634,25.1432],[94.1675,25.1412],[94.1706,25.1476],[94.1744,25.1519],[94.1773,25.1525],[94.1763,25.1585],[94.1807,25.1607],[94.1846,25.1605],[94.1832,25.1633],[94.1827,25.1666],[94.1849,25.1678],[94.1919,25.1715],[94.1958,25.1761],[94.208,25.1759],[94.2158,25.1781],[94.222,25.182],[94.2243,25.1893],[94.2287,25.1954],[94.2361,25.1977],[94.2461,25.2032],[94.2513,25.2089],[94.2553,25.2168],[94.2569,25.2236],[94.2587,25.2277],[94.2643,25.2309],[94.2847,25.2388],[94.2989,25.249],[94.3113,25.2625],[94.3151,25.2649],[94.3169,25.2673],[94.3263,25.2783],[94.3293,25.2846],[94.331,25.2929],[94.3392,25.3074],[94.3429,25.3108],[94.3479,25.314],[94.352,25.3233],[94.3576,25.3317],[94.3589,25.3355],[94.3623,25.3396],[94.3701,25.348],[94.3774,25.3531],[94.3806,25.3572],[94.3793,25.3599],[94.3813,25.3653],[94.3784,25.3687],[94.3774,25.3767],[94.378,25.3878],[94.3789,25.3915],[94.3816,25.3966],[94.3863,25.403],[94.3824,25.4081],[94.3889,25.4171],[94.386,25.4211],[94.3878,25.4229],[94.3908,25.4233],[94.3937,25.4223],[94.397,25.4291],[94.404,25.4403],[94.4055,25.4482],[94.4113,25.4553],[94.4221,25.4664],[94.4193,25.4712],[94.4231,25.4812],[94.4277,25.4896],[94.433,25.5094],[94.4353,25.5133],[94.4384,25.5158],[94.4386,25.5188],[94.4411,25.5215],[94.443,25.5267],[94.4492,25.5364],[94.464,25.5545],[94.4668,25.5706],[94.4702,25.5825],[94.476,25.5881],[94.4865,25.5961],[94.493,25.607],[94.4923,25.6084],[94.4981,25.6105],[94.4988,25.6128],[94.5007,25.6141],[94.5042,25.611],[94.5066,25.613],[94.5075,25.6209],[94.5097,25.6239],[94.5133,25.6245],[94.523,25.6374],[94.527,25.6383],[94.5295,25.6366],[94.5304,25.6441],[94.5384,25.6451],[94.5436,25.6515],[94.5506,25.6564],[94.5511,25.6614],[94.5639,25.6748],[94.5669,25.6862],[94.5719,25.6916],[94.5775,25.6899],[94.5818,25.6871],[94.5859,25.6858],[94.5944,25.6852],[94.5958,25.6808],[94.5888,25.6751],[94.5869,25.6711],[94.5841,25.6687],[94.5862,25.6657],[94.5844,25.6639],[94.5822,25.6591],[94.584,25.6556],[94.5808,25.6545],[94.5801,25.6513],[94.5756,25.6467],[94.576,25.6422],[94.5749,25.6386],[94.5857,25.6404],[94.5939,25.6377],[94.5933,25.6365],[94.5893,25.6341],[94.5825,25.6283],[94.5773,25.6201],[94.5757,25.6142],[94.5716,25.6052],[94.5674,25.6016],[94.5657,25.598],[94.5639,25.5965],[94.5583,25.588],[94.5544,25.5797],[94.5602,25.5722],[94.5591,25.5618],[94.5633,25.5618],[94.5601,25.5543],[94.5616,25.5433],[94.5585,25.5395],[94.5621,25.5335],[94.5569,25.5287],[94.5599,25.5245],[94.5576,25.5182],[94.556,25.5066],[94.5668,25.5004],[94.5732,25.499],[94.5836,25.4906],[94.5858,25.4862],[94.5894,25.4835],[94.5934,25.4818],[94.5959,25.4799],[94.606,25.4761],[94.6238,25.4627],[94.6314,25.4592],[94.6467,25.4552],[94.6549,25.4521],[94.6572,25.4506],[94.6644,25.4489],[94.6682,25.4488],[94.6808,25.4532]]]},"properties":{"district_name":"Ukhrul","raw_district_name":"Ukhrul","state_code":"MN","state_name":"Manipur","census_code":279,"data_source":"DataMeet India Maps (Census 2011 Boundaries)"}}]}