{"type":"FeatureCollection","properties":{"state_code":"MZ","state_name":"Mizoram","data_source":"DataMeet India Maps"},"features":[{"type":"Feature","geometry":{"type":"Polygon","coordinates":[[[92.9875,24.4045],[92.9911,24.4024],[92.9945,24.3988],[92.9972,24.3984],[92.9996,24.4001],[93.0234,24.3873],[93.0162,24.3768],[93.0212,24.371],[93.0192,24.3628],[93.0184,24.3557],[93.0206,24.3436],[93.0308,24.3413],[93.0424,24.3402],[93.0343,24.3152],[93.0229,24.2976],[93.0172,24.29],[93.0101,24.2849],[93.0072,24.2773],[93.0129,24.2685],[93.0058,24.2596],[93.0057,24.2508],[93.017,24.2332],[93.0255,24.2294],[93.0184,24.2257],[93.0184,24.2219],[93.0226,24.2144],[93.0212,24.2069],[93.0169,24.2044],[93.0156,24.1969],[93.0113,24.1944],[93.002,24.1944],[93.002,24.1912],[93.0098,24.1791],[93.0022,24.1709],[93.0044,24.1575],[92.9996,24.1536],[92.992,24.1501],[92.9901,24.1472],[92.9898,24.1437],[92.9918,24.1373],[92.985,24.1258],[92.9765,24.1233],[92.9725,24.1208],[92.9738,24.1139],[92.9753,24.1118],[92.9837,24.1117],[92.9882,24.1132],[92.9996,24.1121],[93.0085,24.1068],[93.013,24.1014],[93.0203,24.0983],[93.0261,24.1005],[93.0291,24.0976],[93.0335,24.096],[93.0365,24.092],[93.0525,24.0874],[93.064,24.091],[93.0725,24.0972],[93.0783,24.0997],[93.084,24.087],[93.0882,24.0807],[93.0939,24.077],[93.101,24.0707],[93.0996,24.0631],[93.101,24.0593],[93.0996,24.053],[93.1025,24.0493],[93.0982,24.0455],[93.0996,24.0417],[93.1096,24.0468],[93.111,24.0518],[93.1181,24.0531],[93.1195,24.0569],[93.128,24.0607],[93.1337,24.0695],[93.1338,24.0758],[93.1409,24.0834],[93.1466,24.0846],[93.1571,24.0804],[93.16,24.0741],[93.1685,24.0678],[93.1656,24.0577],[93.1684,24.0515],[93.1741,24.0502],[93.1926,24.0527],[93.1968,24.049],[93.2072,24.0475],[93.1947,24.0141],[93.1715,23.94],[93.189,23.9072],[93.1615,23.8827],[93.1651,23.84],[93.1498,23.8105],[93.1251,23.7985],[93.0752,23.7743],[93.0444,23.7656],[93.045,23.7075],[93.0458,23.6534],[93.0569,23.5556],[93.0448,23.4757],[93.0595,23.4164],[93.0446,23.4107],[93.0362,23.4178],[93.0191,23.434],[92.9719,23.4776],[92.9476,23.5141],[92.9199,23.5227],[92.9136,23.5221],[92.8809,23.5187],[92.8523,23.4803],[92.8392,23.4276],[92.834,23.4166],[92.82,23.386],[92.812,23.368],[92.8312,23.3349],[92.8536,23.3226],[92.8275,23.2987],[92.8126,23.2729],[92.7912,23.2758],[92.7812,23.2995],[92.7657,23.3026],[92.7566,23.3046],[92.7362,23.3136],[92.7121,23.2979],[92.702,23.2969],[92.6916,23.3226],[92.6893,23.328],[92.6897,23.329],[92.6894,23.3298],[92.6898,23.3387],[92.6904,23.3416],[92.6893,23.3439],[92.6901,23.3529],[92.6906,23.3548],[92.6884,23.3585],[92.6875,23.3631],[92.6847,23.3671],[92.675,23.3685],[92.6787,23.3712],[92.6791,23.3727],[92.6784,23.3788],[92.6727,23.3827],[92.6675,23.3907],[92.6696,23.4016],[92.6662,23.4118],[92.6593,23.4218],[92.6581,23.4315],[92.6586,23.4406],[92.658,23.4556],[92.6585,23.4667],[92.6578,23.4785],[92.6575,23.4892],[92.661,23.4972],[92.6593,23.5036],[92.6568,23.5084],[92.6545,23.5181],[92.6466,23.5193],[92.6404,23.5217],[92.6351,23.5336],[92.638,23.5395],[92.6438,23.5412],[92.6449,23.5476],[92.6482,23.5532],[92.6568,23.5542],[92.6588,23.5598],[92.6604,23.5703],[92.654,23.5768],[92.6521,23.5845],[92.6518,23.5899],[92.6567,23.5934],[92.6643,23.595],[92.6719,23.6],[92.6749,23.6091],[92.6743,23.6144],[92.6753,23.6231],[92.6691,23.6265],[92.6583,23.6287],[92.6524,23.6303],[92.6525,23.6352],[92.6457,23.6395],[92.6407,23.6426],[92.6371,23.6474],[92.637,23.6584],[92.6477,23.668],[92.6525,23.677],[92.6564,23.682],[92.6606,23.6901],[92.6676,23.7073],[92.6635,23.7111],[92.6575,23.7114],[92.6521,23.7141],[92.6485,23.7198],[92.6439,23.7282],[92.6417,23.7342],[92.6392,23.7386],[92.6377,23.7474],[92.6357,23.7584],[92.6296,23.7624],[92.6349,23.7676],[92.6404,23.772],[92.6424,23.7853],[92.6395,23.793],[92.6299,23.7929],[92.6252,23.7965],[92.6295,23.8019],[92.6332,23.8079],[92.6381,23.8156],[92.6429,23.8117],[92.6511,23.8112],[92.6561,23.8183],[92.6462,23.8199],[92.6466,23.8276],[92.652,23.8307],[92.6613,23.8321],[92.6624,23.8371],[92.6541,23.8478],[92.6511,23.8539],[92.6476,23.8635],[92.6432,23.8723],[92.6431,23.8805],[92.6413,23.8858],[92.6413,23.892],[92.6454,23.896],[92.6594,23.9013],[92.663,23.9083],[92.6579,23.9199],[92.6464,23.9222],[92.6447,23.9294],[92.6368,23.9317],[92.623,23.9352],[92.6252,23.9411],[92.6302,23.9449],[92.6275,23.9537],[92.6274,23.9538],[92.6275,23.9537],[92.6317,23.9556],[92.6352,23.9562],[92.6353,23.9563],[92.6357,23.9567],[92.6413,23.9632],[92.6435,23.9645],[92.6436,23.9645],[92.6446,23.9642],[92.646,23.96],[92.6461,23.96],[92.6479,23.9579],[92.6509,23.9565],[92.6554,23.9558],[92.6589,23.9568],[92.6589,23.9568],[92.6592,23.957],[92.6641,23.9613],[92.6658,23.9633],[92.6658,23.9634],[92.6671,23.9678],[92.6686,23.9696],[92.6708,23.9703],[92.6708,23.9703],[92.6709,23.9703],[92.6745,23.9701],[92.6787,23.9682],[92.6808,23.9672],[92.6839,23.9668],[92.6839,23.9668],[92.6839,23.9668],[92.6856,23.9706],[92.6856,23.9706],[92.6873,23.9746],[92.689,23.98],[92.689,23.9801],[92.689,23.9825],[92.6916,23.9823],[92.6922,23.9813],[92.6924,23.9814],[92.6926,23.9814],[92.6949,23.9824],[92.6967,23.9819],[92.6974,23.9818],[92.6988,23.9822],[92.6997,23.9812],[92.7038,23.9822],[92.7039,23.9822],[92.7049,23.9814],[92.7091,23.9781],[92.7094,23.9782],[92.7135,23.9797],[92.7166,23.9798],[92.7166,23.9797],[92.7201,23.9754],[92.7237,23.975],[92.7398,23.9789],[92.7449,23.9824],[92.7461,23.9842],[92.7463,23.9876],[92.7445,23.9886],[92.7445,23.9886],[92.7444,23.9923],[92.7444,23.9923],[92.7456,23.993],[92.7479,23.9928],[92.7479,23.9928],[92.7551,23.9893],[92.7574,23.9897],[92.7587,23.9908],[92.7592,23.9924],[92.7593,23.9929],[92.7593,23.993],[92.7587,23.9985],[92.7587,23.9986],[92.7593,24.0002],[92.7637,24.0044],[92.7715,24.0118],[92.779,24.0157],[92.7836,24.0174],[92.7849,24.0179],[92.785,24.0179],[92.7906,24.0187],[92.8012,24.0178],[92.8058,24.0183],[92.8061,24.0183],[92.8061,24.0183],[92.8104,24.0202],[92.8119,24.0219],[92.8132,24.0221],[92.8176,24.0227],[92.8213,24.0214],[92.8228,24.0208],[92.8281,24.0166],[92.8299,24.0137],[92.8322,24.0126],[92.8327,24.0139],[92.8326,24.014],[92.8317,24.0186],[92.8317,24.0186],[92.8318,24.0187],[92.8327,24.0204],[92.8361,24.022],[92.8361,24.0219],[92.8389,24.0151],[92.8409,24.0139],[92.8413,24.0153],[92.8438,24.0247],[92.8473,24.0267],[92.8474,24.0268],[92.8473,24.0269],[92.8453,24.0341],[92.8453,24.0341],[92.8453,24.0341],[92.8453,24.0341],[92.8481,24.0336],[92.8493,24.034],[92.8502,24.0359],[92.8502,24.0386],[92.8501,24.0446],[92.8479,24.0454],[92.8479,24.0455],[92.8476,24.0468],[92.8476,24.0469],[92.8491,24.0503],[92.8491,24.0503],[92.8491,24.0504],[92.8484,24.0531],[92.8479,24.0551],[92.8479,24.0551],[92.8497,24.0598],[92.8497,24.0598],[92.8486,24.0625],[92.8486,24.0626],[92.8507,24.065],[92.8513,24.0654],[92.8513,24.0654],[92.8513,24.0654],[92.8521,24.0703],[92.8566,24.0713],[92.8566,24.0714],[92.8568,24.075],[92.8569,24.0756],[92.8571,24.0793],[92.8588,24.0845],[92.8597,24.0874],[92.8597,24.0874],[92.8565,24.0939],[92.8566,24.0939],[92.857,24.0948],[92.8588,24.0953],[92.8588,24.0954],[92.8584,24.0991],[92.8584,24.0991],[92.8601,24.0986],[92.8606,24.0997],[92.8607,24.102],[92.8608,24.104],[92.8609,24.1053],[92.8609,24.1053],[92.8618,24.1063],[92.866,24.1073],[92.8691,24.1098],[92.8703,24.1107],[92.8707,24.1162],[92.8697,24.1197],[92.8697,24.1197],[92.8696,24.1199],[92.8697,24.12],[92.8719,24.1222],[92.8742,24.1243],[92.8742,24.1244],[92.876,24.1273],[92.8789,24.1288],[92.8789,24.1288],[92.8789,24.1288],[92.8788,24.129],[92.8746,24.1351],[92.8747,24.1389],[92.8747,24.1389],[92.8747,24.1389],[92.8748,24.1391],[92.8748,24.1391],[92.8768,24.1435],[92.8796,24.1469],[92.8841,24.15],[92.8842,24.1502],[92.8859,24.153],[92.8863,24.1554],[92.8863,24.1554],[92.8863,24.1554],[92.8848,24.1577],[92.8849,24.1578],[92.8855,24.1589],[92.8876,24.16],[92.8877,24.16],[92.8886,24.1652],[92.8886,24.1652],[92.8882,24.1673],[92.8871,24.1672],[92.8857,24.1671],[92.8853,24.168],[92.8854,24.168],[92.887,24.1683],[92.8874,24.1686],[92.8919,24.1709],[92.8944,24.1713],[92.8947,24.1724],[92.8949,24.1732],[92.8949,24.1732],[92.8949,24.1733],[92.8947,24.1837],[92.8959,24.188],[92.8965,24.1901],[92.8949,24.199],[92.895,24.199],[92.8975,24.1992],[92.8975,24.1992],[92.8975,24.1992],[92.8975,24.1993],[92.8964,24.2021],[92.8964,24.2022],[92.8999,24.2034],[92.9,24.2034],[92.9004,24.2044],[92.9005,24.2045],[92.9005,24.2045],[92.9005,24.2046],[92.9003,24.2064],[92.8996,24.2069],[92.8994,24.2071],[92.8995,24.2072],[92.8995,24.2073],[92.9009,24.2093],[92.9008,24.2094],[92.9007,24.2103],[92.8985,24.2101],[92.8982,24.2101],[92.8982,24.2102],[92.8984,24.2105],[92.8995,24.2127],[92.9013,24.2164],[92.9014,24.2164],[92.9017,24.2178],[92.9025,24.2212],[92.9026,24.2215],[92.9026,24.2215],[92.9026,24.2216],[92.9017,24.2311],[92.9015,24.2314],[92.8992,24.2357],[92.8963,24.2372],[92.8962,24.2372],[92.8961,24.2373],[92.8932,24.242],[92.8909,24.242],[92.8908,24.242],[92.8908,24.242],[92.8875,24.2357],[92.8837,24.2323],[92.881,24.2332],[92.879,24.2369],[92.8789,24.237],[92.8763,24.2397],[92.8755,24.2406],[92.8659,24.2409],[92.8634,24.2412],[92.863,24.2424],[92.863,24.2424],[92.8631,24.2425],[92.8646,24.244],[92.8646,24.2441],[92.8633,24.2484],[92.8633,24.2484],[92.8674,24.2502],[92.8673,24.2503],[92.8653,24.2536],[92.8653,24.2536],[92.8653,24.2537],[92.8659,24.2569],[92.864,24.257],[92.8624,24.2571],[92.862,24.2578],[92.862,24.2578],[92.863,24.2598],[92.863,24.2598],[92.8674,24.2613],[92.8673,24.2614],[92.8643,24.2645],[92.8643,24.2646],[92.8643,24.2691],[92.8643,24.2691],[92.8668,24.2723],[92.867,24.2725],[92.8698,24.276],[92.8711,24.2763],[92.8726,24.2767],[92.8745,24.276],[92.8764,24.2763],[92.8764,24.2764],[92.8764,24.2775],[92.8764,24.2775],[92.8764,24.2776],[92.8751,24.2795],[92.8736,24.2818],[92.8736,24.2819],[92.8736,24.2819],[92.8758,24.286],[92.8758,24.286],[92.8731,24.2893],[92.8727,24.291],[92.872,24.2951],[92.8719,24.2952],[92.8706,24.298],[92.8672,24.2992],[92.8671,24.2993],[92.867,24.2995],[92.8647,24.3075],[92.8632,24.3079],[92.8619,24.3073],[92.8595,24.3062],[92.8575,24.3078],[92.8576,24.3079],[92.8611,24.3138],[92.8641,24.3154],[92.8644,24.3155],[92.8692,24.3167],[92.8699,24.3201],[92.8667,24.3199],[92.8651,24.3231],[92.8628,24.3241],[92.8629,24.3242],[92.8642,24.3273],[92.8655,24.3256],[92.8656,24.3256],[92.8673,24.326],[92.8707,24.3287],[92.8707,24.3287],[92.8742,24.3298],[92.8775,24.333],[92.8776,24.3331],[92.8791,24.337],[92.8814,24.3405],[92.888,24.3509],[92.888,24.3509],[92.8936,24.3554],[92.8935,24.3554],[92.8904,24.3564],[92.8886,24.3608],[92.8867,24.3628],[92.8868,24.3629],[92.8895,24.3648],[92.8894,24.3649],[92.8889,24.3678],[92.8925,24.3678],[92.8928,24.3678],[92.8936,24.3689],[92.8936,24.3689],[92.8936,24.3689],[92.8949,24.3772],[92.8933,24.3787],[92.8884,24.3792],[92.8872,24.3803],[92.8871,24.3803],[92.8913,24.3869],[92.8921,24.3905],[92.8941,24.3869],[92.8954,24.3866],[92.8964,24.3871],[92.8969,24.3883],[92.8971,24.3888],[92.8971,24.3889],[92.8972,24.389],[92.8964,24.3902],[92.8956,24.3914],[92.8956,24.3914],[92.9002,24.3905],[92.9002,24.3905],[92.9014,24.3908],[92.9044,24.3915],[92.9044,24.3915],[92.9044,24.3915],[92.9051,24.3924],[92.905,24.3961],[92.9086,24.4002],[92.9108,24.4099],[92.9226,24.4027],[92.9218,24.4012],[92.9229,24.3996],[92.9246,24.3992],[92.9269,24.3956],[92.9349,24.3925],[92.9369,24.3937],[92.9378,24.396],[92.9398,24.398],[92.9434,24.3988],[92.9489,24.4011],[92.9505,24.4018],[92.9513,24.4017],[92.9531,24.4016],[92.9532,24.4014],[92.9539,24.4008],[92.9569,24.3958],[92.9573,24.395],[92.9577,24.3946],[92.9595,24.3928],[92.9595,24.3928],[92.97,24.3981],[92.9748,24.4047],[92.9794,24.4066],[92.9846,24.4044],[92.9875,24.4045]]]},"properties":{"district_name":"Aizawl","raw_district_name":"Aizawl","state_code":"MZ","state_name":"Mizoram","census_code":283,"data_source":"DataMeet India Maps (Census 2011 Boundaries)"}},{"type":"Feature","geometry":{"type":"Polygon","coordinates":[[[93.3358,24.0495],[93.3406,24.0407],[93.3344,24.0387],[93.336,24.0303],[93.3405,24.0268],[93.3353,24.0199],[93.3387,24.0085],[93.3376,23.9983],[93.3373,23.992],[93.3328,23.9831],[93.3358,23.9789],[93.3457,23.9768],[93.3499,23.9741],[93.3515,23.9681],[93.3542,23.9573],[93.3582,23.9507],[93.3632,23.942],[93.3693,23.9366],[93.374,23.9339],[93.3795,23.9322],[93.3892,23.93],[93.3969,23.9263],[93.3978,23.9204],[93.3974,23.915],[93.3958,23.9089],[93.3949,23.8947],[93.3938,23.8833],[93.3936,23.8727],[93.3946,23.8669],[93.395,23.8598],[93.3947,23.8545],[93.3949,23.8467],[93.3952,23.8369],[93.3982,23.8313],[93.3973,23.8202],[93.3995,23.8154],[93.405,23.8131],[93.4091,23.8037],[93.4081,23.7948],[93.4056,23.7862],[93.4025,23.771],[93.4023,23.765],[93.4033,23.7576],[93.4052,23.7516],[93.4086,23.7446],[93.4125,23.7394],[93.4134,23.7344],[93.4157,23.7285],[93.4138,23.7228],[93.4135,23.7141],[93.4149,23.7081],[93.4213,23.6999],[93.4275,23.6966],[93.4345,23.6921],[93.4393,23.6842],[93.4426,23.6783],[93.4389,23.6741],[93.434,23.6677],[93.4314,23.6631],[93.4283,23.6562],[93.4262,23.6495],[93.4265,23.6411],[93.4306,23.6147],[93.4313,23.591],[93.4326,23.5848],[93.4309,23.5784],[93.425,23.5676],[93.4219,23.5575],[93.4251,23.5489],[93.4259,23.5412],[93.4256,23.5342],[93.4234,23.5272],[93.4197,23.5231],[93.414,23.5165],[93.409,23.5092],[93.4054,23.5045],[93.4051,23.498],[93.406,23.4925],[93.4022,23.481],[93.4037,23.477],[93.4049,23.4713],[93.4038,23.4633],[93.3992,23.453],[93.3976,23.4429],[93.3963,23.4389],[93.395,23.4293],[93.3951,23.4222],[93.3946,23.4185],[93.3954,23.4115],[93.396,23.4073],[93.4017,23.3977],[93.4035,23.3936],[93.4075,23.3879],[93.412,23.384],[93.4023,23.3795],[93.3994,23.3756],[93.3942,23.3701],[93.3942,23.3641],[93.3965,23.3603],[93.3876,23.3588],[93.3741,23.3587],[93.3694,23.3559],[93.3652,23.3542],[93.3636,23.3506],[93.3658,23.3461],[93.3698,23.3404],[93.3755,23.3337],[93.377,23.3288],[93.3753,23.3229],[93.3744,23.3156],[93.3747,23.3089],[93.3754,23.3027],[93.3775,23.2973],[93.3789,23.2897],[93.3759,23.2829],[93.3731,23.2787],[93.3727,23.2707],[93.3749,23.2603],[93.3761,23.2522],[93.3809,23.2409],[93.386,23.2311],[93.3923,23.2204],[93.3924,23.2157],[93.385,23.2073],[93.3842,23.1981],[93.3829,23.1841],[93.3791,23.171],[93.3782,23.1631],[93.3736,23.155],[93.3715,23.1465],[93.3767,23.1398],[93.3882,23.144],[93.392,23.1405],[93.3912,23.1347],[93.3795,23.1236],[93.3737,23.1202],[93.3666,23.1168],[93.3626,23.1129],[93.3616,23.1024],[93.3606,23.0963],[93.3596,23.0916],[93.3549,23.0872],[93.35,23.0809],[93.3486,23.0765],[93.3558,23.0742],[93.355,23.069],[93.3505,23.0611],[93.3427,23.061],[93.3382,23.0515],[93.3343,23.0399],[93.3302,23.032],[93.3271,23.0279],[93.3216,23.0212],[93.3188,23.0182],[93.3125,23.0185],[93.3037,23.01],[93.2995,23.0047],[93.2953,23.0022],[93.2857,23.0011],[93.2762,23.0021],[93.2715,23.0067],[93.2657,23.0088],[93.2567,23.0052],[93.2508,23.003],[93.2454,23.0061],[93.2389,23.0106],[93.2355,23.0142],[93.2318,23.0184],[93.2293,23.0237],[93.2258,23.0294],[93.2179,23.0418],[93.2118,23.046],[93.2039,23.0535],[93.1989,23.0544],[93.1966,23.0553],[93.1957,23.0649],[93.1933,23.0757],[93.1887,23.0981],[93.1836,23.1211],[93.1654,23.1792],[93.1308,23.1946],[93.0784,23.2066],[93.0506,23.2132],[93.038,23.2445],[93.0262,23.2495],[93.0128,23.262],[93.0148,23.2738],[93.0465,23.3148],[93.0452,23.3417],[93.0408,23.3725],[93.0446,23.4107],[93.0595,23.4164],[93.0448,23.4757],[93.0569,23.5556],[93.0458,23.6534],[93.045,23.7075],[93.0444,23.7656],[93.0752,23.7743],[93.1251,23.7985],[93.1498,23.8105],[93.1651,23.84],[93.1615,23.8827],[93.189,23.9072],[93.1715,23.94],[93.1947,24.0141],[93.2072,24.0475],[93.2153,24.0465],[93.2195,24.0578],[93.221,24.0641],[93.2238,24.0703],[93.221,24.0779],[93.2253,24.0829],[93.2352,24.0804],[93.2409,24.0829],[93.2466,24.0817],[93.2622,24.0691],[93.2622,24.0641],[93.2651,24.0565],[93.2608,24.054],[93.2509,24.0301],[93.2538,24.0201],[93.2724,24.0302],[93.2752,24.0365],[93.2838,24.0428],[93.2866,24.0478],[93.2967,24.0478],[93.311,24.0503],[93.3358,24.0495]]]},"properties":{"district_name":"Champhai","raw_district_name":"Champhai","state_code":"MZ","state_name":"Mizoram","census_code":284,"data_source":"DataMeet India Maps (Census 2011 Boundaries)"}},{"type":"Feature","geometry":{"type":"Polygon","coordinates":[[[92.7808,24.4757],[92.7817,24.4721],[92.7821,24.4714],[92.7839,24.4685],[92.7857,24.461],[92.7893,24.4533],[92.7933,24.4413],[92.7967,24.4331],[92.7972,24.432],[92.7975,24.4316],[92.7997,24.4292],[92.8023,24.4245],[92.8027,24.4231],[92.8037,24.4202],[92.8032,24.419],[92.7995,24.4187],[92.7995,24.4187],[92.7995,24.4187],[92.8002,24.4163],[92.8002,24.4163],[92.8002,24.4163],[92.8031,24.416],[92.8032,24.4161],[92.8037,24.4162],[92.8056,24.4168],[92.8066,24.4171],[92.8068,24.417],[92.8089,24.4165],[92.8084,24.4148],[92.8083,24.4141],[92.8088,24.4125],[92.8088,24.4125],[92.8101,24.4125],[92.8108,24.4126],[92.8107,24.4122],[92.8105,24.4109],[92.8132,24.4102],[92.8158,24.4095],[92.8158,24.4095],[92.8158,24.4095],[92.8168,24.4097],[92.8177,24.41],[92.8198,24.4055],[92.8205,24.404],[92.8209,24.4037],[92.8242,24.4014],[92.8291,24.3992],[92.8297,24.3989],[92.8307,24.3977],[92.8307,24.3977],[92.831,24.3966],[92.8259,24.3908],[92.8255,24.3898],[92.8244,24.3877],[92.8247,24.3862],[92.8248,24.3856],[92.8255,24.3849],[92.8276,24.3828],[92.8275,24.3765],[92.8281,24.3755],[92.8283,24.375],[92.8291,24.3747],[92.832,24.3736],[92.832,24.3736],[92.832,24.3736],[92.8324,24.3738],[92.8355,24.3758],[92.8389,24.378],[92.8394,24.3779],[92.8436,24.377],[92.8436,24.377],[92.8436,24.377],[92.8451,24.3784],[92.8462,24.3795],[92.8469,24.3806],[92.8484,24.3833],[92.851,24.3895],[92.8538,24.3911],[92.8584,24.3956],[92.8622,24.3966],[92.8711,24.3942],[92.8732,24.3944],[92.8775,24.396],[92.8775,24.396],[92.8775,24.396],[92.8835,24.4001],[92.8873,24.3987],[92.8901,24.3994],[92.891,24.3989],[92.8937,24.3924],[92.8956,24.3914],[92.8956,24.3914],[92.8956,24.3914],[92.8964,24.3902],[92.8972,24.389],[92.8971,24.3889],[92.8971,24.3888],[92.8969,24.3883],[92.8964,24.3871],[92.8954,24.3866],[92.8941,24.3869],[92.8921,24.3905],[92.8913,24.3869],[92.8871,24.3803],[92.8872,24.3803],[92.8884,24.3792],[92.8933,24.3787],[92.8949,24.3772],[92.8936,24.3689],[92.8936,24.3689],[92.8936,24.3689],[92.8928,24.3678],[92.8925,24.3678],[92.8889,24.3678],[92.8894,24.3649],[92.8895,24.3648],[92.8868,24.3629],[92.8867,24.3628],[92.8886,24.3608],[92.8904,24.3564],[92.8935,24.3554],[92.8936,24.3554],[92.888,24.3509],[92.888,24.3509],[92.8814,24.3405],[92.8791,24.337],[92.8776,24.3331],[92.8775,24.333],[92.8742,24.3298],[92.8707,24.3287],[92.8707,24.3287],[92.8673,24.326],[92.8656,24.3256],[92.8655,24.3256],[92.8642,24.3273],[92.8629,24.3242],[92.8628,24.3241],[92.8651,24.3231],[92.8667,24.3199],[92.8699,24.3201],[92.8692,24.3167],[92.8644,24.3155],[92.8641,24.3154],[92.8611,24.3138],[92.8576,24.3079],[92.8575,24.3078],[92.8595,24.3062],[92.8619,24.3073],[92.8632,24.3079],[92.8647,24.3075],[92.867,24.2995],[92.8671,24.2993],[92.8672,24.2992],[92.8706,24.298],[92.8719,24.2952],[92.872,24.2951],[92.8727,24.291],[92.8731,24.2893],[92.8758,24.286],[92.8758,24.286],[92.8736,24.2819],[92.8736,24.2819],[92.8736,24.2818],[92.8751,24.2795],[92.8764,24.2776],[92.8764,24.2775],[92.8764,24.2775],[92.8764,24.2764],[92.8764,24.2763],[92.8745,24.276],[92.8726,24.2767],[92.8711,24.2763],[92.8698,24.276],[92.867,24.2725],[92.8668,24.2723],[92.8643,24.2691],[92.8643,24.2691],[92.8643,24.2646],[92.8643,24.2645],[92.8673,24.2614],[92.8674,24.2613],[92.863,24.2598],[92.863,24.2598],[92.862,24.2578],[92.862,24.2578],[92.8624,24.2571],[92.864,24.257],[92.8659,24.2569],[92.8653,24.2537],[92.8653,24.2536],[92.8653,24.2536],[92.8673,24.2503],[92.8674,24.2502],[92.8633,24.2484],[92.8633,24.2484],[92.8646,24.2441],[92.8646,24.244],[92.8631,24.2425],[92.863,24.2424],[92.863,24.2424],[92.8634,24.2412],[92.8659,24.2409],[92.8755,24.2406],[92.8763,24.2397],[92.8789,24.237],[92.879,24.2369],[92.881,24.2332],[92.8837,24.2323],[92.8875,24.2357],[92.8908,24.242],[92.8908,24.242],[92.8909,24.242],[92.8932,24.242],[92.8961,24.2373],[92.8962,24.2372],[92.8963,24.2372],[92.8992,24.2357],[92.9015,24.2314],[92.9017,24.2311],[92.9026,24.2216],[92.9026,24.2215],[92.9026,24.2215],[92.9025,24.2212],[92.9017,24.2178],[92.9014,24.2164],[92.9013,24.2164],[92.8995,24.2127],[92.8984,24.2105],[92.8982,24.2102],[92.8982,24.2101],[92.8985,24.2101],[92.9007,24.2103],[92.9008,24.2094],[92.9009,24.2093],[92.8995,24.2073],[92.8995,24.2072],[92.8994,24.2071],[92.8996,24.2069],[92.9003,24.2064],[92.9005,24.2046],[92.9005,24.2045],[92.9005,24.2045],[92.9004,24.2044],[92.9,24.2034],[92.8999,24.2034],[92.8964,24.2022],[92.8964,24.2021],[92.8975,24.1993],[92.8975,24.1992],[92.8975,24.1992],[92.8975,24.1992],[92.895,24.199],[92.8949,24.199],[92.8965,24.1901],[92.8959,24.188],[92.8947,24.1837],[92.8949,24.1733],[92.8949,24.1732],[92.8949,24.1732],[92.8947,24.1724],[92.8944,24.1713],[92.8919,24.1709],[92.8874,24.1686],[92.887,24.1683],[92.8854,24.168],[92.8853,24.168],[92.8857,24.1671],[92.8871,24.1672],[92.8882,24.1673],[92.8886,24.1652],[92.8886,24.1652],[92.8877,24.16],[92.8876,24.16],[92.8855,24.1589],[92.8849,24.1578],[92.8848,24.1577],[92.8863,24.1554],[92.8863,24.1554],[92.8863,24.1554],[92.8859,24.153],[92.8842,24.1502],[92.8841,24.15],[92.8796,24.1469],[92.8768,24.1435],[92.8748,24.1391],[92.8748,24.1391],[92.8747,24.1389],[92.8747,24.1389],[92.8747,24.1389],[92.8746,24.1351],[92.8788,24.129],[92.8789,24.1288],[92.8789,24.1288],[92.8789,24.1288],[92.876,24.1273],[92.8742,24.1244],[92.8742,24.1243],[92.8719,24.1222],[92.8697,24.12],[92.8696,24.1199],[92.8697,24.1197],[92.8697,24.1197],[92.8707,24.1162],[92.8703,24.1107],[92.8691,24.1098],[92.866,24.1073],[92.8618,24.1063],[92.8609,24.1053],[92.8609,24.1053],[92.8608,24.104],[92.8607,24.102],[92.8606,24.0997],[92.8601,24.0986],[92.8584,24.0991],[92.8584,24.0991],[92.8588,24.0954],[92.8588,24.0953],[92.857,24.0948],[92.8566,24.0939],[92.8565,24.0939],[92.8597,24.0874],[92.8597,24.0874],[92.8588,24.0845],[92.8571,24.0793],[92.8569,24.0756],[92.8568,24.075],[92.8566,24.0714],[92.8566,24.0713],[92.8521,24.0703],[92.8513,24.0654],[92.8513,24.0654],[92.8513,24.0654],[92.8507,24.065],[92.8486,24.0626],[92.8486,24.0625],[92.8497,24.0598],[92.8497,24.0598],[92.8479,24.0551],[92.8479,24.0551],[92.8484,24.0531],[92.8491,24.0504],[92.8491,24.0503],[92.8491,24.0503],[92.8476,24.0469],[92.8476,24.0468],[92.8479,24.0455],[92.8479,24.0454],[92.8501,24.0446],[92.8502,24.0386],[92.8502,24.0359],[92.8493,24.034],[92.8481,24.0336],[92.8453,24.0341],[92.8453,24.0341],[92.8453,24.0341],[92.8453,24.0341],[92.8473,24.0269],[92.8474,24.0268],[92.8473,24.0267],[92.8438,24.0247],[92.8413,24.0153],[92.8409,24.0139],[92.8389,24.0151],[92.8361,24.0219],[92.8361,24.022],[92.8327,24.0204],[92.8318,24.0187],[92.8317,24.0186],[92.8317,24.0186],[92.8326,24.014],[92.8327,24.0139],[92.8322,24.0126],[92.8299,24.0137],[92.8281,24.0166],[92.8228,24.0208],[92.8213,24.0214],[92.8176,24.0227],[92.8132,24.0221],[92.8119,24.0219],[92.8104,24.0202],[92.8061,24.0183],[92.8061,24.0183],[92.8058,24.0183],[92.8012,24.0178],[92.7906,24.0187],[92.785,24.0179],[92.7849,24.0179],[92.7836,24.0174],[92.779,24.0157],[92.7715,24.0118],[92.7637,24.0044],[92.7593,24.0002],[92.7587,23.9986],[92.7587,23.9985],[92.7593,23.993],[92.7593,23.9929],[92.7592,23.9924],[92.7587,23.9908],[92.7574,23.9897],[92.7551,23.9893],[92.7479,23.9928],[92.7479,23.9928],[92.7456,23.993],[92.7444,23.9923],[92.7444,23.9923],[92.7445,23.9886],[92.7445,23.9886],[92.7463,23.9876],[92.7461,23.9842],[92.7449,23.9824],[92.7398,23.9789],[92.7237,23.975],[92.7201,23.9754],[92.7166,23.9797],[92.7166,23.9798],[92.7135,23.9797],[92.7094,23.9782],[92.7091,23.9781],[92.7049,23.9814],[92.7039,23.9822],[92.7038,23.9822],[92.6997,23.9812],[92.6988,23.9822],[92.6974,23.9818],[92.6967,23.9819],[92.6949,23.9824],[92.6926,23.9814],[92.6924,23.9814],[92.6922,23.9813],[92.6916,23.9823],[92.689,23.9825],[92.689,23.9801],[92.689,23.98],[92.6873,23.9746],[92.6856,23.9706],[92.6856,23.9706],[92.6839,23.9668],[92.6839,23.9668],[92.6839,23.9668],[92.6808,23.9672],[92.6787,23.9682],[92.6745,23.9701],[92.6709,23.9703],[92.6708,23.9703],[92.6708,23.9703],[92.6686,23.9696],[92.6671,23.9678],[92.6658,23.9634],[92.6658,23.9633],[92.6641,23.9613],[92.6592,23.957],[92.6589,23.9568],[92.6589,23.9568],[92.6554,23.9558],[92.6509,23.9565],[92.6479,23.9579],[92.6461,23.96],[92.646,23.96],[92.6446,23.9642],[92.6436,23.9645],[92.6435,23.9645],[92.6413,23.9632],[92.6357,23.9567],[92.6353,23.9563],[92.6352,23.9562],[92.6317,23.9556],[92.6275,23.9537],[92.6274,23.9538],[92.6202,23.9573],[92.6202,23.961],[92.6202,23.9611],[92.6202,23.9612],[92.623,23.9699],[92.6255,23.978],[92.6255,23.978],[92.6321,23.9855],[92.6321,23.9855],[92.6321,23.9855],[92.6306,23.9902],[92.6307,23.9926],[92.6307,23.9927],[92.6313,23.9949],[92.6314,23.9952],[92.6327,23.997],[92.6327,23.9971],[92.6324,24.0003],[92.6244,24.0056],[92.6231,24.0078],[92.623,24.0078],[92.6231,24.0079],[92.6257,24.0122],[92.6257,24.0123],[92.6257,24.0124],[92.6261,24.017],[92.6261,24.017],[92.6272,24.0202],[92.6273,24.0205],[92.6295,24.0238],[92.6297,24.0259],[92.632,24.0291],[92.6366,24.0304],[92.6378,24.0312],[92.6383,24.0327],[92.6383,24.0327],[92.6334,24.0347],[92.6297,24.0384],[92.6274,24.039],[92.6257,24.0384],[92.6251,24.0373],[92.625,24.0371],[92.625,24.0345],[92.6263,24.0307],[92.6263,24.0306],[92.6263,24.0306],[92.6224,24.0314],[92.6207,24.0333],[92.6205,24.0335],[92.6192,24.036],[92.6171,24.04],[92.616,24.0463],[92.6145,24.0493],[92.6114,24.0499],[92.6014,24.0499],[92.6014,24.0499],[92.5992,24.0525],[92.5991,24.0525],[92.5925,24.0605],[92.5924,24.0605],[92.5883,24.0614],[92.587,24.0623],[92.5862,24.0635],[92.5861,24.0636],[92.5861,24.0637],[92.5859,24.0731],[92.5836,24.0742],[92.5835,24.0742],[92.5835,24.0742],[92.5834,24.0742],[92.5823,24.0742],[92.5742,24.0742],[92.5741,24.0733],[92.5741,24.0732],[92.5741,24.0732],[92.5769,24.0678],[92.5768,24.0661],[92.5763,24.0654],[92.5761,24.0652],[92.5728,24.0613],[92.5726,24.0587],[92.5726,24.0585],[92.5736,24.0491],[92.571,24.0458],[92.5678,24.0383],[92.5654,24.0395],[92.5612,24.0392],[92.5595,24.0401],[92.5596,24.0402],[92.5631,24.0495],[92.5632,24.0495],[92.5642,24.0524],[92.5642,24.0524],[92.5642,24.0524],[92.5584,24.0529],[92.5586,24.0569],[92.5586,24.0569],[92.5585,24.0571],[92.5579,24.0594],[92.5554,24.0607],[92.5542,24.0606],[92.5541,24.0606],[92.554,24.0606],[92.5539,24.0604],[92.5536,24.0602],[92.5513,24.0577],[92.5507,24.0557],[92.5506,24.0555],[92.5504,24.0548],[92.5503,24.0537],[92.5503,24.0536],[92.5493,24.0444],[92.5502,24.0403],[92.5502,24.0402],[92.5502,24.0402],[92.5417,24.0339],[92.5393,24.0331],[92.5391,24.0375],[92.5389,24.0384],[92.5388,24.0385],[92.5367,24.0473],[92.5368,24.0482],[92.5368,24.0482],[92.5369,24.0485],[92.5373,24.0515],[92.5375,24.0518],[92.5376,24.0519],[92.5385,24.0537],[92.5385,24.0579],[92.5385,24.058],[92.5385,24.058],[92.5366,24.0633],[92.5366,24.0634],[92.54,24.0726],[92.54,24.0726],[92.54,24.0727],[92.5406,24.0771],[92.5407,24.0786],[92.5407,24.0787],[92.5408,24.0792],[92.5383,24.0919],[92.5403,24.0953],[92.5403,24.0953],[92.5403,24.0953],[92.5403,24.0954],[92.5403,24.0955],[92.5407,24.0997],[92.5383,24.1098],[92.5393,24.1121],[92.5395,24.1126],[92.5395,24.1126],[92.5429,24.1208],[92.5442,24.1223],[92.5438,24.1236],[92.5438,24.1236],[92.538,24.124],[92.5378,24.1254],[92.5391,24.1281],[92.5394,24.1311],[92.5424,24.134],[92.5425,24.1342],[92.5448,24.1381],[92.5453,24.1409],[92.5453,24.1409],[92.5438,24.147],[92.5413,24.1503],[92.5404,24.1528],[92.5294,24.1615],[92.5293,24.1644],[92.5321,24.1656],[92.5322,24.1657],[92.536,24.1709],[92.536,24.171],[92.536,24.171],[92.536,24.1759],[92.5325,24.1782],[92.5324,24.1783],[92.5325,24.1784],[92.533,24.1786],[92.5326,24.1791],[92.5326,24.1791],[92.531,24.1812],[92.5373,24.1941],[92.5373,24.1942],[92.5373,24.1943],[92.5359,24.1977],[92.5368,24.1997],[92.5368,24.1997],[92.541,24.204],[92.542,24.2084],[92.5418,24.2119],[92.5453,24.2177],[92.5469,24.2222],[92.5469,24.2223],[92.5473,24.2296],[92.5465,24.2325],[92.5466,24.2354],[92.5467,24.2355],[92.5484,24.241],[92.5485,24.2411],[92.5502,24.2436],[92.5579,24.2455],[92.5585,24.2456],[92.5641,24.2478],[92.5813,24.243],[92.5875,24.2425],[92.5909,24.2436],[92.5931,24.2463],[92.5936,24.2464],[92.5955,24.247],[92.6033,24.2469],[92.6054,24.2468],[92.6054,24.2468],[92.6074,24.2477],[92.6111,24.251],[92.6126,24.2535],[92.615,24.2612],[92.615,24.2613],[92.6153,24.2681],[92.6153,24.2682],[92.6163,24.2729],[92.6185,24.2789],[92.6185,24.279],[92.6189,24.2844],[92.6189,24.2844],[92.6188,24.2847],[92.6186,24.2855],[92.6182,24.2857],[92.6181,24.2858],[92.6167,24.2867],[92.6163,24.2888],[92.6163,24.289],[92.6178,24.2973],[92.6178,24.2974],[92.6175,24.302],[92.6175,24.302],[92.6176,24.302],[92.6192,24.3061],[92.619,24.3091],[92.6226,24.3179],[92.6226,24.318],[92.6229,24.3284],[92.6229,24.3284],[92.623,24.3285],[92.6238,24.3303],[92.6257,24.3321],[92.63,24.331],[92.6302,24.331],[92.6354,24.3333],[92.6356,24.3333],[92.6373,24.3331],[92.6378,24.332],[92.6367,24.3319],[92.6366,24.3319],[92.6361,24.3318],[92.6362,24.3303],[92.6388,24.3293],[92.6394,24.3273],[92.6405,24.3263],[92.6445,24.3252],[92.6446,24.3254],[92.6455,24.3268],[92.6448,24.3294],[92.6482,24.3265],[92.6483,24.3265],[92.6485,24.3263],[92.6493,24.3268],[92.6493,24.3269],[92.6489,24.3284],[92.6499,24.3282],[92.6499,24.3282],[92.6514,24.3279],[92.6515,24.3304],[92.6519,24.3328],[92.656,24.3367],[92.6571,24.3391],[92.657,24.341],[92.6579,24.341],[92.658,24.341],[92.6587,24.3415],[92.6602,24.3427],[92.6604,24.3425],[92.6604,24.3424],[92.6617,24.341],[92.6627,24.3413],[92.6636,24.3443],[92.6647,24.3427],[92.6665,24.3431],[92.6743,24.3473],[92.6791,24.3453],[92.6833,24.345],[92.6835,24.3474],[92.6875,24.3495],[92.6902,24.3523],[92.6912,24.3539],[92.6912,24.354],[92.6913,24.3596],[92.6934,24.3611],[92.6937,24.3624],[92.6927,24.3653],[92.6945,24.367],[92.6964,24.3715],[92.6977,24.3724],[92.7019,24.3727],[92.7036,24.3737],[92.7029,24.3812],[92.7069,24.3844],[92.7069,24.3846],[92.7069,24.3898],[92.7069,24.3899],[92.7137,24.4027],[92.7137,24.4028],[92.7137,24.4078],[92.7137,24.4078],[92.7176,24.4136],[92.7233,24.4333],[92.7301,24.4501],[92.7431,24.472],[92.7484,24.4859],[92.7509,24.4917],[92.7541,24.4985],[92.754,24.4985],[92.7532,24.5044],[92.7532,24.5044],[92.7587,24.5091],[92.7641,24.5161],[92.7647,24.5182],[92.7787,24.4838],[92.7808,24.4757]]]},"properties":{"district_name":"Kolasib","raw_district_name":"Kolasib","state_code":"MZ","state_name":"Mizoram","census_code":282,"data_source":"DataMeet India Maps (Census 2011 Boundaries)"}},{"type":"Feature","geometry":{"type":"Polygon","coordinates":[[[92.9346,22.5546],[92.9375,22.5451],[92.9398,22.5398],[92.9411,22.5296],[92.936,22.4981],[92.9364,22.482],[92.94,22.4747],[92.9461,22.467],[92.9463,22.4622],[92.9419,22.4579],[92.9429,22.4386],[92.9452,22.4303],[92.9464,22.4236],[92.9482,22.4137],[92.9516,22.4067],[92.9528,22.4008],[92.9646,22.3971],[92.9668,22.3928],[92.9627,22.3775],[92.9569,22.3723],[92.9407,22.379],[92.9388,22.3842],[92.9433,22.3887],[92.9395,22.392],[92.9321,22.3947],[92.9229,22.3886],[92.9187,22.3837],[92.9107,22.3776],[92.9051,22.3721],[92.8999,22.3668],[92.8947,22.364],[92.8872,22.3599],[92.8832,22.3569],[92.8807,22.3526],[92.875,22.3436],[92.8688,22.3278],[92.8656,22.3237],[92.8524,22.323],[92.8419,22.3312],[92.8258,22.3303],[92.8246,22.3252],[92.8285,22.3194],[92.829,22.3138],[92.8277,22.3089],[92.8302,22.3004],[92.8372,22.2941],[92.8402,22.2873],[92.8374,22.2793],[92.8342,22.2746],[92.8363,22.2698],[92.837,22.2641],[92.8348,22.2552],[92.8358,22.2494],[92.8374,22.2448],[92.8389,22.2404],[92.8401,22.2327],[92.8406,22.2264],[92.8416,22.2164],[92.8407,22.2059],[92.8416,22.1951],[92.8412,22.1879],[92.8428,22.1819],[92.8437,22.1671],[92.8442,22.1602],[92.8461,22.149],[92.8464,22.1416],[92.8482,22.1344],[92.8456,22.1239],[92.8452,22.1148],[92.8477,22.1054],[92.8475,22.0961],[92.8488,22.0883],[92.8483,22.0808],[92.852,22.0708],[92.8545,22.0636],[92.8466,22.0604],[92.8422,22.0662],[92.839,22.0701],[92.8341,22.0744],[92.8232,22.0778],[92.8179,22.0884],[92.8147,22.0937],[92.808,22.0958],[92.801,22.1004],[92.7928,22.1044],[92.7864,22.1071],[92.7808,22.1068],[92.7751,22.108],[92.7669,22.114],[92.7678,22.1213],[92.7634,22.1245],[92.749,22.1309],[92.7409,22.1342],[92.7355,22.1373],[92.7305,22.1479],[92.7157,22.1509],[92.7058,22.1518],[92.6971,22.1467],[92.6984,22.1367],[92.6974,22.1208],[92.6949,22.0977],[92.6953,22.0846],[92.6913,22.0757],[92.6884,22.0932],[92.6873,22.1055],[92.6816,22.1038],[92.6823,22.0905],[92.6831,22.084],[92.6836,22.075],[92.6846,22.0684],[92.685,22.0616],[92.684,22.0571],[92.6844,22.0485],[92.6877,22.0394],[92.6872,22.0342],[92.6859,22.0292],[92.685,22.0224],[92.6821,22.0164],[92.6785,22.0127],[92.6693,22.0132],[92.661,22.0141],[92.6425,21.9968],[92.6388,21.9908],[92.6279,21.9836],[92.6159,21.9801],[92.6101,21.979],[92.6089,21.984],[92.6157,21.9885],[92.6102,22.0017],[92.6,22.0111],[92.6026,22.0213],[92.6052,22.0263],[92.6038,22.0329],[92.5991,22.0377],[92.5989,22.0426],[92.6025,22.0522],[92.6026,22.0569],[92.6011,22.062],[92.5958,22.0661],[92.5948,22.0789],[92.5839,22.0985],[92.5787,22.1102],[92.5736,22.1202],[92.5697,22.1252],[92.565,22.1282],[92.5697,22.1383],[92.5749,22.142],[92.5843,22.1441],[92.5923,22.1397],[92.595,22.1339],[92.5972,22.1269],[92.6085,22.1265],[92.6099,22.1358],[92.6124,22.1461],[92.6142,22.1551],[92.6144,22.1691],[92.6122,22.1739],[92.6075,22.1768],[92.6024,22.176],[92.5997,22.1808],[92.6006,22.1908],[92.602,22.1999],[92.6003,22.2066],[92.5947,22.213],[92.5929,22.2179],[92.5928,22.2238],[92.5945,22.2347],[92.5936,22.2399],[92.5927,22.2547],[92.5893,22.2619],[92.5856,22.2711],[92.5798,22.2787],[92.582,22.2871],[92.5832,22.2974],[92.5834,22.3132],[92.5805,22.3284],[92.5789,22.3359],[92.576,22.345],[92.5742,22.3549],[92.5687,22.3661],[92.5654,22.3784],[92.5655,22.388],[92.5637,22.3952],[92.5605,22.401],[92.5569,22.4161],[92.5563,22.4288],[92.5558,22.4447],[92.5522,22.4571],[92.5501,22.4694],[92.5496,22.4787],[92.5496,22.4906],[92.5481,22.5086],[92.5473,22.5236],[92.5431,22.5418],[92.5389,22.5519],[92.5348,22.5579],[92.5301,22.5625],[92.5293,22.5678],[92.53,22.5725],[92.5393,22.5771],[92.5391,22.5853],[92.5384,22.5961],[92.5349,22.6102],[92.5306,22.6168],[92.5269,22.6218],[92.5292,22.6259],[92.535,22.6298],[92.5325,22.6364],[92.527,22.6422],[92.527,22.6535],[92.5264,22.6619],[92.5222,22.6851],[92.5206,22.7012],[92.5178,22.7123],[92.5153,22.7203],[92.5105,22.7351],[92.5126,22.7394],[92.5086,22.7434],[92.5109,22.7475],[92.515,22.7501],[92.5176,22.7556],[92.5239,22.7606],[92.5285,22.7578],[92.54,22.7593],[92.5466,22.7565],[92.5503,22.7518],[92.5605,22.7443],[92.5702,22.7307],[92.5772,22.7339],[92.5806,22.7372],[92.5808,22.7445],[92.588,22.7469],[92.5939,22.7294],[92.5964,22.7292],[92.5975,22.7269],[92.5988,22.7225],[92.6019,22.7204],[92.6021,22.7122],[92.6002,22.7041],[92.6024,22.6949],[92.6058,22.689],[92.6101,22.6858],[92.6118,22.6795],[92.6153,22.6777],[92.6223,22.6706],[92.628,22.6672],[92.634,22.6627],[92.6318,22.6598],[92.6322,22.6567],[92.6384,22.654],[92.6426,22.6504],[92.6449,22.6461],[92.6491,22.6354],[92.6475,22.6263],[92.6474,22.6169],[92.6624,22.6199],[92.675,22.6246],[92.6841,22.6245],[92.6972,22.6166],[92.6941,22.607],[92.696,22.5955],[92.6984,22.5899],[92.7129,22.5803],[92.7147,22.5752],[92.7191,22.5682],[92.7236,22.5638],[92.7438,22.5514],[92.7472,22.5468],[92.7555,22.5415],[92.7566,22.5337],[92.7569,22.5203],[92.7628,22.5008],[92.7648,22.4979],[92.7696,22.4975],[92.7758,22.5017],[92.777,22.4991],[92.7792,22.4976],[92.7819,22.4982],[92.78,22.5137],[92.7779,22.5183],[92.7802,22.5307],[92.7828,22.5383],[92.7918,22.5476],[92.7983,22.5519],[92.7988,22.5565],[92.804,22.5669],[92.8042,22.5744],[92.8017,22.5807],[92.8009,22.5854],[92.7969,22.5975],[92.7972,22.6021],[92.7965,22.6048],[92.8036,22.6071],[92.8049,22.6121],[92.803,22.616],[92.8032,22.6213],[92.8081,22.6272],[92.8132,22.6277],[92.8222,22.6253],[92.8257,22.6257],[92.8369,22.624],[92.845,22.6206],[92.8504,22.6129],[92.8568,22.6068],[92.8626,22.6025],[92.8658,22.5988],[92.8718,22.5949],[92.878,22.5868],[92.8837,22.5816],[92.8997,22.5824],[92.9039,22.5747],[92.9045,22.5695],[92.9089,22.5514],[92.913,22.5448],[92.9175,22.5451],[92.9288,22.55],[92.9346,22.5546]]]},"properties":{"district_name":"Lawangtlai","raw_district_name":"Lawangtlai","state_code":"MZ","state_name":"Mizoram","census_code":287,"data_source":"DataMeet India Maps (Census 2011 Boundaries)"}},{"type":"Feature","geometry":{"type":"Polygon","coordinates":[[[92.6727,23.3827],[92.6784,23.3788],[92.6791,23.3727],[92.6787,23.3712],[92.675,23.3685],[92.6847,23.3671],[92.6875,23.3631],[92.6884,23.3585],[92.6906,23.3548],[92.6901,23.3529],[92.6893,23.3439],[92.6904,23.3416],[92.6898,23.3387],[92.6894,23.3298],[92.6897,23.329],[92.6893,23.328],[92.6891,23.3274],[92.6875,23.3266],[92.6866,23.3271],[92.6842,23.3263],[92.6881,23.3173],[92.6871,23.3115],[92.6919,23.3073],[92.6896,23.2971],[92.6872,23.2907],[92.6886,23.285],[92.6866,23.2803],[92.6874,23.2795],[92.6908,23.2793],[92.6893,23.2736],[92.6915,23.2693],[92.6934,23.2606],[92.6924,23.2482],[92.6915,23.2427],[92.6934,23.2397],[92.6929,23.237],[92.6947,23.2221],[92.6969,23.2165],[92.7075,23.2077],[92.7071,23.2043],[92.7033,23.1978],[92.7067,23.1974],[92.7061,23.1953],[92.7094,23.1925],[92.7164,23.1912],[92.7223,23.1919],[92.7249,23.2059],[92.7274,23.2104],[92.726,23.2171],[92.7273,23.2222],[92.7256,23.2283],[92.7246,23.2388],[92.725,23.2407],[92.7363,23.2392],[92.7383,23.2371],[92.7409,23.2324],[92.745,23.2342],[92.7492,23.2331],[92.7536,23.2335],[92.755,23.2329],[92.7567,23.2318],[92.7586,23.2268],[92.7667,23.2309],[92.7686,23.2325],[92.7734,23.2333],[92.7796,23.2285],[92.7907,23.2306],[92.7988,23.2277],[92.8025,23.2263],[92.8166,23.2255],[92.8184,23.2264],[92.8196,23.2285],[92.8189,23.2339],[92.8202,23.2396],[92.8215,23.2413],[92.8235,23.2414],[92.8258,23.2426],[92.8355,23.2455],[92.8387,23.2445],[92.8399,23.2412],[92.8467,23.2381],[92.8491,23.2366],[92.8491,23.2353],[92.849,23.2349],[92.8489,23.2342],[92.8497,23.234],[92.849,23.2314],[92.8501,23.229],[92.8494,23.2274],[92.8514,23.2235],[92.8544,23.2215],[92.8551,23.2201],[92.8574,23.2187],[92.8606,23.2151],[92.8618,23.2107],[92.8587,23.1958],[92.8593,23.1926],[92.8623,23.1864],[92.8628,23.1839],[92.8672,23.1768],[92.8671,23.1743],[92.8682,23.1728],[92.8728,23.1748],[92.8752,23.1717],[92.8783,23.1694],[92.8843,23.1687],[92.8872,23.1693],[92.8975,23.1781],[92.9013,23.1772],[92.9083,23.1775],[92.913,23.1803],[92.9175,23.1819],[92.9219,23.19],[92.9245,23.1883],[92.9255,23.1867],[92.9281,23.1862],[92.9322,23.1858],[92.9361,23.187],[92.9384,23.1866],[92.938,23.1826],[92.9369,23.1807],[92.9363,23.1759],[92.9377,23.1714],[92.9398,23.1694],[92.9489,23.1693],[92.9508,23.1671],[92.9551,23.1666],[92.9569,23.1654],[92.9601,23.1575],[92.9578,23.1516],[92.9609,23.1478],[92.9597,23.1414],[92.961,23.1401],[92.96,23.1346],[92.9627,23.1344],[92.9631,23.1328],[92.9612,23.1302],[92.9604,23.1162],[92.9628,23.1147],[92.9672,23.115],[92.9677,23.1113],[92.9848,23.1043],[92.9879,23.1],[92.9895,23.1002],[92.9903,23.099],[92.9915,23.0973],[92.994,23.0974],[92.9952,23.0944],[92.9998,23.0927],[93.0069,23.0872],[93.0218,23.0789],[93.0271,23.0789],[93.0334,23.0809],[93.0397,23.0809],[93.0433,23.0774],[93.0445,23.0743],[93.0424,23.0703],[93.0418,23.0495],[93.046,23.046],[93.0614,23.0442],[93.0806,23.0359],[93.0834,23.0339],[93.0819,23.0313],[93.0836,23.0284],[93.096,23.0255],[93.1189,23.0097],[93.128,23.0033],[93.127,22.9976],[93.1312,22.9929],[93.1352,22.991],[93.1403,22.9905],[93.1428,22.9845],[93.1454,22.9774],[93.1458,22.9723],[93.1443,22.9676],[93.1405,22.9654],[93.1402,22.9612],[93.1439,22.958],[93.1466,22.9533],[93.1494,22.9468],[93.1503,22.9383],[93.1511,22.9274],[93.1549,22.9235],[93.1594,22.9212],[93.1638,22.9192],[93.166,22.9159],[93.1642,22.9126],[93.1604,22.9103],[93.1563,22.9104],[93.15,22.9097],[93.1437,22.9097],[93.1365,22.91],[93.1329,22.9041],[93.1365,22.897],[93.136,22.8902],[93.1348,22.8864],[93.1332,22.8794],[93.1309,22.8721],[93.1279,22.8663],[93.1216,22.8628],[93.1193,22.8596],[93.1185,22.8517],[93.1192,22.8403],[93.1185,22.8343],[93.1133,22.8284],[93.1089,22.8252],[93.1103,22.8191],[93.1142,22.8178],[93.1138,22.8132],[93.1069,22.8098],[93.1019,22.8087],[93.097,22.8074],[93.1005,22.7891],[93.1017,22.7841],[93.1017,22.7841],[93.0903,22.7911],[93.082,22.7971],[93.0833,22.8012],[93.0864,22.804],[93.0786,22.8063],[93.0697,22.8022],[93.0632,22.8001],[93.0633,22.7939],[93.0558,22.7918],[93.0453,22.7936],[93.0315,22.7958],[93.0287,22.7835],[93.0192,22.7842],[93.0175,22.7797],[93.0131,22.7765],[93.012,22.7678],[93.0086,22.7626],[93.0089,22.7566],[93.0059,22.7535],[92.9999,22.7539],[92.9909,22.7537],[92.9801,22.7574],[92.9683,22.7695],[92.9604,22.7804],[92.9419,22.7897],[92.9327,22.7903],[92.9258,22.7895],[92.9255,22.7806],[92.9299,22.78],[92.931,22.7761],[92.925,22.7714],[92.9199,22.7643],[92.9186,22.7365],[92.9198,22.7282],[92.9211,22.7226],[92.9337,22.7137],[92.937,22.7067],[92.933,22.6842],[92.9339,22.6775],[92.934,22.6634],[92.9418,22.6451],[92.9519,22.6326],[92.9551,22.6274],[92.9517,22.6191],[92.9539,22.6019],[92.949,22.5948],[92.9503,22.5885],[92.9494,22.5752],[92.945,22.5639],[92.941,22.5593],[92.9346,22.5546],[92.9288,22.55],[92.9175,22.5451],[92.913,22.5448],[92.9089,22.5514],[92.9045,22.5695],[92.9039,22.5747],[92.8997,22.5824],[92.8837,22.5816],[92.878,22.5868],[92.8718,22.5949],[92.8658,22.5988],[92.8626,22.6025],[92.8568,22.6068],[92.8504,22.6129],[92.845,22.6206],[92.8369,22.624],[92.8257,22.6257],[92.8222,22.6253],[92.8132,22.6277],[92.8081,22.6272],[92.8032,22.6213],[92.803,22.616],[92.8049,22.6121],[92.8036,22.6071],[92.7965,22.6048],[92.7972,22.6021],[92.7969,22.5975],[92.8009,22.5854],[92.8017,22.5807],[92.8042,22.5744],[92.804,22.5669],[92.7988,22.5565],[92.7983,22.5519],[92.7918,22.5476],[92.7828,22.5383],[92.7802,22.5307],[92.7779,22.5183],[92.78,22.5137],[92.7819,22.4982],[92.7792,22.4976],[92.777,22.4991],[92.7758,22.5017],[92.7696,22.4975],[92.7648,22.4979],[92.7628,22.5008],[92.7569,22.5203],[92.7566,22.5337],[92.7555,22.5415],[92.7472,22.5468],[92.7438,22.5514],[92.7236,22.5638],[92.7191,22.5682],[92.7147,22.5752],[92.7129,22.5803],[92.6984,22.5899],[92.696,22.5955],[92.6941,22.607],[92.6972,22.6166],[92.6841,22.6245],[92.675,22.6246],[92.6624,22.6199],[92.6474,22.6169],[92.6475,22.6263],[92.6491,22.6354],[92.6449,22.6461],[92.6426,22.6504],[92.6384,22.654],[92.6322,22.6567],[92.6318,22.6598],[92.634,22.6627],[92.628,22.6672],[92.6223,22.6706],[92.6153,22.6777],[92.6118,22.6795],[92.6101,22.6858],[92.6058,22.689],[92.6024,22.6949],[92.6002,22.7041],[92.6021,22.7122],[92.6019,22.7204],[92.5988,22.7225],[92.5975,22.7269],[92.5964,22.7292],[92.5939,22.7294],[92.588,22.7469],[92.5808,22.7445],[92.5806,22.7372],[92.5772,22.7339],[92.5702,22.7307],[92.5605,22.7443],[92.5503,22.7518],[92.5466,22.7565],[92.54,22.7593],[92.5285,22.7578],[92.5239,22.7606],[92.5176,22.7556],[92.515,22.7501],[92.5109,22.7475],[92.5086,22.7434],[92.5126,22.7394],[92.5105,22.7351],[92.5032,22.7424],[92.497,22.7455],[92.4909,22.7458],[92.4856,22.7463],[92.4805,22.7507],[92.4774,22.7649],[92.4755,22.7797],[92.4722,22.789],[92.469,22.7964],[92.467,22.8042],[92.4652,22.8088],[92.4612,22.8125],[92.4565,22.8171],[92.4558,22.8237],[92.4561,22.8283],[92.4627,22.8307],[92.4624,22.8356],[92.4588,22.8408],[92.4647,22.847],[92.4623,22.8509],[92.4599,22.8553],[92.463,22.8619],[92.4584,22.8639],[92.457,22.8691],[92.4586,22.8734],[92.4544,22.8783],[92.4515,22.8823],[92.4491,22.8872],[92.4486,22.8927],[92.4433,22.8935],[92.4408,22.8905],[92.4367,22.8883],[92.429,22.9002],[92.4223,22.9113],[92.4217,22.9167],[92.4157,22.9182],[92.4039,22.9127],[92.4024,22.9163],[92.4013,22.9226],[92.4018,22.9278],[92.3975,22.9295],[92.3892,22.9292],[92.3838,22.9288],[92.3754,22.9337],[92.3752,22.9401],[92.3748,22.9447],[92.3771,22.9502],[92.3778,22.9573],[92.3784,22.9626],[92.376,22.9668],[92.374,22.9707],[92.3792,22.9752],[92.3838,22.9783],[92.3861,22.984],[92.3857,22.9891],[92.3879,22.9932],[92.389,23],[92.3912,23.0055],[92.3859,23.0128],[92.3843,23.0174],[92.3851,23.0217],[92.3883,23.0258],[92.391,23.0299],[92.3873,23.0358],[92.3886,23.0399],[92.393,23.0449],[92.3967,23.0513],[92.3967,23.055],[92.393,23.063],[92.3911,23.0664],[92.3892,23.0708],[92.3878,23.0755],[92.3867,23.0816],[92.3861,23.0882],[92.3806,23.0887],[92.3766,23.0872],[92.3732,23.0922],[92.3738,23.0993],[92.3695,23.1017],[92.3666,23.1052],[92.3664,23.1091],[92.368,23.1153],[92.371,23.1208],[92.3737,23.1262],[92.3725,23.1301],[92.367,23.1317],[92.3634,23.1384],[92.3658,23.1428],[92.368,23.149],[92.3675,23.1559],[92.3655,23.1621],[92.3641,23.1703],[92.3655,23.1782],[92.3653,23.1828],[92.3637,23.1874],[92.3595,23.1908],[92.3589,23.1949],[92.3598,23.1991],[92.3617,23.2057],[92.3615,23.2132],[92.36,23.2184],[92.3586,23.2281],[92.3574,23.2342],[92.3624,23.2376],[92.3685,23.2373],[92.3735,23.2384],[92.3882,23.2385],[92.394,23.2403],[92.3979,23.2389],[92.4059,23.2382],[92.4055,23.2425],[92.4013,23.2475],[92.3989,23.2524],[92.3979,23.2565],[92.3957,23.2599],[92.3931,23.2636],[92.3946,23.2656],[92.4016,23.2657],[92.4041,23.2638],[92.4086,23.266],[92.4094,23.265],[92.4135,23.2616],[92.4262,23.2636],[92.4331,23.2727],[92.4408,23.2793],[92.4368,23.2817],[92.4365,23.2842],[92.4465,23.2849],[92.4538,23.2864],[92.4572,23.2974],[92.4602,23.3033],[92.4602,23.3052],[92.4635,23.3083],[92.4659,23.3183],[92.4668,23.3187],[92.4721,23.3173],[92.4751,23.3215],[92.4724,23.3269],[92.4706,23.3418],[92.4626,23.3491],[92.4638,23.3508],[92.4638,23.3564],[92.4658,23.3552],[92.4653,23.3622],[92.4608,23.3636],[92.4599,23.3651],[92.4614,23.3673],[92.4612,23.3741],[92.4602,23.3795],[92.4654,23.3844],[92.4668,23.3886],[92.468,23.3891],[92.4781,23.3897],[92.4822,23.3871],[92.4855,23.3829],[92.4908,23.3813],[92.4958,23.3839],[92.4971,23.3898],[92.5,23.388],[92.5013,23.3881],[92.5021,23.3866],[92.5079,23.3832],[92.5116,23.3786],[92.5209,23.3784],[92.5209,23.3784],[92.5285,23.3793],[92.533,23.3776],[92.5375,23.3788],[92.5381,23.3789],[92.5436,23.3792],[92.5485,23.3781],[92.5495,23.3774],[92.5495,23.3769],[92.5515,23.3761],[92.558,23.3693],[92.5655,23.3713],[92.5671,23.3764],[92.5686,23.3775],[92.5789,23.3767],[92.5887,23.384],[92.5905,23.3901],[92.588,23.4009],[92.5921,23.4045],[92.6018,23.4009],[92.6036,23.3967],[92.6138,23.3941],[92.6174,23.3892],[92.6216,23.3863],[92.6268,23.3858],[92.6304,23.39],[92.6372,23.391],[92.6416,23.3879],[92.6471,23.3817],[92.6597,23.3807],[92.6656,23.3811],[92.6727,23.3827]]]},"properties":{"district_name":"Lunglei","raw_district_name":"Lunglei","state_code":"MZ","state_name":"Mizoram","census_code":286,"data_source":"DataMeet India Maps (Census 2011 Boundaries)"}},{"type":"Feature","geometry":{"type":"Polygon","coordinates":[[[92.4222,24.2461],[92.4197,24.2332],[92.4182,24.2196],[92.4179,24.2089],[92.4194,24.2005],[92.4186,24.1923],[92.4218,24.1865],[92.4328,24.1812],[92.4338,24.1793],[92.4341,24.1721],[92.4374,24.1685],[92.4377,24.1671],[92.4348,24.1606],[92.4362,24.1504],[92.437,24.1493],[92.4384,24.1492],[92.4414,24.1508],[92.4435,24.151],[92.4502,24.1416],[92.4568,24.1414],[92.4626,24.1343],[92.4644,24.1345],[92.4655,24.1327],[92.4664,24.133],[92.4681,24.1359],[92.4707,24.137],[92.4729,24.1379],[92.4729,24.1399],[92.4744,24.1408],[92.4791,24.1388],[92.4804,24.1392],[92.481,24.1408],[92.4783,24.1466],[92.4802,24.148],[92.4802,24.1502],[92.4825,24.1506],[92.4831,24.1518],[92.4807,24.155],[92.4822,24.155],[92.4835,24.156],[92.4844,24.1572],[92.4845,24.1593],[92.4854,24.1601],[92.4876,24.1601],[92.4943,24.1578],[92.4997,24.1584],[92.502,24.16],[92.5028,24.1645],[92.5044,24.1652],[92.5063,24.1647],[92.5091,24.1607],[92.5123,24.1604],[92.5115,24.1626],[92.5082,24.167],[92.5132,24.1671],[92.5143,24.168],[92.5131,24.1714],[92.5147,24.1733],[92.5171,24.174],[92.5213,24.1707],[92.5249,24.1707],[92.5292,24.1726],[92.5294,24.1742],[92.531,24.1752],[92.5324,24.1783],[92.5325,24.1782],[92.536,24.1759],[92.536,24.171],[92.536,24.171],[92.536,24.1709],[92.5322,24.1657],[92.5321,24.1656],[92.5293,24.1644],[92.5294,24.1615],[92.5404,24.1528],[92.5413,24.1503],[92.5438,24.147],[92.5453,24.1409],[92.5453,24.1409],[92.5448,24.1381],[92.5425,24.1342],[92.5424,24.134],[92.5394,24.1311],[92.5391,24.1281],[92.5378,24.1254],[92.538,24.124],[92.5438,24.1236],[92.5438,24.1236],[92.5442,24.1223],[92.5429,24.1208],[92.5395,24.1126],[92.5395,24.1126],[92.5393,24.1121],[92.5383,24.1098],[92.5407,24.0997],[92.5403,24.0955],[92.5403,24.0954],[92.5403,24.0953],[92.5403,24.0953],[92.5403,24.0953],[92.5383,24.0919],[92.5408,24.0792],[92.5407,24.0787],[92.5407,24.0786],[92.5406,24.0771],[92.54,24.0727],[92.54,24.0726],[92.54,24.0726],[92.5366,24.0634],[92.5366,24.0633],[92.5385,24.058],[92.5385,24.058],[92.5385,24.0579],[92.5385,24.0537],[92.5376,24.0519],[92.5375,24.0518],[92.5373,24.0515],[92.5369,24.0485],[92.5368,24.0482],[92.5368,24.0482],[92.5367,24.0473],[92.5388,24.0385],[92.5389,24.0384],[92.5391,24.0375],[92.5393,24.0331],[92.5417,24.0339],[92.5502,24.0402],[92.5502,24.0402],[92.5502,24.0403],[92.5493,24.0444],[92.5503,24.0536],[92.5503,24.0537],[92.5504,24.0548],[92.5506,24.0555],[92.5507,24.0557],[92.5513,24.0577],[92.5536,24.0602],[92.5539,24.0604],[92.554,24.0606],[92.5541,24.0606],[92.5542,24.0606],[92.5554,24.0607],[92.5579,24.0594],[92.5585,24.0571],[92.5586,24.0569],[92.5586,24.0569],[92.5584,24.0529],[92.5642,24.0524],[92.5642,24.0524],[92.5642,24.0524],[92.5632,24.0495],[92.5631,24.0495],[92.5596,24.0402],[92.5595,24.0401],[92.5612,24.0392],[92.5654,24.0395],[92.5678,24.0383],[92.571,24.0458],[92.5736,24.0491],[92.5726,24.0585],[92.5726,24.0587],[92.5728,24.0613],[92.5761,24.0652],[92.5763,24.0654],[92.5768,24.0661],[92.5769,24.0678],[92.5741,24.0732],[92.5741,24.0732],[92.5741,24.0733],[92.5742,24.0742],[92.5823,24.0742],[92.5834,24.0742],[92.5835,24.0742],[92.5835,24.0742],[92.5836,24.0742],[92.5859,24.0731],[92.5861,24.0637],[92.5861,24.0636],[92.5862,24.0635],[92.587,24.0623],[92.5883,24.0614],[92.5924,24.0605],[92.5925,24.0605],[92.5991,24.0525],[92.5992,24.0525],[92.6014,24.0499],[92.6014,24.0499],[92.6114,24.0499],[92.6145,24.0493],[92.616,24.0463],[92.6171,24.04],[92.6192,24.036],[92.6205,24.0335],[92.6207,24.0333],[92.6224,24.0314],[92.6263,24.0306],[92.6263,24.0306],[92.6263,24.0307],[92.625,24.0345],[92.625,24.0371],[92.6251,24.0373],[92.6257,24.0384],[92.6274,24.039],[92.6297,24.0384],[92.6334,24.0347],[92.6383,24.0327],[92.6383,24.0327],[92.6378,24.0312],[92.6366,24.0304],[92.632,24.0291],[92.6297,24.0259],[92.6295,24.0238],[92.6273,24.0205],[92.6272,24.0202],[92.6261,24.017],[92.6261,24.017],[92.6257,24.0124],[92.6257,24.0123],[92.6257,24.0122],[92.6231,24.0079],[92.623,24.0078],[92.6231,24.0078],[92.6244,24.0056],[92.6324,24.0003],[92.6327,23.9971],[92.6327,23.997],[92.6314,23.9952],[92.6313,23.9949],[92.6307,23.9927],[92.6307,23.9926],[92.6306,23.9902],[92.6321,23.9855],[92.6321,23.9855],[92.6321,23.9855],[92.6255,23.978],[92.6255,23.978],[92.623,23.9699],[92.6202,23.9612],[92.6202,23.9611],[92.6202,23.961],[92.6202,23.9573],[92.6274,23.9538],[92.6275,23.9537],[92.6302,23.9449],[92.6252,23.9411],[92.623,23.9352],[92.6368,23.9317],[92.6447,23.9294],[92.6464,23.9222],[92.6579,23.9199],[92.663,23.9083],[92.6594,23.9013],[92.6454,23.896],[92.6413,23.892],[92.6413,23.8858],[92.6431,23.8805],[92.6432,23.8723],[92.6476,23.8635],[92.6511,23.8539],[92.6541,23.8478],[92.6624,23.8371],[92.6613,23.8321],[92.652,23.8307],[92.6466,23.8276],[92.6462,23.8199],[92.6561,23.8183],[92.6511,23.8112],[92.6429,23.8117],[92.6381,23.8156],[92.6332,23.8079],[92.6295,23.8019],[92.6252,23.7965],[92.6299,23.7929],[92.6395,23.793],[92.6424,23.7853],[92.6404,23.772],[92.6349,23.7676],[92.6296,23.7624],[92.6357,23.7584],[92.6377,23.7474],[92.6392,23.7386],[92.6417,23.7342],[92.6439,23.7282],[92.6485,23.7198],[92.6521,23.7141],[92.6575,23.7114],[92.6635,23.7111],[92.6676,23.7073],[92.6606,23.6901],[92.6564,23.682],[92.6525,23.677],[92.6477,23.668],[92.637,23.6584],[92.6371,23.6474],[92.6407,23.6426],[92.6457,23.6395],[92.6525,23.6352],[92.6524,23.6303],[92.6583,23.6287],[92.6691,23.6265],[92.6753,23.6231],[92.6743,23.6144],[92.6749,23.6091],[92.6719,23.6],[92.6643,23.595],[92.6567,23.5934],[92.6518,23.5899],[92.6521,23.5845],[92.654,23.5768],[92.6604,23.5703],[92.6588,23.5598],[92.6568,23.5542],[92.6482,23.5532],[92.6449,23.5476],[92.6438,23.5412],[92.638,23.5395],[92.6351,23.5336],[92.6404,23.5217],[92.6466,23.5193],[92.6545,23.5181],[92.6568,23.5084],[92.6593,23.5036],[92.661,23.4972],[92.6575,23.4892],[92.6578,23.4785],[92.6585,23.4667],[92.658,23.4556],[92.6586,23.4406],[92.6581,23.4315],[92.6593,23.4218],[92.6662,23.4118],[92.6696,23.4016],[92.6675,23.3907],[92.6727,23.3827],[92.6656,23.3811],[92.6597,23.3807],[92.6471,23.3817],[92.6416,23.3879],[92.6372,23.391],[92.6304,23.39],[92.6268,23.3858],[92.6216,23.3863],[92.6174,23.3892],[92.6138,23.3941],[92.6036,23.3967],[92.6018,23.4009],[92.5921,23.4045],[92.588,23.4009],[92.5905,23.3901],[92.5887,23.384],[92.5789,23.3767],[92.5686,23.3775],[92.5671,23.3764],[92.5655,23.3713],[92.558,23.3693],[92.5515,23.3761],[92.5495,23.3769],[92.5495,23.3774],[92.5485,23.3781],[92.5436,23.3792],[92.5381,23.3789],[92.5375,23.3788],[92.533,23.3776],[92.5285,23.3793],[92.5209,23.3784],[92.5209,23.3784],[92.5116,23.3786],[92.5079,23.3832],[92.5021,23.3866],[92.5013,23.3881],[92.5,23.388],[92.4971,23.3898],[92.4958,23.3839],[92.4908,23.3813],[92.4855,23.3829],[92.4822,23.3871],[92.4781,23.3897],[92.468,23.3891],[92.4668,23.3886],[92.4654,23.3844],[92.4602,23.3795],[92.4612,23.3741],[92.4614,23.3673],[92.4599,23.3651],[92.4608,23.3636],[92.4653,23.3622],[92.4658,23.3552],[92.4638,23.3564],[92.4638,23.3508],[92.4626,23.3491],[92.4706,23.3418],[92.4724,23.3269],[92.4751,23.3215],[92.4721,23.3173],[92.4668,23.3187],[92.4659,23.3183],[92.4635,23.3083],[92.4602,23.3052],[92.4602,23.3033],[92.4572,23.2974],[92.4538,23.2864],[92.4465,23.2849],[92.4365,23.2842],[92.4368,23.2817],[92.4408,23.2793],[92.4331,23.2727],[92.4262,23.2636],[92.4135,23.2616],[92.4094,23.265],[92.4086,23.266],[92.4041,23.2638],[92.4016,23.2657],[92.3946,23.2656],[92.3962,23.2678],[92.3998,23.2717],[92.3974,23.2782],[92.3939,23.2814],[92.3917,23.2864],[92.3881,23.2944],[92.3893,23.3008],[92.3918,23.3072],[92.3888,23.3131],[92.387,23.3175],[92.3835,23.321],[92.3767,23.3214],[92.3731,23.3285],[92.3756,23.3322],[92.3796,23.3348],[92.3848,23.341],[92.386,23.346],[92.3865,23.3513],[92.3854,23.3601],[92.3813,23.3665],[92.379,23.3722],[92.3706,23.3729],[92.3655,23.3751],[92.3678,23.3797],[92.365,23.3837],[92.3599,23.3863],[92.3622,23.3915],[92.362,23.3958],[92.3577,23.3969],[92.357,23.4015],[92.359,23.4061],[92.3614,23.4098],[92.3612,23.414],[92.3558,23.4143],[92.351,23.4196],[92.3514,23.4262],[92.3499,23.4306],[92.348,23.4347],[92.3424,23.4321],[92.3366,23.4295],[92.3325,23.4295],[92.3321,23.4356],[92.3319,23.4411],[92.3315,23.4471],[92.3317,23.4532],[92.3342,23.4598],[92.3348,23.4642],[92.329,23.4673],[92.3267,23.4674],[92.324,23.4676],[92.323,23.4713],[92.329,23.4763],[92.3293,23.4806],[92.3256,23.4849],[92.3252,23.4888],[92.3245,23.4941],[92.3252,23.5038],[92.3239,23.5093],[92.3211,23.5181],[92.3242,23.5271],[92.3197,23.5313],[92.3131,23.5343],[92.3129,23.5443],[92.315,23.5539],[92.3137,23.5671],[92.3105,23.5832],[92.31,23.5904],[92.304,23.5929],[92.2992,23.5939],[92.295,23.5966],[92.2939,23.6068],[92.2948,23.6152],[92.3018,23.6197],[92.3023,23.6238],[92.2986,23.6255],[92.2909,23.6252],[92.2841,23.6262],[92.2847,23.6342],[92.2799,23.6378],[92.2793,23.6435],[92.2835,23.6525],[92.2889,23.6624],[92.2929,23.6711],[92.2946,23.6787],[92.296,23.6874],[92.2948,23.6936],[92.292,23.7019],[92.2878,23.7047],[92.2851,23.7097],[92.2824,23.715],[92.2766,23.7192],[92.2685,23.7244],[92.2658,23.7371],[92.2677,23.7548],[92.2666,23.7603],[92.2675,23.7649],[92.2673,23.7684],[92.2632,23.79],[92.263,23.7981],[92.2618,23.8033],[92.2602,23.8055],[92.2589,23.8134],[92.269,23.8161],[92.2762,23.8136],[92.2786,23.8151],[92.2796,23.8141],[92.2803,23.8135],[92.2832,23.8146],[92.2853,23.814],[92.2863,23.8151],[92.2852,23.821],[92.283,23.8218],[92.2832,23.8227],[92.2811,23.8245],[92.2816,23.8292],[92.2766,23.8349],[92.2754,23.8383],[92.2735,23.84],[92.2743,23.8474],[92.2761,23.8513],[92.2848,23.8557],[92.2873,23.8614],[92.2873,23.8653],[92.2915,23.8698],[92.2934,23.8696],[92.2947,23.8684],[92.2946,23.8638],[92.3001,23.8647],[92.3037,23.8621],[92.3068,23.8622],[92.3094,23.8609],[92.3151,23.8618],[92.3191,23.8635],[92.3197,23.8641],[92.3177,23.8653],[92.318,23.8662],[92.3205,23.8676],[92.3215,23.8681],[92.3216,23.872],[92.3199,23.8763],[92.3185,23.8759],[92.3166,23.8774],[92.3169,23.8792],[92.317,23.8796],[92.3167,23.8797],[92.3161,23.8799],[92.3158,23.8815],[92.3166,23.8823],[92.3188,23.8819],[92.319,23.8844],[92.3178,23.8862],[92.3185,23.8874],[92.3183,23.8879],[92.318,23.8887],[92.3186,23.8891],[92.3194,23.8881],[92.3202,23.8895],[92.3211,23.8896],[92.3225,23.9024],[92.3236,23.9029],[92.3253,23.9027],[92.3273,23.9045],[92.3294,23.9037],[92.33,23.9058],[92.3307,23.91],[92.3289,23.9171],[92.3302,23.9197],[92.3292,23.9213],[92.3274,23.9222],[92.3207,23.9244],[92.3176,23.9286],[92.313,23.9328],[92.3123,23.9395],[92.313,23.9415],[92.3123,23.9423],[92.3108,23.9439],[92.3122,23.9557],[92.311,23.9588],[92.3122,23.9591],[92.3122,23.9591],[92.3129,23.9592],[92.3122,23.9685],[92.3148,23.9694],[92.3146,23.9704],[92.3173,23.9703],[92.3192,23.9735],[92.3217,23.9735],[92.3223,23.978],[92.3236,23.9779],[92.3251,23.9815],[92.3274,23.9829],[92.3273,23.9839],[92.3267,23.9844],[92.3254,23.9857],[92.3286,23.9879],[92.3268,24.0001],[92.3271,24.0024],[92.3242,24.0047],[92.3168,24.0158],[92.317,24.017],[92.3185,24.0174],[92.3205,24.0161],[92.3213,24.017],[92.318,24.0208],[92.3187,24.0237],[92.3163,24.0262],[92.3189,24.0285],[92.319,24.0295],[92.3138,24.0329],[92.3168,24.0357],[92.3172,24.0377],[92.3151,24.0431],[92.3149,24.0469],[92.3165,24.0496],[92.3187,24.0483],[92.32,24.0494],[92.3183,24.0555],[92.3214,24.0569],[92.3187,24.0595],[92.3165,24.065],[92.3178,24.0673],[92.3188,24.0677],[92.3209,24.0669],[92.323,24.0678],[92.3225,24.07],[92.3233,24.0715],[92.3248,24.072],[92.327,24.0727],[92.3267,24.0746],[92.326,24.0747],[92.3226,24.0752],[92.3225,24.0757],[92.3277,24.0788],[92.3287,24.0803],[92.3281,24.0831],[92.3285,24.0873],[92.3276,24.0919],[92.3299,24.0942],[92.3312,24.0969],[92.328,24.0968],[92.3294,24.0993],[92.3291,24.101],[92.332,24.1034],[92.3321,24.105],[92.329,24.1085],[92.3316,24.1099],[92.3314,24.1113],[92.3283,24.1141],[92.328,24.1228],[92.3308,24.1261],[92.3285,24.1279],[92.329,24.1298],[92.3279,24.1333],[92.328,24.1368],[92.329,24.138],[92.332,24.1386],[92.332,24.1422],[92.333,24.1428],[92.335,24.1417],[92.336,24.1425],[92.3366,24.1449],[92.3341,24.149],[92.3316,24.1617],[92.3292,24.1627],[92.3283,24.1643],[92.3297,24.1728],[92.3298,24.1782],[92.3305,24.1802],[92.3302,24.183],[92.3268,24.1843],[92.3268,24.1843],[92.3294,24.1863],[92.3286,24.1873],[92.3292,24.1893],[92.3245,24.1929],[92.3243,24.1944],[92.3253,24.1957],[92.3249,24.1972],[92.3238,24.198],[92.32,24.2007],[92.32,24.2025],[92.3231,24.2027],[92.3231,24.2027],[92.3246,24.2029],[92.3244,24.2039],[92.3188,24.2072],[92.3159,24.2114],[92.3125,24.2092],[92.3096,24.213],[92.3095,24.2143],[92.3134,24.2193],[92.3136,24.2211],[92.3032,24.2198],[92.3007,24.2202],[92.3009,24.222],[92.301,24.2227],[92.3017,24.2233],[92.2975,24.2254],[92.299,24.2276],[92.2993,24.2298],[92.2961,24.232],[92.2961,24.2343],[92.2967,24.2363],[92.2947,24.2389],[92.2939,24.2425],[92.2951,24.2462],[92.296,24.2469],[92.297,24.2477],[92.2965,24.2499],[92.3034,24.2509],[92.3104,24.2495],[92.3139,24.2508],[92.3763,24.2494],[92.3954,24.2505],[92.4066,24.2499],[92.4162,24.2514],[92.4221,24.2511],[92.4222,24.2461]]]},"properties":{"district_name":"Mamit","raw_district_name":"Mamit","state_code":"MZ","state_name":"Mizoram","census_code":281,"data_source":"DataMeet India Maps (Census 2011 Boundaries)"}},{"type":"Feature","geometry":{"type":"Polygon","coordinates":[[[93.1017,22.7841],[93.1056,22.7672],[93.109,22.75],[93.1103,22.7412],[93.1068,22.7348],[93.1022,22.7287],[93.0995,22.7244],[93.0984,22.7166],[93.0967,22.7113],[93.0931,22.7081],[93.0956,22.6983],[93.1018,22.6932],[93.1045,22.6833],[93.1008,22.6757],[93.1011,22.6711],[93.105,22.6612],[93.1082,22.6561],[93.1121,22.6519],[93.1161,22.6485],[93.1123,22.6362],[93.1218,22.6271],[93.1271,22.6262],[93.1339,22.6199],[93.1366,22.6152],[93.1404,22.6046],[93.1419,22.5958],[93.1431,22.5831],[93.1334,22.5785],[93.1312,22.5743],[93.1267,22.5715],[93.1219,22.5641],[93.1191,22.557],[93.113,22.5518],[93.114,22.5429],[93.1135,22.5375],[93.1092,22.5289],[93.1173,22.5258],[93.1233,22.5256],[93.1283,22.5231],[93.1311,22.517],[93.1281,22.511],[93.128,22.503],[93.1327,22.496],[93.1358,22.4836],[93.1337,22.4767],[93.1319,22.4719],[93.1356,22.4664],[93.1395,22.4603],[93.1431,22.4555],[93.1541,22.4491],[93.1601,22.4507],[93.1728,22.4483],[93.1755,22.4436],[93.1795,22.4357],[93.1852,22.4306],[93.1881,22.4242],[93.1856,22.4159],[93.1862,22.4104],[93.1916,22.4058],[93.1928,22.4002],[93.1905,22.3961],[93.1895,22.3878],[93.1937,22.3811],[93.1899,22.3678],[93.1918,22.3604],[93.1944,22.3556],[93.1972,22.3406],[93.1967,22.3341],[93.1999,22.3306],[93.2038,22.3264],[93.1936,22.3216],[93.1967,22.3147],[93.1978,22.3101],[93.1985,22.3031],[93.1989,22.2968],[93.1983,22.289],[93.1988,22.2834],[93.1991,22.2778],[93.2012,22.2727],[93.2045,22.2666],[93.2058,22.258],[93.1936,22.2526],[93.1876,22.2467],[93.1809,22.2462],[93.1682,22.2468],[93.1632,22.246],[93.1576,22.2442],[93.1488,22.2452],[93.1437,22.2383],[93.1492,22.2318],[93.1537,22.2258],[93.1549,22.2202],[93.1535,22.2145],[93.1563,22.2069],[93.1632,22.2023],[93.167,22.1972],[93.1636,22.1908],[93.1602,22.1795],[93.1516,22.1753],[93.1456,22.174],[93.1359,22.1739],[93.128,22.1763],[93.12,22.1863],[93.1172,22.1958],[93.1088,22.198],[93.0995,22.1961],[93.0946,22.1966],[93.0861,22.1999],[93.0789,22.2057],[93.0689,22.2056],[93.0571,22.2013],[93.0512,22.2006],[93.044,22.195],[93.0439,22.1875],[93.051,22.1732],[93.0523,22.1629],[93.0493,22.1541],[93.0482,22.1476],[93.0453,22.1433],[93.0442,22.1361],[93.0514,22.1292],[93.0565,22.125],[93.0599,22.1183],[93.0638,22.1107],[93.0629,22.0995],[93.057,22.0972],[93.0494,22.0967],[93.0436,22.0988],[93.0365,22.1024],[93.0295,22.1025],[93.0203,22.1032],[93.0133,22.103],[93.0106,22.0956],[93.0129,22.0907],[93.0118,22.0828],[93.0091,22.0769],[93.0054,22.0675],[93.0011,22.0588],[92.9981,22.0533],[92.9973,22.048],[92.9973,22.0372],[92.9989,22.0298],[93.0058,22.0176],[93.0077,22.0088],[93.0069,22.0003],[93.0074,21.9934],[93.0066,21.9816],[93.0039,21.9775],[92.9963,21.9757],[92.9897,21.9786],[92.9831,21.9878],[92.9791,21.9996],[92.9769,22.0042],[92.9705,22.0077],[92.9668,22.0119],[92.9643,22.018],[92.9639,22.0249],[92.9583,22.028],[92.9532,22.0277],[92.9485,22.0237],[92.9395,22.0162],[92.932,22.0179],[92.9331,22.0106],[92.9365,22.0064],[92.9296,21.9997],[92.9251,21.9938],[92.9222,21.985],[92.9197,21.9787],[92.9168,21.9717],[92.9131,21.963],[92.9119,21.9546],[92.9135,21.9473],[92.9083,21.9442],[92.9033,21.9515],[92.9021,21.9787],[92.8988,21.9883],[92.8938,22.0019],[92.8917,22.0099],[92.8869,22.0161],[92.8832,22.0195],[92.877,22.0239],[92.8722,22.0281],[92.87,22.0345],[92.8688,22.0446],[92.8677,22.0522],[92.8677,22.0587],[92.8653,22.0633],[92.8608,22.0656],[92.8545,22.0636],[92.852,22.0708],[92.8483,22.0808],[92.8488,22.0883],[92.8475,22.0961],[92.8477,22.1054],[92.8452,22.1148],[92.8456,22.1239],[92.8482,22.1344],[92.8464,22.1416],[92.8461,22.149],[92.8442,22.1602],[92.8437,22.1671],[92.8428,22.1819],[92.8412,22.1879],[92.8416,22.1951],[92.8407,22.2059],[92.8416,22.2164],[92.8406,22.2264],[92.8401,22.2327],[92.8389,22.2404],[92.8374,22.2448],[92.8358,22.2494],[92.8348,22.2552],[92.837,22.2641],[92.8363,22.2698],[92.8342,22.2746],[92.8374,22.2793],[92.8402,22.2873],[92.8372,22.2941],[92.8302,22.3004],[92.8277,22.3089],[92.829,22.3138],[92.8285,22.3194],[92.8246,22.3252],[92.8258,22.3303],[92.8419,22.3312],[92.8524,22.323],[92.8656,22.3237],[92.8688,22.3278],[92.875,22.3436],[92.8807,22.3526],[92.8832,22.3569],[92.8872,22.3599],[92.8947,22.364],[92.8999,22.3668],[92.9051,22.3721],[92.9107,22.3776],[92.9187,22.3837],[92.9229,22.3886],[92.9321,22.3947],[92.9395,22.392],[92.9433,22.3887],[92.9388,22.3842],[92.9407,22.379],[92.9569,22.3723],[92.9627,22.3775],[92.9668,22.3928],[92.9646,22.3971],[92.9528,22.4008],[92.9516,22.4067],[92.9482,22.4137],[92.9464,22.4236],[92.9452,22.4303],[92.9429,22.4386],[92.9419,22.4579],[92.9463,22.4622],[92.9461,22.467],[92.94,22.4747],[92.9364,22.482],[92.936,22.4981],[92.9411,22.5296],[92.9398,22.5398],[92.9375,22.5451],[92.9346,22.5546],[92.941,22.5593],[92.945,22.5639],[92.9494,22.5752],[92.9503,22.5885],[92.949,22.5948],[92.9539,22.6019],[92.9517,22.6191],[92.9551,22.6274],[92.9519,22.6326],[92.9418,22.6451],[92.934,22.6634],[92.9339,22.6775],[92.933,22.6842],[92.937,22.7067],[92.9337,22.7137],[92.9211,22.7226],[92.9198,22.7282],[92.9186,22.7365],[92.9199,22.7643],[92.925,22.7714],[92.931,22.7761],[92.9299,22.78],[92.9255,22.7806],[92.9258,22.7895],[92.9327,22.7903],[92.9419,22.7897],[92.9604,22.7804],[92.9683,22.7695],[92.9801,22.7574],[92.9909,22.7537],[92.9999,22.7539],[93.0059,22.7535],[93.0089,22.7566],[93.0086,22.7626],[93.012,22.7678],[93.0131,22.7765],[93.0175,22.7797],[93.0192,22.7842],[93.0287,22.7835],[93.0315,22.7958],[93.0453,22.7936],[93.0558,22.7918],[93.0633,22.7939],[93.0632,22.8001],[93.0697,22.8022],[93.0786,22.8063],[93.0864,22.804],[93.0833,22.8012],[93.082,22.7971],[93.0903,22.7911],[93.1017,22.7841]]]},"properties":{"district_name":"Saiha","raw_district_name":"Saiha","state_code":"MZ","state_name":"Mizoram","census_code":288,"data_source":"DataMeet India Maps (Census 2011 Boundaries)"}},{"type":"Feature","geometry":{"type":"Polygon","coordinates":[[[93.0446,23.4107],[93.0408,23.3725],[93.0452,23.3417],[93.0465,23.3148],[93.0148,23.2738],[93.0128,23.262],[93.0262,23.2495],[93.038,23.2445],[93.0506,23.2132],[93.0784,23.2066],[93.1308,23.1946],[93.1654,23.1792],[93.1836,23.1211],[93.1887,23.0981],[93.1933,23.0757],[93.1957,23.0649],[93.1966,23.0553],[93.1922,23.0569],[93.1887,23.0549],[93.1849,23.0538],[93.1808,23.0546],[93.1745,23.0497],[93.1699,23.0475],[93.1656,23.0457],[93.1597,23.0486],[93.1534,23.0548],[93.1451,23.0584],[93.1397,23.0574],[93.1381,23.0532],[93.1347,23.0502],[93.1308,23.0443],[93.1329,23.0384],[93.1336,23.032],[93.1322,23.028],[93.1294,23.0227],[93.1319,23.0166],[93.1336,23.0097],[93.128,23.0033],[93.1189,23.0097],[93.096,23.0255],[93.0836,23.0284],[93.0819,23.0313],[93.0834,23.0339],[93.0806,23.0359],[93.0614,23.0442],[93.046,23.046],[93.0418,23.0495],[93.0424,23.0703],[93.0445,23.0743],[93.0433,23.0774],[93.0397,23.0809],[93.0334,23.0809],[93.0271,23.0789],[93.0218,23.0789],[93.0069,23.0872],[92.9998,23.0927],[92.9952,23.0944],[92.994,23.0974],[92.9915,23.0973],[92.9903,23.099],[92.9895,23.1002],[92.9879,23.1],[92.9848,23.1043],[92.9677,23.1113],[92.9672,23.115],[92.9628,23.1147],[92.9604,23.1162],[92.9612,23.1302],[92.9631,23.1328],[92.9627,23.1344],[92.96,23.1346],[92.961,23.1401],[92.9597,23.1414],[92.9609,23.1478],[92.9578,23.1516],[92.9601,23.1575],[92.9569,23.1654],[92.9551,23.1666],[92.9508,23.1671],[92.9489,23.1693],[92.9398,23.1694],[92.9377,23.1714],[92.9363,23.1759],[92.9369,23.1807],[92.938,23.1826],[92.9384,23.1866],[92.9361,23.187],[92.9322,23.1858],[92.9281,23.1862],[92.9255,23.1867],[92.9245,23.1883],[92.9219,23.19],[92.9175,23.1819],[92.913,23.1803],[92.9083,23.1775],[92.9013,23.1772],[92.8975,23.1781],[92.8872,23.1693],[92.8843,23.1687],[92.8783,23.1694],[92.8752,23.1717],[92.8728,23.1748],[92.8682,23.1728],[92.8671,23.1743],[92.8672,23.1768],[92.8628,23.1839],[92.8623,23.1864],[92.8593,23.1926],[92.8587,23.1958],[92.8618,23.2107],[92.8606,23.2151],[92.8574,23.2187],[92.8551,23.2201],[92.8544,23.2215],[92.8514,23.2235],[92.8494,23.2274],[92.8501,23.229],[92.849,23.2314],[92.8497,23.234],[92.8489,23.2342],[92.849,23.2349],[92.8491,23.2353],[92.8491,23.2366],[92.8467,23.2381],[92.8399,23.2412],[92.8387,23.2445],[92.8355,23.2455],[92.8258,23.2426],[92.8235,23.2414],[92.8215,23.2413],[92.8202,23.2396],[92.8189,23.2339],[92.8196,23.2285],[92.8184,23.2264],[92.8166,23.2255],[92.8025,23.2263],[92.7988,23.2277],[92.7907,23.2306],[92.7796,23.2285],[92.7734,23.2333],[92.7686,23.2325],[92.7667,23.2309],[92.7586,23.2268],[92.7567,23.2318],[92.755,23.2329],[92.7536,23.2335],[92.7492,23.2331],[92.745,23.2342],[92.7409,23.2324],[92.7383,23.2371],[92.7363,23.2392],[92.725,23.2407],[92.7246,23.2388],[92.7256,23.2283],[92.7273,23.2222],[92.726,23.2171],[92.7274,23.2104],[92.7249,23.2059],[92.7223,23.1919],[92.7164,23.1912],[92.7094,23.1925],[92.7061,23.1953],[92.7067,23.1974],[92.7033,23.1978],[92.7071,23.2043],[92.7075,23.2077],[92.6969,23.2165],[92.6947,23.2221],[92.6929,23.237],[92.6934,23.2397],[92.6915,23.2427],[92.6924,23.2482],[92.6934,23.2606],[92.6915,23.2693],[92.6893,23.2736],[92.6908,23.2793],[92.6874,23.2795],[92.6866,23.2803],[92.6886,23.285],[92.6872,23.2907],[92.6896,23.2971],[92.6919,23.3073],[92.6871,23.3115],[92.6881,23.3173],[92.6842,23.3263],[92.6866,23.3271],[92.6875,23.3266],[92.6891,23.3274],[92.6893,23.328],[92.6916,23.3226],[92.702,23.2969],[92.7121,23.2979],[92.7362,23.3136],[92.7566,23.3046],[92.7657,23.3026],[92.7812,23.2995],[92.7912,23.2758],[92.8126,23.2729],[92.8275,23.2987],[92.8536,23.3226],[92.8312,23.3349],[92.812,23.368],[92.82,23.386],[92.834,23.4166],[92.8392,23.4276],[92.8523,23.4803],[92.8809,23.5187],[92.9136,23.5221],[92.9199,23.5227],[92.9476,23.5141],[92.9719,23.4776],[93.0191,23.434],[93.0362,23.4178],[93.0446,23.4107]]]},"properties":{"district_name":"Serchhip","raw_district_name":"Serchhip","state_code":"MZ","state_name":"Mizoram","census_code":285,"data_source":"DataMeet India Maps (Census 2011 Boundaries)"}}]}