{"type":"FeatureCollection","properties":{"state_code":"NL","state_name":"Nagaland","data_source":"DataMeet India Maps"},"features":[{"type":"Feature","geometry":{"type":"Polygon","coordinates":[[[93.9681,25.9063],[93.9682,25.9044],[93.9705,25.898],[93.9752,25.8963],[93.9771,25.8957],[93.9815,25.8957],[93.9861,25.8979],[93.9895,25.8972],[93.9901,25.894],[93.9883,25.8915],[93.9908,25.8869],[93.9941,25.8857],[93.9983,25.8845],[93.999,25.8817],[93.9948,25.879],[93.9905,25.8754],[93.9843,25.8729],[93.9801,25.8697],[93.9756,25.8644],[93.9753,25.8618],[93.9746,25.8556],[93.974,25.8504],[93.9748,25.8485],[93.9741,25.8375],[93.9736,25.8287],[93.9773,25.8222],[93.9823,25.8143],[93.9864,25.8028],[93.9876,25.8001],[93.9882,25.7969],[93.9921,25.7926],[93.9903,25.7892],[93.9886,25.7876],[93.9871,25.7829],[93.9848,25.7795],[93.9846,25.7773],[93.9847,25.7742],[93.9841,25.773],[93.9814,25.7705],[93.9835,25.7673],[93.983,25.7633],[93.9859,25.7626],[93.9877,25.7611],[93.9854,25.7582],[93.9821,25.755],[93.9819,25.7532],[93.9811,25.7502],[93.9787,25.746],[93.9771,25.7409],[93.9755,25.7397],[93.9741,25.7358],[93.9706,25.7344],[93.9686,25.7341],[93.9634,25.731],[93.9601,25.7282],[93.9558,25.7286],[93.9476,25.7294],[93.9417,25.729],[93.9373,25.7245],[93.9345,25.7213],[93.9319,25.7153],[93.9287,25.7089],[93.9281,25.7037],[93.9254,25.7008],[93.9193,25.6987],[93.9161,25.6959],[93.9153,25.6933],[93.9154,25.6902],[93.9172,25.6843],[93.9219,25.6777],[93.9258,25.6734],[93.9304,25.6712],[93.9361,25.6645],[93.9382,25.6577],[93.9372,25.6529],[93.9362,25.6481],[93.9351,25.6465],[93.9345,25.6456],[93.9262,25.6499],[93.9194,25.651],[93.9134,25.6541],[93.9081,25.6546],[93.9025,25.6569],[93.896,25.6593],[93.8925,25.6591],[93.8871,25.6627],[93.8821,25.6662],[93.8786,25.6705],[93.8755,25.673],[93.8684,25.6838],[93.8589,25.6869],[93.8509,25.6894],[93.8432,25.6949],[93.8389,25.6958],[93.8351,25.6961],[93.8238,25.6962],[93.8138,25.694],[93.8072,25.6915],[93.7981,25.6883],[93.7896,25.6869],[93.7772,25.6849],[93.7654,25.6842],[93.7567,25.6849],[93.7494,25.6891],[93.743,25.6937],[93.7379,25.6963],[93.7352,25.6939],[93.7364,25.6863],[93.7333,25.6804],[93.7383,25.6729],[93.7404,25.6691],[93.7405,25.666],[93.7364,25.6642],[93.7318,25.6668],[93.727,25.6721],[93.7249,25.6749],[93.7223,25.6783],[93.7204,25.6789],[93.716,25.6788],[93.7133,25.6764],[93.7107,25.6744],[93.7047,25.678],[93.7027,25.6818],[93.6991,25.6843],[93.6889,25.6808],[93.6765,25.6788],[93.6724,25.6765],[93.6644,25.675],[93.6599,25.6745],[93.6536,25.6742],[93.6452,25.6731],[93.6383,25.6729],[93.6343,25.6675],[93.629,25.6635],[93.6241,25.663],[93.6224,25.6658],[93.6198,25.6692],[93.6174,25.6694],[93.6122,25.6663],[93.6051,25.6634],[93.5979,25.6649],[93.5927,25.6667],[93.5888,25.6666],[93.5869,25.6668],[93.5863,25.6699],[93.5849,25.6713],[93.5782,25.6724],[93.5722,25.6756],[93.5694,25.6807],[93.5591,25.6895],[93.5572,25.6946],[93.5536,25.698],[93.5492,25.6979],[93.5439,25.6993],[93.5445,25.7021],[93.546,25.7063],[93.5489,25.7109],[93.5498,25.7151],[93.5463,25.7177],[93.5456,25.7205],[93.5449,25.7231],[93.5468,25.7306],[93.55,25.7286],[93.557,25.7339],[93.5564,25.7381],[93.562,25.7371],[93.5655,25.7375],[93.5701,25.7479],[93.5693,25.7511],[93.5735,25.7527],[93.5739,25.7558],[93.5733,25.7569],[93.5838,25.7539],[93.5872,25.7556],[93.5872,25.7617],[93.5883,25.7643],[93.5927,25.7623],[93.5938,25.7604],[93.5984,25.7645],[93.6028,25.7669],[93.6056,25.7635],[93.6058,25.7687],[93.6081,25.7729],[93.6115,25.7726],[93.6224,25.7759],[93.6236,25.78],[93.6212,25.7813],[93.6239,25.7865],[93.627,25.7877],[93.6276,25.7947],[93.6299,25.796],[93.6291,25.8004],[93.6334,25.8013],[93.6341,25.806],[93.6362,25.8097],[93.6404,25.8095],[93.6411,25.814],[93.6444,25.8156],[93.6486,25.82],[93.6524,25.8188],[93.6568,25.8224],[93.6609,25.8204],[93.6687,25.8206],[93.6696,25.8248],[93.6726,25.8241],[93.6781,25.8248],[93.6829,25.8317],[93.6826,25.8367],[93.6921,25.8401],[93.6906,25.8435],[93.6938,25.8432],[93.6979,25.8473],[93.7036,25.8494],[93.7037,25.8456],[93.7024,25.8429],[93.7055,25.8446],[93.7065,25.8492],[93.691,25.8853],[93.686,25.9009],[93.6878,25.9054],[93.6978,25.9131],[93.7052,25.9173],[93.7127,25.9186],[93.7167,25.9177],[93.7291,25.9243],[93.7366,25.9265],[93.7502,25.9332],[93.752,25.9323],[93.7522,25.9355],[93.7495,25.938],[93.759,25.9446],[93.7629,25.9508],[93.7686,25.9509],[93.7704,25.9494],[93.7697,25.9539],[93.7732,25.9619],[93.7789,25.9591],[93.7804,25.9565],[93.7853,25.9542],[93.7867,25.9501],[93.7895,25.9484],[93.7893,25.9449],[93.7867,25.9433],[93.7895,25.9419],[93.7908,25.94],[93.7915,25.9359],[93.7934,25.9326],[93.7887,25.9288],[93.7933,25.9268],[93.7937,25.9219],[93.7923,25.9183],[93.7963,25.914],[93.7984,25.9055],[93.7981,25.9021],[93.7958,25.897],[93.7952,25.8938],[93.7919,25.8907],[93.7915,25.8859],[93.7875,25.8747],[93.7883,25.8715],[93.7906,25.8696],[93.7918,25.8655],[93.7858,25.8627],[93.7853,25.8591],[93.7814,25.8551],[93.7836,25.8497],[93.783,25.8472],[93.7838,25.8457],[93.7798,25.8421],[93.781,25.8404],[93.7825,25.834],[93.7845,25.8315],[93.7873,25.8237],[93.7887,25.8218],[93.7906,25.8166],[93.7912,25.8118],[93.7957,25.8101],[93.8075,25.8121],[93.8115,25.817],[93.8187,25.8219],[93.8213,25.8281],[93.8242,25.8428],[93.8327,25.8519],[93.8423,25.8583],[93.8516,25.8586],[93.8686,25.851],[93.8735,25.8465],[93.8826,25.8415],[93.8884,25.848],[93.8915,25.8542],[93.8933,25.8604],[93.8985,25.8593],[93.9017,25.8666],[93.9137,25.8773],[93.9158,25.8832],[93.9237,25.8853],[93.9345,25.8869],[93.94,25.8965],[93.9482,25.8967],[93.9597,25.9007],[93.9681,25.9063]]]},"properties":{"district_name":"Dimapur","raw_district_name":"Dimapur","state_code":"NL","state_name":"Nagaland","census_code":265,"data_source":"DataMeet India Maps (Census 2011 Boundaries)"}},{"type":"Feature","geometry":{"type":"Polygon","coordinates":[[[94.8804,26.0126],[94.8811,26.0108],[94.8907,26.0042],[94.8938,25.9998],[94.8943,25.999],[94.8932,25.9975],[94.8891,25.9981],[94.885,25.9985],[94.8821,25.9967],[94.8819,25.9929],[94.8815,25.9913],[94.878,25.9876],[94.8777,25.9849],[94.8728,25.9781],[94.8726,25.9765],[94.871,25.9729],[94.8679,25.9675],[94.8658,25.9618],[94.8643,25.9571],[94.8626,25.9551],[94.8585,25.9504],[94.859,25.9476],[94.8568,25.9438],[94.8548,25.9421],[94.8542,25.9389],[94.8521,25.9364],[94.8496,25.9356],[94.8483,25.9344],[94.8461,25.9314],[94.8453,25.9298],[94.8447,25.9266],[94.8451,25.9255],[94.8483,25.9249],[94.8526,25.9278],[94.8572,25.9319],[94.864,25.934],[94.8687,25.9362],[94.8738,25.9389],[94.879,25.9398],[94.8808,25.9399],[94.8892,25.9377],[94.9,25.9383],[94.905,25.9378],[94.9136,25.937],[94.9196,25.9399],[94.9212,25.9409],[94.925,25.9432],[94.9286,25.9431],[94.9312,25.9399],[94.9332,25.9365],[94.936,25.9349],[94.9394,25.9313],[94.9395,25.927],[94.9367,25.9232],[94.936,25.9173],[94.9426,25.9051],[94.9495,25.9004],[94.9538,25.8965],[94.9609,25.8961],[94.9684,25.8964],[94.9734,25.8905],[94.9736,25.8849],[94.9767,25.8781],[94.9779,25.8758],[94.9817,25.873],[94.9868,25.8731],[94.9925,25.8736],[94.9984,25.8779],[95.0043,25.8795],[95.013,25.8805],[95.0208,25.8806],[95.0208,25.8805],[95.0177,25.8778],[95.0142,25.8737],[95.014,25.865],[95.0168,25.8608],[95.02,25.8548],[95.0229,25.8514],[95.0261,25.8444],[95.0318,25.8395],[95.0328,25.8268],[95.0333,25.8198],[95.036,25.8131],[95.0388,25.8099],[95.0423,25.8059],[95.0479,25.8029],[95.0503,25.798],[95.05,25.792],[95.046,25.7805],[95.044,25.7756],[95.0441,25.7715],[95.051,25.7554],[95.0428,25.7461],[95.0391,25.7404],[95.0321,25.7343],[95.0256,25.7335],[95.0173,25.7313],[95.0078,25.7314],[95.0008,25.7255],[94.9977,25.7195],[94.9971,25.7146],[94.9916,25.7071],[94.9874,25.702],[94.9821,25.6972],[94.9783,25.6948],[94.9747,25.6924],[94.9716,25.6897],[94.9522,25.6764],[94.9413,25.6683],[94.936,25.662],[94.9335,25.6575],[94.9326,25.654],[94.931,25.647],[94.9282,25.6396],[94.925,25.6335],[94.9239,25.6253],[94.9206,25.6174],[94.9193,25.6078],[94.918,25.6041],[94.9156,25.6006],[94.9098,25.5963],[94.9018,25.5941],[94.8941,25.591],[94.8873,25.5861],[94.8816,25.5881],[94.8747,25.5986],[94.8714,25.6063],[94.8619,25.6094],[94.8556,25.6093],[94.8548,25.6106],[94.8538,25.6187],[94.8498,25.6336],[94.8503,25.65],[94.8526,25.6622],[94.8589,25.6854],[94.8612,25.7166],[94.8578,25.7241],[94.8372,25.7459],[94.8337,25.7524],[94.8067,25.7678],[94.7885,25.7764],[94.7715,25.7794],[94.7574,25.7802],[94.7547,25.7798],[94.7529,25.7787],[94.7515,25.7737],[94.7433,25.7703],[94.7419,25.7672],[94.7416,25.7621],[94.7371,25.7586],[94.7353,25.754],[94.7297,25.7531],[94.7306,25.7488],[94.726,25.7474],[94.7274,25.7413],[94.723,25.74],[94.7228,25.7338],[94.726,25.7315],[94.7271,25.7287],[94.7257,25.727],[94.7284,25.7257],[94.7292,25.7223],[94.7249,25.7209],[94.7197,25.7251],[94.7213,25.7271],[94.7199,25.737],[94.7195,25.742],[94.7202,25.7504],[94.7155,25.7576],[94.7101,25.7697],[94.701,25.7859],[94.6988,25.7885],[94.6831,25.8004],[94.666,25.8077],[94.6586,25.8121],[94.6481,25.8159],[94.6323,25.8142],[94.6234,25.8186],[94.6145,25.8161],[94.6126,25.8176],[94.6056,25.8283],[94.6128,25.8358],[94.6138,25.8388],[94.6129,25.8472],[94.6082,25.8544],[94.6043,25.8647],[94.5955,25.878],[94.5901,25.8826],[94.5792,25.8869],[94.5758,25.8921],[94.5762,25.8955],[94.5818,25.9029],[94.596,25.9158],[94.6017,25.9241],[94.6095,25.9317],[94.6122,25.9387],[94.6246,25.9518],[94.6548,25.9977],[94.658,26.0008],[94.6593,26.0051],[94.6624,26.0073],[94.6675,26.0136],[94.6715,26.0172],[94.6715,26.0172],[94.6772,26.0124],[94.6836,26.0107],[94.6871,26.0104],[94.6927,26.012],[94.6968,26.0119],[94.7016,26.0114],[94.7052,26.0121],[94.7092,26.0153],[94.7147,26.0191],[94.7243,26.0219],[94.7316,26.021],[94.7341,26.0194],[94.7369,26.0175],[94.7403,26.0164],[94.746,26.0191],[94.7495,26.0212],[94.7576,26.0212],[94.7657,26.0196],[94.7811,26.0103],[94.7851,26.0065],[94.7885,26.0053],[94.7952,26.0085],[94.8017,26.0111],[94.8072,26.0119],[94.8133,26.0154],[94.8161,26.0213],[94.8183,26.023],[94.8203,26.0245],[94.824,26.0246],[94.8352,26.0283],[94.8393,26.028],[94.844,26.0294],[94.8442,26.0312],[94.8472,26.0354],[94.8513,26.0347],[94.8538,26.0311],[94.8563,26.0282],[94.8599,26.0234],[94.8644,26.0192],[94.8644,26.0158],[94.8712,26.0133],[94.8745,26.0137],[94.8783,26.0137],[94.8795,26.0123],[94.8804,26.0126]]]},"properties":{"district_name":"Kiphire","raw_district_name":"Kiphire","state_code":"NL","state_name":"Nagaland","census_code":269,"data_source":"DataMeet India Maps (Census 2011 Boundaries)"}},{"type":"Feature","geometry":{"type":"Polygon","coordinates":[[[94.3592,26.0096],[94.3632,26.0052],[94.3644,26.0008],[94.3644,25.9949],[94.363,25.991],[94.3635,25.987],[94.356,25.9784],[94.3534,25.9771],[94.3521,25.9735],[94.3488,25.9689],[94.3428,25.9625],[94.3416,25.9577],[94.3425,25.9545],[94.3381,25.9519],[94.3374,25.9491],[94.3387,25.9472],[94.3547,25.9341],[94.3527,25.9286],[94.3534,25.9245],[94.3539,25.9238],[94.3439,25.9204],[94.3403,25.9167],[94.3392,25.9101],[94.3399,25.9022],[94.3354,25.8945],[94.3236,25.8818],[94.3228,25.8754],[94.3204,25.8714],[94.32,25.8676],[94.3113,25.8513],[94.3108,25.8484],[94.3066,25.8426],[94.3066,25.8415],[94.2993,25.8296],[94.2989,25.8262],[94.2958,25.8208],[94.2961,25.8155],[94.2975,25.8134],[94.2967,25.8092],[94.2892,25.8031],[94.2815,25.8006],[94.2786,25.7964],[94.2691,25.7794],[94.2637,25.765],[94.259,25.7564],[94.2505,25.7444],[94.238,25.7232],[94.2325,25.7108],[94.2311,25.6986],[94.2275,25.6927],[94.2199,25.6849],[94.2184,25.6823],[94.2156,25.6746],[94.2174,25.6687],[94.2183,25.6586],[94.2206,25.6566],[94.221,25.652],[94.217,25.6336],[94.2144,25.6321],[94.212,25.6318],[94.2107,25.6168],[94.2126,25.6139],[94.2141,25.6135],[94.2149,25.6094],[94.2104,25.5975],[94.2071,25.5938],[94.2018,25.586],[94.1951,25.5718],[94.1941,25.5649],[94.1989,25.5528],[94.1948,25.5477],[94.194,25.5471],[94.1909,25.5457],[94.1819,25.548],[94.1787,25.5449],[94.167,25.5418],[94.1626,25.5447],[94.1593,25.55],[94.152,25.5426],[94.151,25.5366],[94.1473,25.5265],[94.1444,25.5224],[94.1378,25.5185],[94.1276,25.5207],[94.1052,25.5238],[94.0913,25.5276],[94.0917,25.5329],[94.0954,25.5366],[94.0942,25.5414],[94.0852,25.5547],[94.0793,25.5566],[94.0687,25.554],[94.0639,25.5614],[94.0534,25.5718],[94.0453,25.576],[94.0429,25.5725],[94.0383,25.5749],[94.0385,25.5781],[94.0372,25.577],[94.0342,25.5766],[94.0327,25.5798],[94.0266,25.5831],[94.0249,25.5885],[94.0141,25.5913],[94.0097,25.5905],[94.007,25.5861],[94.0072,25.5827],[94.0111,25.5742],[94.0116,25.5704],[94.0109,25.5679],[94.0097,25.5664],[94.0068,25.565],[93.9999,25.569],[93.9798,25.5664],[93.9772,25.5614],[93.972,25.5564],[93.9646,25.5518],[93.9568,25.552],[93.9431,25.5586],[93.9437,25.5594],[93.947,25.5665],[93.9482,25.5695],[93.948,25.573],[93.9442,25.5784],[93.9424,25.584],[93.9427,25.5885],[93.939,25.5905],[93.9364,25.5912],[93.9328,25.5912],[93.9266,25.5925],[93.919,25.5972],[93.9177,25.5992],[93.9166,25.6012],[93.9161,25.6063],[93.9159,25.6072],[93.9164,25.6112],[93.9166,25.6131],[93.9175,25.6147],[93.9211,25.6165],[93.9239,25.6177],[93.9245,25.6181],[93.93,25.6188],[93.9334,25.6213],[93.9343,25.6243],[93.9346,25.6269],[93.9368,25.6281],[93.9386,25.6303],[93.9387,25.6332],[93.9368,25.635],[93.935,25.6359],[93.9334,25.6374],[93.9334,25.6398],[93.9345,25.6409],[93.9357,25.642],[93.9368,25.6428],[93.937,25.644],[93.9369,25.6457],[93.9351,25.6465],[93.9362,25.6481],[93.9372,25.6529],[93.9382,25.6577],[93.9361,25.6645],[93.9304,25.6712],[93.9258,25.6734],[93.9219,25.6777],[93.9172,25.6843],[93.9154,25.6902],[93.9153,25.6933],[93.9161,25.6959],[93.9193,25.6987],[93.9254,25.7008],[93.9281,25.7037],[93.9287,25.7089],[93.9319,25.7153],[93.9345,25.7213],[93.9373,25.7245],[93.9417,25.729],[93.9476,25.7294],[93.9558,25.7286],[93.9601,25.7282],[93.9634,25.731],[93.9686,25.7341],[93.9706,25.7344],[93.9741,25.7358],[93.9755,25.7397],[93.9771,25.7409],[93.9787,25.746],[93.9811,25.7502],[93.9819,25.7532],[93.9821,25.755],[93.9854,25.7582],[93.9877,25.7611],[93.9859,25.7626],[93.983,25.7633],[93.9835,25.7673],[93.9814,25.7705],[93.9841,25.773],[93.9847,25.7742],[93.9846,25.7773],[93.9848,25.7795],[93.9871,25.7829],[93.9886,25.7876],[93.9903,25.7892],[93.9921,25.7926],[93.9882,25.7969],[93.9876,25.8001],[93.9864,25.8028],[93.9823,25.8143],[93.9773,25.8222],[93.9736,25.8287],[93.9741,25.8375],[93.9748,25.8485],[93.974,25.8504],[93.9746,25.8556],[93.9753,25.8618],[93.9756,25.8644],[93.9801,25.8697],[93.9843,25.8729],[93.9905,25.8754],[93.9948,25.879],[93.999,25.8817],[93.9983,25.8845],[93.9941,25.8857],[93.9908,25.8869],[93.9883,25.8915],[93.9901,25.894],[93.9895,25.8972],[93.9861,25.8979],[93.9815,25.8957],[93.9771,25.8957],[93.9752,25.8963],[93.9705,25.898],[93.9682,25.9044],[93.9681,25.9063],[93.969,25.9069],[93.9718,25.913],[93.9792,25.9151],[93.9825,25.9217],[93.9883,25.9208],[93.9957,25.9209],[93.9987,25.9259],[93.9917,25.928],[93.9915,25.9297],[93.995,25.9294],[93.9966,25.9283],[94,25.93],[94.0051,25.9283],[94.0085,25.932],[94.0165,25.9358],[94.0368,25.938],[94.0468,25.9398],[94.0524,25.9446],[94.0604,25.9492],[94.0652,25.954],[94.0691,25.9532],[94.079,25.9619],[94.0845,25.9628],[94.0885,25.9647],[94.0979,25.9803],[94.1016,25.9831],[94.1071,25.9853],[94.1162,25.9858],[94.1257,25.9886],[94.1364,25.9894],[94.1579,25.9768],[94.165,25.9738],[94.1689,25.9737],[94.1729,25.9762],[94.1755,25.9799],[94.1867,25.9873],[94.1903,25.9878],[94.194,25.9869],[94.1989,25.9934],[94.2032,26.0005],[94.2092,26.0042],[94.2136,26.0116],[94.2126,26.016],[94.2159,26.0192],[94.2192,26.0244],[94.2221,26.0219],[94.2255,26.0165],[94.2322,26.0099],[94.239,26.0048],[94.2427,26.0037],[94.2586,26.0072],[94.2655,26.0069],[94.2772,26.0112],[94.2872,26.0088],[94.2948,26.0079],[94.3005,26.0074],[94.3062,26.0084],[94.3101,26.0131],[94.3144,26.0131],[94.317,26.0179],[94.323,26.0161],[94.3293,26.0042],[94.3327,26.0008],[94.3362,25.9972],[94.3397,25.9965],[94.3411,25.9974],[94.3444,26.0008],[94.3468,26.0031],[94.3548,26.0069],[94.3592,26.0096]]]},"properties":{"district_name":"Kohima","raw_district_name":"Kohima","state_code":"NL","state_name":"Nagaland","census_code":270,"data_source":"DataMeet India Maps (Census 2011 Boundaries)"}},{"type":"Feature","geometry":{"type":"Polygon","coordinates":[[[94.904,26.4389],[94.9032,26.4368],[94.9036,26.4351],[94.9053,26.4341],[94.9056,26.4316],[94.9055,26.4302],[94.9054,26.4278],[94.9031,26.4274],[94.901,26.4269],[94.8996,26.4254],[94.8988,26.4238],[94.899,26.4221],[94.9016,26.42],[94.902,26.4181],[94.903,26.4164],[94.9065,26.4142],[94.9068,26.4118],[94.9086,26.4101],[94.909,26.4094],[94.9095,26.4086],[94.9099,26.4054],[94.9097,26.4032],[94.9105,26.4015],[94.9116,26.4008],[94.9158,26.3997],[94.9177,26.398],[94.9182,26.3957],[94.9173,26.3936],[94.917,26.3922],[94.9183,26.3896],[94.9208,26.3868],[94.9217,26.3853],[94.9208,26.3831],[94.9187,26.3804],[94.917,26.3783],[94.9166,26.3765],[94.9166,26.3752],[94.917,26.373],[94.9169,26.3717],[94.9118,26.3722],[94.9109,26.3733],[94.9105,26.3731],[94.9054,26.3709],[94.9006,26.3714],[94.8924,26.3757],[94.8818,26.3771],[94.8742,26.3778],[94.8702,26.3773],[94.8612,26.3751],[94.8538,26.378],[94.8468,26.3805],[94.837,26.3875],[94.8283,26.3923],[94.8237,26.3984],[94.8204,26.404],[94.8164,26.4065],[94.813,26.4108],[94.8083,26.4125],[94.8024,26.4157],[94.7976,26.4205],[94.7919,26.4259],[94.7886,26.4262],[94.7842,26.4306],[94.7789,26.435],[94.7745,26.4345],[94.7718,26.4405],[94.7698,26.4442],[94.768,26.4496],[94.7643,26.4552],[94.7604,26.4555],[94.7548,26.457],[94.749,26.4575],[94.7415,26.4556],[94.7376,26.456],[94.7336,26.4542],[94.7313,26.4517],[94.7218,26.4491],[94.7174,26.4491],[94.7095,26.4439],[94.7077,26.4483],[94.7086,26.4529],[94.7033,26.4656],[94.7022,26.4682],[94.6937,26.4757],[94.6926,26.4793],[94.6964,26.4928],[94.6969,26.4995],[94.6943,26.5063],[94.6914,26.5238],[94.7028,26.5383],[94.714,26.5495],[94.7287,26.5674],[94.7308,26.5739],[94.7312,26.5827],[94.7355,26.5884],[94.7371,26.5952],[94.7345,26.6043],[94.7249,26.61],[94.7236,26.6148],[94.7247,26.6204],[94.7209,26.6263],[94.7117,26.6364],[94.6896,26.6417],[94.6795,26.6467],[94.6747,26.6468],[94.6704,26.648],[94.6732,26.6516],[94.6961,26.6634],[94.7004,26.6674],[94.7098,26.6741],[94.7189,26.6797],[94.7202,26.6841],[94.7264,26.694],[94.7272,26.6967],[94.7377,26.6986],[94.7478,26.6977],[94.7525,26.7016],[94.7521,26.716],[94.7512,26.7219],[94.7466,26.73],[94.7494,26.733],[94.756,26.7284],[94.76,26.7283],[94.7585,26.7335],[94.7545,26.7386],[94.7404,26.7484],[94.7401,26.7558],[94.7381,26.7636],[94.742,26.7684],[94.7427,26.7734],[94.7462,26.7769],[94.7511,26.7744],[94.7545,26.7691],[94.7567,26.767],[94.7597,26.7689],[94.7604,26.7714],[94.7627,26.7747],[94.7687,26.7781],[94.7694,26.7859],[94.7735,26.7897],[94.786,26.7933],[94.7911,26.7962],[94.7991,26.7941],[94.8046,26.7949],[94.8093,26.7947],[94.8144,26.7912],[94.8135,26.7865],[94.8169,26.7832],[94.8184,26.7794],[94.8087,26.7757],[94.8021,26.7745],[94.7973,26.7716],[94.7983,26.7674],[94.8053,26.7689],[94.8073,26.7669],[94.806,26.7631],[94.8033,26.7611],[94.8109,26.7446],[94.8134,26.7426],[94.8173,26.7429],[94.8209,26.7406],[94.8269,26.7315],[94.8278,26.728],[94.8353,26.7197],[94.8361,26.7174],[94.8284,26.7109],[94.8161,26.6967],[94.8091,26.6955],[94.808,26.6917],[94.8055,26.6912],[94.7981,26.6936],[94.7898,26.6982],[94.7852,26.6982],[94.7849,26.6939],[94.7909,26.6871],[94.7918,26.6834],[94.7889,26.6785],[94.7859,26.6756],[94.785,26.6707],[94.7866,26.6672],[94.7865,26.6645],[94.7831,26.6559],[94.7869,26.655],[94.7907,26.6505],[94.7901,26.6423],[94.7913,26.6347],[94.7953,26.6298],[94.8017,26.6303],[94.8066,26.6288],[94.8127,26.6245],[94.8328,26.6215],[94.8393,26.6193],[94.8471,26.6142],[94.8586,26.6104],[94.8661,26.6119],[94.8757,26.6095],[94.88,26.6095],[94.8842,26.612],[94.8903,26.6108],[94.8907,26.6052],[94.8946,26.603],[94.8913,26.5943],[94.8891,26.5915],[94.8961,26.5922],[94.885,26.5805],[94.8842,26.5752],[94.8862,26.5697],[94.8889,26.5653],[94.8867,26.5631],[94.8918,26.5598],[94.888,26.5541],[94.8891,26.55],[94.8925,26.5456],[94.8942,26.533],[94.8974,26.5259],[94.8954,26.5223],[94.8951,26.5169],[94.8952,26.5128],[94.8973,26.5078],[94.8991,26.5042],[94.8947,26.4971],[94.8944,26.4923],[94.8976,26.484],[94.8938,26.4789],[94.8986,26.4704],[94.9021,26.4663],[94.9051,26.4578],[94.9021,26.4453],[94.903,26.4395],[94.904,26.4389]]]},"properties":{"district_name":"Longleng","raw_district_name":"Longleng","state_code":"NL","state_name":"Nagaland","census_code":268,"data_source":"DataMeet India Maps (Census 2011 Boundaries)"}},{"type":"Feature","geometry":{"type":"Polygon","coordinates":[[[94.7095,26.4439],[94.7113,26.4395],[94.7062,26.425],[94.7055,26.4194],[94.7061,26.4124],[94.7008,26.4106],[94.6979,26.4103],[94.6936,26.4072],[94.6925,26.405],[94.69,26.4031],[94.6887,26.3974],[94.6784,26.3843],[94.6735,26.3827],[94.6704,26.3783],[94.6663,26.3786],[94.6622,26.3761],[94.6656,26.3715],[94.6651,26.369],[94.6569,26.3614],[94.655,26.3561],[94.6548,26.3527],[94.6562,26.3482],[94.6544,26.3476],[94.6529,26.3409],[94.65,26.3398],[94.6418,26.334],[94.6347,26.3343],[94.6315,26.3337],[94.6289,26.33],[94.6236,26.3275],[94.6111,26.3192],[94.5999,26.3085],[94.5974,26.3031],[94.5938,26.2983],[94.5889,26.2998],[94.584,26.2901],[94.5725,26.289],[94.5677,26.2836],[94.5651,26.2791],[94.5663,26.2701],[94.566,26.2642],[94.5649,26.2613],[94.5654,26.2558],[94.5768,26.2429],[94.5794,26.2385],[94.5881,26.2357],[94.5889,26.2281],[94.5885,26.2208],[94.5873,26.2185],[94.5799,26.2136],[94.5763,26.2097],[94.5695,26.2075],[94.5621,26.2036],[94.5504,26.2025],[94.5426,26.2073],[94.5351,26.2171],[94.5309,26.2122],[94.5241,26.2108],[94.5133,26.2124],[94.5058,26.2124],[94.5014,26.2146],[94.5005,26.2196],[94.5035,26.2236],[94.503,26.2272],[94.5039,26.2293],[94.5126,26.2328],[94.5146,26.2346],[94.5136,26.2379],[94.5107,26.2405],[94.5092,26.2454],[94.5046,26.2523],[94.5021,26.2638],[94.4997,26.2689],[94.493,26.2735],[94.4901,26.2796],[94.4897,26.2854],[94.4883,26.2899],[94.4776,26.2874],[94.4757,26.2835],[94.4749,26.2756],[94.4709,26.2728],[94.4634,26.2605],[94.4556,26.2435],[94.4582,26.2367],[94.4543,26.2264],[94.4504,26.2218],[94.4472,26.2143],[94.4476,26.2076],[94.4434,26.2043],[94.4371,26.2037],[94.4153,26.2112],[94.4105,26.2116],[94.3957,26.2014],[94.3884,26.1973],[94.3811,26.1944],[94.3702,26.1923],[94.3739,26.1952],[94.382,26.2061],[94.389,26.2204],[94.3877,26.2263],[94.3846,26.2278],[94.3786,26.2281],[94.3734,26.2319],[94.3633,26.2373],[94.3604,26.2414],[94.3558,26.2426],[94.3488,26.2413],[94.3431,26.239],[94.3408,26.2388],[94.338,26.2419],[94.3402,26.2451],[94.3436,26.2464],[94.348,26.2495],[94.351,26.2527],[94.3599,26.2683],[94.3609,26.272],[94.3608,26.2758],[94.3586,26.2896],[94.3582,26.2994],[94.3557,26.309],[94.3555,26.3149],[94.3679,26.3332],[94.3668,26.3375],[94.3648,26.3375],[94.3591,26.3363],[94.3571,26.3324],[94.353,26.3309],[94.3503,26.3327],[94.3503,26.335],[94.3556,26.3446],[94.3594,26.3577],[94.3563,26.3651],[94.355,26.371],[94.3486,26.3776],[94.345,26.3794],[94.3433,26.3812],[94.3348,26.3891],[94.3315,26.3963],[94.3306,26.4011],[94.328,26.4023],[94.3265,26.4002],[94.3166,26.3926],[94.3101,26.3834],[94.3059,26.3798],[94.3046,26.3815],[94.3063,26.3924],[94.3043,26.398],[94.3001,26.4039],[94.2965,26.407],[94.2939,26.4111],[94.2927,26.4184],[94.3015,26.4365],[94.3111,26.4471],[94.3171,26.4551],[94.3168,26.4582],[94.3246,26.466],[94.3251,26.4675],[94.3242,26.4747],[94.3296,26.4791],[94.3329,26.4803],[94.3373,26.4801],[94.3437,26.4853],[94.3499,26.4881],[94.3524,26.491],[94.3521,26.4944],[94.3539,26.4974],[94.3559,26.4987],[94.354,26.5001],[94.3514,26.5039],[94.3549,26.5055],[94.3591,26.5044],[94.3648,26.5056],[94.3696,26.5052],[94.3779,26.5083],[94.3784,26.5124],[94.3772,26.5184],[94.3786,26.5205],[94.3917,26.528],[94.3944,26.5278],[94.3969,26.5249],[94.3998,26.5275],[94.3992,26.5297],[94.4028,26.534],[94.4017,26.5393],[94.403,26.5421],[94.4071,26.5434],[94.4083,26.5449],[94.408,26.5476],[94.4051,26.5504],[94.4065,26.5526],[94.4093,26.5523],[94.4123,26.5536],[94.4109,26.5558],[94.4081,26.5566],[94.4097,26.5642],[94.4122,26.5686],[94.4152,26.5785],[94.4064,26.5972],[94.409,26.6051],[94.4083,26.6096],[94.4103,26.6117],[94.4349,26.6206],[94.455,26.6342],[94.4572,26.6318],[94.4629,26.6306],[94.4652,26.6339],[94.4649,26.6356],[94.4621,26.639],[94.4619,26.6433],[94.459,26.6506],[94.4623,26.6584],[94.465,26.6627],[94.4684,26.665],[94.4862,26.6689],[94.4932,26.6674],[94.4987,26.6689],[94.5035,26.6728],[94.5076,26.6781],[94.5104,26.6786],[94.516,26.6824],[94.5201,26.6897],[94.5206,26.6966],[94.5232,26.6995],[94.5282,26.6964],[94.5413,26.7047],[94.5455,26.706],[94.5508,26.7053],[94.5551,26.7035],[94.5616,26.7032],[94.5639,26.7024],[94.5652,26.7011],[94.5628,26.6889],[94.5634,26.6857],[94.5665,26.685],[94.5713,26.6851],[94.5751,26.686],[94.5719,26.6913],[94.5832,26.7006],[94.5858,26.6983],[94.5894,26.6974],[94.5928,26.6977],[94.5953,26.7016],[94.5954,26.7074],[94.5966,26.7132],[94.5987,26.7149],[94.6041,26.7112],[94.6051,26.7122],[94.6051,26.7148],[94.6036,26.7188],[94.6009,26.7203],[94.5938,26.7212],[94.5956,26.7249],[94.6004,26.7328],[94.6046,26.7343],[94.6105,26.7351],[94.6109,26.7309],[94.6124,26.7277],[94.6178,26.7255],[94.6205,26.7217],[94.6215,26.7161],[94.6231,26.7145],[94.6287,26.7136],[94.6324,26.7146],[94.6407,26.7189],[94.6466,26.7194],[94.6537,26.7185],[94.6589,26.7197],[94.6655,26.7226],[94.6869,26.7274],[94.6918,26.7306],[94.6972,26.7345],[94.7117,26.7476],[94.72,26.7528],[94.7322,26.7588],[94.7369,26.7622],[94.7381,26.7636],[94.7401,26.7558],[94.7404,26.7484],[94.7545,26.7386],[94.7585,26.7335],[94.76,26.7283],[94.756,26.7284],[94.7494,26.733],[94.7466,26.73],[94.7512,26.7219],[94.7521,26.716],[94.7525,26.7016],[94.7478,26.6977],[94.7377,26.6986],[94.7272,26.6967],[94.7264,26.694],[94.7202,26.6841],[94.7189,26.6797],[94.7098,26.6741],[94.7004,26.6674],[94.6961,26.6634],[94.6732,26.6516],[94.6704,26.648],[94.6747,26.6468],[94.6795,26.6467],[94.6896,26.6417],[94.7117,26.6364],[94.7209,26.6263],[94.7247,26.6204],[94.7236,26.6148],[94.7249,26.61],[94.7345,26.6043],[94.7371,26.5952],[94.7355,26.5884],[94.7312,26.5827],[94.7308,26.5739],[94.7287,26.5674],[94.714,26.5495],[94.7028,26.5383],[94.6914,26.5238],[94.6943,26.5063],[94.6969,26.4995],[94.6964,26.4928],[94.6926,26.4793],[94.6937,26.4757],[94.7022,26.4682],[94.7033,26.4656],[94.7086,26.4529],[94.7077,26.4483],[94.7095,26.4439]]]},"properties":{"district_name":"Mokokchung","raw_district_name":"Mokokchung","state_code":"NL","state_name":"Nagaland","census_code":262,"data_source":"DataMeet India Maps (Census 2011 Boundaries)"}},{"type":"Feature","geometry":{"type":"Polygon","coordinates":[[[95.2373,26.6798],[95.2342,26.6766],[95.2313,26.6712],[95.2277,26.6666],[95.2244,26.6611],[95.2191,26.6542],[95.2145,26.6492],[95.2095,26.6451],[95.2058,26.6427],[95.1966,26.641],[95.1909,26.6413],[95.1817,26.6369],[95.174,26.6278],[95.1711,26.6237],[95.158,26.6169],[95.1544,26.6131],[95.1534,26.6032],[95.1521,26.5955],[95.1518,26.5912],[95.1526,26.5872],[95.1558,26.5804],[95.1541,26.5744],[95.1483,26.5682],[95.1441,26.5615],[95.144,26.5566],[95.1381,26.5541],[95.1334,26.556],[95.1264,26.556],[95.1243,26.5502],[95.1209,26.5466],[95.1144,26.5416],[95.1186,26.5333],[95.1203,26.5281],[95.1203,26.5234],[95.1127,26.5123],[95.1064,26.5091],[95.103,26.5065],[95.1041,26.5027],[95.1019,26.4968],[95.0955,26.4921],[95.0905,26.4882],[95.0874,26.4843],[95.0835,26.4796],[95.0799,26.4754],[95.0755,26.4713],[95.0679,26.4718],[95.0625,26.4754],[95.0573,26.4769],[95.0543,26.474],[95.0492,26.4717],[95.045,26.4732],[95.0428,26.4814],[95.034,26.4806],[95.0217,26.477],[95.0197,26.4774],[95.0189,26.4814],[95.0063,26.4781],[94.9999,26.478],[94.9916,26.4812],[94.988,26.4815],[94.9863,26.4806],[94.9791,26.4734],[94.9673,26.4667],[94.9637,26.4593],[94.9433,26.4479],[94.9431,26.4478],[94.9413,26.4444],[94.9358,26.4398],[94.9184,26.434],[94.9116,26.434],[94.904,26.4389],[94.903,26.4395],[94.9021,26.4453],[94.9051,26.4578],[94.9021,26.4663],[94.8986,26.4704],[94.8938,26.4789],[94.8976,26.484],[94.8944,26.4923],[94.8947,26.4971],[94.8991,26.5042],[94.8973,26.5078],[94.8952,26.5128],[94.8951,26.5169],[94.8954,26.5223],[94.8974,26.5259],[94.8942,26.533],[94.8925,26.5456],[94.8891,26.55],[94.888,26.5541],[94.8918,26.5598],[94.8867,26.5631],[94.8889,26.5653],[94.8862,26.5697],[94.8842,26.5752],[94.885,26.5805],[94.8961,26.5922],[94.8891,26.5915],[94.8913,26.5943],[94.8946,26.603],[94.8907,26.6052],[94.8903,26.6108],[94.8842,26.612],[94.88,26.6095],[94.8757,26.6095],[94.8661,26.6119],[94.8586,26.6104],[94.8471,26.6142],[94.8393,26.6193],[94.8328,26.6215],[94.8127,26.6245],[94.8066,26.6288],[94.8017,26.6303],[94.7953,26.6298],[94.7913,26.6347],[94.7901,26.6423],[94.7907,26.6505],[94.7869,26.655],[94.7831,26.6559],[94.7865,26.6645],[94.7866,26.6672],[94.785,26.6707],[94.7859,26.6756],[94.7889,26.6785],[94.7918,26.6834],[94.7909,26.6871],[94.7849,26.6939],[94.7852,26.6982],[94.7898,26.6982],[94.7981,26.6936],[94.8055,26.6912],[94.808,26.6917],[94.8091,26.6955],[94.8161,26.6967],[94.8284,26.7109],[94.8361,26.7174],[94.8353,26.7197],[94.8278,26.728],[94.8269,26.7315],[94.8209,26.7406],[94.8173,26.7429],[94.8134,26.7426],[94.8109,26.7446],[94.8033,26.7611],[94.806,26.7631],[94.8073,26.7669],[94.8053,26.7689],[94.7983,26.7674],[94.7973,26.7716],[94.8021,26.7745],[94.8087,26.7757],[94.8184,26.7794],[94.8169,26.7832],[94.8135,26.7865],[94.8144,26.7912],[94.8093,26.7947],[94.8046,26.7949],[94.7991,26.7941],[94.7911,26.7962],[94.7953,26.7984],[94.8026,26.8008],[94.8057,26.8069],[94.802,26.8085],[94.797,26.8132],[94.8071,26.8159],[94.8096,26.818],[94.8134,26.8195],[94.8154,26.8247],[94.8158,26.8315],[94.8171,26.8362],[94.8215,26.8396],[94.8221,26.844],[94.8215,26.8492],[94.8267,26.854],[94.8327,26.8574],[94.8369,26.8632],[94.8392,26.8687],[94.8463,26.8715],[94.852,26.876],[94.8538,26.88],[94.8595,26.888],[94.8658,26.9016],[94.8691,26.9046],[94.8701,26.9097],[94.882,26.9214],[94.8867,26.9272],[94.895,26.932],[94.9018,26.935],[94.9093,26.9369],[94.9143,26.9372],[94.9185,26.9398],[94.9242,26.945],[94.9286,26.9467],[94.9341,26.9332],[94.939,26.9326],[94.9417,26.9339],[94.9475,26.9348],[94.9577,26.9381],[94.9646,26.9352],[94.9672,26.9307],[94.9684,26.926],[94.9711,26.9229],[94.9746,26.9221],[94.98,26.9191],[94.986,26.9127],[94.9898,26.9123],[94.9924,26.9128],[94.9915,26.9174],[94.9934,26.9206],[94.9998,26.9187],[95.0061,26.9193],[95.0169,26.9188],[95.0217,26.9198],[95.0289,26.9269],[95.0384,26.9329],[95.055,26.9352],[95.0657,26.9425],[95.0872,26.947],[95.1104,26.9612],[95.1135,26.9666],[95.1138,26.9719],[95.1173,26.978],[95.1267,26.9812],[95.1373,26.9878],[95.1431,26.9926],[95.1498,26.9941],[95.1548,27.0003],[95.1959,27.0372],[95.1961,27.0267],[95.1982,27.014],[95.1979,27.0099],[95.2004,27.0004],[95.2001,26.9935],[95.1965,26.9919],[95.1955,26.9841],[95.2007,26.9797],[95.208,26.9788],[95.2102,26.9767],[95.2054,26.9763],[95.2068,26.9729],[95.209,26.9692],[95.2153,26.9644],[95.2139,26.9622],[95.209,26.9594],[95.207,26.9566],[95.2087,26.9548],[95.2136,26.9528],[95.2094,26.9507],[95.2123,26.9374],[95.2146,26.9309],[95.2172,26.9282],[95.2257,26.9284],[95.2294,26.9246],[95.232,26.9201],[95.234,26.9145],[95.234,26.9127],[95.232,26.9118],[95.2322,26.9088],[95.2342,26.9036],[95.2338,26.8998],[95.2314,26.8922],[95.2339,26.8847],[95.23,26.8795],[95.2179,26.8808],[95.2129,26.8795],[95.2114,26.8756],[95.2065,26.8718],[95.1845,26.8588],[95.1858,26.8536],[95.1931,26.8451],[95.1956,26.8435],[95.1973,26.8433],[95.1977,26.8454],[95.2042,26.8428],[95.2086,26.8446],[95.2064,26.8401],[95.2005,26.8368],[95.199,26.8338],[95.2005,26.8268],[95.2026,26.8226],[95.2035,26.8152],[95.2068,26.8055],[95.215,26.7922],[95.2215,26.7873],[95.2273,26.7861],[95.2349,26.783],[95.2401,26.7829],[95.2416,26.7806],[95.2448,26.781],[95.2424,26.7782],[95.2345,26.7741],[95.2315,26.7714],[95.2331,26.7674],[95.233,26.7656],[95.229,26.7622],[95.2239,26.7554],[95.2199,26.7535],[95.2191,26.7492],[95.2212,26.7452],[95.2208,26.7411],[95.2166,26.735],[95.2159,26.729],[95.2279,26.7175],[95.2294,26.7105],[95.2358,26.7058],[95.2334,26.6907],[95.2357,26.6851],[95.2356,26.6818],[95.2373,26.6798]]]},"properties":{"district_name":"Mon","raw_district_name":"Mon","state_code":"NL","state_name":"Nagaland","census_code":261,"data_source":"DataMeet India Maps (Census 2011 Boundaries)"}},{"type":"Feature","geometry":{"type":"Polygon","coordinates":[[[93.9351,25.6465],[93.9369,25.6457],[93.937,25.644],[93.9368,25.6428],[93.9357,25.642],[93.9345,25.6409],[93.9334,25.6398],[93.9334,25.6374],[93.935,25.6359],[93.9368,25.635],[93.9387,25.6332],[93.9386,25.6303],[93.9368,25.6281],[93.9346,25.6269],[93.9343,25.6243],[93.9334,25.6213],[93.93,25.6188],[93.9245,25.6181],[93.9239,25.6177],[93.9211,25.6165],[93.9175,25.6147],[93.9166,25.6131],[93.9164,25.6112],[93.9159,25.6072],[93.9161,25.6063],[93.9166,25.6012],[93.9177,25.5992],[93.919,25.5972],[93.9266,25.5925],[93.9328,25.5912],[93.9364,25.5912],[93.939,25.5905],[93.9427,25.5885],[93.9424,25.584],[93.9442,25.5784],[93.948,25.573],[93.9482,25.5695],[93.947,25.5665],[93.9437,25.5594],[93.9431,25.5586],[93.9429,25.5587],[93.9295,25.5607],[93.9188,25.5593],[93.9165,25.562],[93.9103,25.5629],[93.9043,25.5628],[93.8997,25.5641],[93.8955,25.5639],[93.8914,25.5638],[93.8778,25.5574],[93.8617,25.553],[93.8518,25.5541],[93.8437,25.5572],[93.836,25.5586],[93.833,25.5569],[93.8328,25.5519],[93.8246,25.5515],[93.8229,25.5437],[93.8192,25.5399],[93.8154,25.541],[93.8074,25.5401],[93.779,25.5336],[93.7714,25.5364],[93.7702,25.5359],[93.7705,25.5316],[93.7685,25.5263],[93.7677,25.5209],[93.7688,25.5133],[93.7638,25.5111],[93.7653,25.4955],[93.7689,25.4924],[93.7729,25.4934],[93.788,25.502],[93.7967,25.4999],[93.8035,25.4945],[93.8071,25.4911],[93.8133,25.4802],[93.8084,25.4611],[93.8046,25.4589],[93.8018,25.4559],[93.7978,25.4494],[93.7932,25.4442],[93.7896,25.4389],[93.7875,25.4314],[93.7839,25.4275],[93.7799,25.425],[93.7805,25.4202],[93.7638,25.4137],[93.7597,25.4097],[93.7461,25.4013],[93.7414,25.3955],[93.7395,25.3908],[93.7407,25.385],[93.7392,25.38],[93.7304,25.376],[93.7225,25.3712],[93.7184,25.366],[93.7174,25.3572],[93.711,25.3537],[93.6994,25.3551],[93.6922,25.3573],[93.6908,25.3431],[93.6865,25.3269],[93.6833,25.3253],[93.6715,25.3244],[93.6733,25.313],[93.6723,25.3072],[93.6655,25.304],[93.6641,25.2999],[93.665,25.2941],[93.651,25.2747],[93.6507,25.2694],[93.6492,25.2648],[93.6429,25.2616],[93.6425,25.2557],[93.6374,25.2461],[93.6312,25.2387],[93.6282,25.2315],[93.6205,25.2207],[93.6119,25.202],[93.6073,25.1978],[93.6036,25.2001],[93.6004,25.1982],[93.5964,25.2001],[93.5924,25.1997],[93.5922,25.2025],[93.5942,25.2069],[93.5913,25.2097],[93.5896,25.2158],[93.5874,25.218],[93.5852,25.2181],[93.581,25.2219],[93.5776,25.2215],[93.5742,25.2234],[93.5702,25.2283],[93.5695,25.2315],[93.5625,25.2425],[93.5542,25.2464],[93.5466,25.2444],[93.5407,25.2413],[93.5288,25.2443],[93.5201,25.2448],[93.5159,25.2407],[93.5079,25.2397],[93.5046,25.2401],[93.5037,25.2494],[93.5103,25.2716],[93.5039,25.2718],[93.4944,25.2748],[93.4871,25.272],[93.4829,25.2727],[93.4763,25.2751],[93.4722,25.2815],[93.4742,25.2885],[93.4747,25.2958],[93.4736,25.3054],[93.4676,25.3099],[93.4628,25.316],[93.4563,25.3214],[93.4576,25.3262],[93.4616,25.3327],[93.4576,25.3371],[93.4516,25.3403],[93.4534,25.3443],[93.462,25.355],[93.4659,25.3579],[93.4779,25.376],[93.477,25.3821],[93.4736,25.3892],[93.4669,25.3992],[93.463,25.4071],[93.4652,25.412],[93.4649,25.4196],[93.4616,25.4309],[93.4567,25.4381],[93.4434,25.4468],[93.4348,25.451],[93.4274,25.4515],[93.4219,25.4511],[93.417,25.4491],[93.4028,25.4555],[93.3958,25.4604],[93.3903,25.4655],[93.3918,25.4705],[93.3909,25.4744],[93.3912,25.4778],[93.3904,25.482],[93.387,25.4867],[93.3863,25.4897],[93.383,25.4939],[93.3718,25.4975],[93.3711,25.5015],[93.3669,25.5042],[93.365,25.5065],[93.3668,25.5093],[93.3647,25.5126],[93.3601,25.5167],[93.3576,25.5241],[93.3542,25.5276],[93.3502,25.5301],[93.3524,25.534],[93.3493,25.5348],[93.3446,25.5325],[93.3405,25.5337],[93.3358,25.5419],[93.3318,25.5433],[93.3335,25.5455],[93.3413,25.5513],[93.3456,25.5576],[93.3484,25.5597],[93.3545,25.5616],[93.3608,25.5569],[93.3642,25.5571],[93.366,25.5597],[93.3652,25.5662],[93.3695,25.5667],[93.3735,25.5656],[93.376,25.5674],[93.3769,25.5701],[93.3765,25.5737],[93.3827,25.5726],[93.3848,25.5743],[93.3851,25.5776],[93.3832,25.5792],[93.3825,25.5811],[93.3907,25.5855],[93.3901,25.5911],[93.4003,25.5927],[93.4069,25.5928],[93.4093,25.5968],[93.4097,25.6005],[93.4073,25.6028],[93.4077,25.6058],[93.4091,25.608],[93.4123,25.61],[93.4169,25.6112],[93.4149,25.613],[93.4184,25.6174],[93.4225,25.6186],[93.4276,25.6278],[93.4311,25.6255],[93.4342,25.6262],[93.4392,25.6287],[93.4393,25.6307],[93.4416,25.6311],[93.4445,25.6343],[93.4469,25.6351],[93.45,25.6312],[93.452,25.6338],[93.4594,25.6294],[93.462,25.6297],[93.4613,25.6328],[93.4586,25.6347],[93.4572,25.6369],[93.4608,25.6378],[93.4656,25.6405],[93.4686,25.64],[93.4748,25.6405],[93.476,25.6442],[93.4834,25.642],[93.4836,25.648],[93.4873,25.6467],[93.4908,25.6497],[93.4902,25.6522],[93.494,25.6515],[93.5,25.6527],[93.5021,25.6582],[93.5083,25.663],[93.5102,25.6672],[93.5203,25.6799],[93.5194,25.6822],[93.5169,25.6843],[93.5228,25.6894],[93.526,25.6959],[93.5286,25.69],[93.5306,25.6889],[93.538,25.6994],[93.5436,25.6979],[93.5439,25.6993],[93.5492,25.6979],[93.5536,25.698],[93.5572,25.6946],[93.5591,25.6895],[93.5694,25.6807],[93.5722,25.6756],[93.5782,25.6724],[93.5849,25.6713],[93.5863,25.6699],[93.5869,25.6668],[93.5888,25.6666],[93.5927,25.6667],[93.5979,25.6649],[93.6051,25.6634],[93.6122,25.6663],[93.6174,25.6694],[93.6198,25.6692],[93.6224,25.6658],[93.6241,25.663],[93.629,25.6635],[93.6343,25.6675],[93.6383,25.6729],[93.6452,25.6731],[93.6536,25.6742],[93.6599,25.6745],[93.6644,25.675],[93.6724,25.6765],[93.6765,25.6788],[93.6889,25.6808],[93.6991,25.6843],[93.7027,25.6818],[93.7047,25.678],[93.7107,25.6744],[93.7133,25.6764],[93.716,25.6788],[93.7204,25.6789],[93.7223,25.6783],[93.7249,25.6749],[93.727,25.6721],[93.7318,25.6668],[93.7364,25.6642],[93.7405,25.666],[93.7404,25.6691],[93.7383,25.6729],[93.7333,25.6804],[93.7364,25.6863],[93.7352,25.6939],[93.7379,25.6963],[93.743,25.6937],[93.7494,25.6891],[93.7567,25.6849],[93.7654,25.6842],[93.7772,25.6849],[93.7896,25.6869],[93.7981,25.6883],[93.8072,25.6915],[93.8138,25.694],[93.8238,25.6962],[93.8351,25.6961],[93.8389,25.6958],[93.8432,25.6949],[93.8509,25.6894],[93.8589,25.6869],[93.8684,25.6838],[93.8755,25.673],[93.8786,25.6705],[93.8821,25.6662],[93.8871,25.6627],[93.8925,25.6591],[93.896,25.6593],[93.9025,25.6569],[93.9081,25.6546],[93.9134,25.6541],[93.9194,25.651],[93.9262,25.6499],[93.9345,25.6456],[93.9351,25.6465]]]},"properties":{"district_name":"Peren","raw_district_name":"Peren","state_code":"NL","state_name":"Nagaland","census_code":271,"data_source":"DataMeet India Maps (Census 2011 Boundaries)"}},{"type":"Feature","geometry":{"type":"Polygon","coordinates":[[[94.7155,25.7576],[94.7202,25.7504],[94.7195,25.742],[94.7199,25.737],[94.7213,25.7271],[94.7197,25.7251],[94.7249,25.7209],[94.7292,25.7223],[94.7284,25.7257],[94.7257,25.727],[94.7271,25.7287],[94.726,25.7315],[94.7228,25.7338],[94.723,25.74],[94.7274,25.7413],[94.726,25.7474],[94.7306,25.7488],[94.7297,25.7531],[94.7353,25.754],[94.7371,25.7586],[94.7416,25.7621],[94.7419,25.7672],[94.7433,25.7703],[94.7515,25.7737],[94.7529,25.7787],[94.7547,25.7798],[94.7574,25.7802],[94.7715,25.7794],[94.7885,25.7764],[94.8067,25.7678],[94.8337,25.7524],[94.8372,25.7459],[94.8578,25.7241],[94.8612,25.7166],[94.8589,25.6854],[94.8526,25.6622],[94.8503,25.65],[94.8498,25.6336],[94.8538,25.6187],[94.8548,25.6106],[94.8556,25.6093],[94.8619,25.6094],[94.8714,25.6063],[94.8747,25.5986],[94.8816,25.5881],[94.8873,25.5861],[94.886,25.5806],[94.8902,25.5751],[94.8954,25.5704],[94.9025,25.5641],[94.9033,25.5601],[94.8861,25.5584],[94.8558,25.5564],[94.8514,25.5564],[94.8418,25.5489],[94.8352,25.5436],[94.8323,25.5399],[94.8281,25.5315],[94.828,25.5261],[94.8272,25.5212],[94.8237,25.5141],[94.8204,25.5103],[94.8186,25.5068],[94.817,25.5],[94.8139,25.4931],[94.8108,25.4885],[94.8042,25.4865],[94.7954,25.4869],[94.7881,25.4844],[94.7828,25.4834],[94.7773,25.4775],[94.7711,25.4745],[94.7654,25.4757],[94.7629,25.4787],[94.7607,25.4848],[94.755,25.4853],[94.7538,25.4812],[94.7499,25.4758],[94.7449,25.4724],[94.7376,25.4701],[94.7293,25.468],[94.7202,25.4658],[94.713,25.4644],[94.7008,25.462],[94.6941,25.4615],[94.6871,25.4589],[94.6808,25.4532],[94.6682,25.4488],[94.6644,25.4489],[94.6572,25.4506],[94.6549,25.4521],[94.6467,25.4552],[94.6314,25.4592],[94.6238,25.4627],[94.606,25.4761],[94.5959,25.4799],[94.5934,25.4818],[94.5894,25.4835],[94.5858,25.4862],[94.5836,25.4906],[94.5732,25.499],[94.5668,25.5004],[94.556,25.5066],[94.5576,25.5182],[94.5599,25.5245],[94.5569,25.5287],[94.5621,25.5335],[94.5585,25.5395],[94.5616,25.5433],[94.5601,25.5543],[94.5633,25.5618],[94.5591,25.5618],[94.5602,25.5722],[94.5544,25.5797],[94.5583,25.588],[94.5639,25.5965],[94.5657,25.598],[94.5674,25.6016],[94.5716,25.6052],[94.5757,25.6142],[94.5773,25.6201],[94.5825,25.6283],[94.5893,25.6341],[94.5933,25.6365],[94.5939,25.6377],[94.5857,25.6404],[94.5749,25.6386],[94.576,25.6422],[94.5756,25.6467],[94.5801,25.6513],[94.5808,25.6545],[94.584,25.6556],[94.5822,25.6591],[94.5844,25.6639],[94.5862,25.6657],[94.5841,25.6687],[94.5869,25.6711],[94.5888,25.6751],[94.5958,25.6808],[94.5944,25.6852],[94.5859,25.6858],[94.5818,25.6871],[94.5775,25.6899],[94.5719,25.6916],[94.5669,25.6862],[94.5639,25.6748],[94.5511,25.6614],[94.5506,25.6564],[94.5436,25.6515],[94.5384,25.6451],[94.5304,25.6441],[94.5295,25.6366],[94.527,25.6383],[94.523,25.6374],[94.5133,25.6245],[94.5097,25.6239],[94.5075,25.6209],[94.5066,25.613],[94.5042,25.611],[94.5007,25.6141],[94.4988,25.6128],[94.4981,25.6105],[94.4923,25.6084],[94.49,25.6127],[94.49,25.6139],[94.4729,25.6157],[94.4481,25.5952],[94.4467,25.5922],[94.4431,25.5902],[94.4366,25.59],[94.4289,25.5869],[94.4245,25.5757],[94.4212,25.5702],[94.424,25.5672],[94.4252,25.5556],[94.4244,25.5471],[94.4191,25.5368],[94.4156,25.5361],[94.4097,25.5377],[94.4033,25.5351],[94.3874,25.5308],[94.3635,25.5158],[94.3279,25.5027],[94.3196,25.4936],[94.3124,25.4888],[94.3079,25.4882],[94.3015,25.489],[94.2979,25.4951],[94.2897,25.504],[94.2857,25.5062],[94.2788,25.4999],[94.2731,25.4975],[94.2659,25.4969],[94.2562,25.4979],[94.251,25.4936],[94.2307,25.4929],[94.2281,25.4906],[94.222,25.4914],[94.2189,25.4942],[94.2138,25.4949],[94.2118,25.4974],[94.2119,25.5028],[94.2059,25.5063],[94.2059,25.5086],[94.1983,25.5174],[94.1898,25.5255],[94.1892,25.5293],[94.193,25.5369],[94.194,25.5471],[94.1948,25.5477],[94.1989,25.5528],[94.1941,25.5649],[94.1951,25.5718],[94.2018,25.586],[94.2071,25.5938],[94.2104,25.5975],[94.2149,25.6094],[94.2141,25.6135],[94.2126,25.6139],[94.2107,25.6168],[94.212,25.6318],[94.2144,25.6321],[94.217,25.6336],[94.221,25.652],[94.2206,25.6566],[94.2183,25.6586],[94.2174,25.6687],[94.2156,25.6746],[94.2184,25.6823],[94.2199,25.6849],[94.2275,25.6927],[94.2311,25.6986],[94.2325,25.7108],[94.238,25.7232],[94.2505,25.7444],[94.259,25.7564],[94.2637,25.765],[94.2691,25.7794],[94.2786,25.7964],[94.2815,25.8006],[94.2892,25.8031],[94.2967,25.8092],[94.2975,25.8134],[94.2961,25.8155],[94.2958,25.8208],[94.2989,25.8262],[94.2993,25.8296],[94.3066,25.8415],[94.3066,25.8426],[94.3108,25.8484],[94.3113,25.8513],[94.32,25.8676],[94.3204,25.8714],[94.3228,25.8754],[94.3236,25.8818],[94.3354,25.8945],[94.3399,25.9022],[94.3392,25.9101],[94.3403,25.9167],[94.3439,25.9204],[94.3539,25.9238],[94.3548,25.9225],[94.3594,25.9211],[94.3705,25.9226],[94.3775,25.9191],[94.3969,25.9068],[94.4279,25.8967],[94.4422,25.8878],[94.4466,25.8825],[94.45,25.876],[94.4505,25.87],[94.455,25.8573],[94.4589,25.8529],[94.4651,25.8421],[94.4687,25.8306],[94.471,25.8296],[94.4793,25.8308],[94.4925,25.8309],[94.497,25.8296],[94.5048,25.8225],[94.5139,25.8185],[94.5172,25.8153],[94.5194,25.8165],[94.5214,25.8204],[94.5242,25.8219],[94.5304,25.8209],[94.5464,25.809],[94.546,25.8012],[94.5417,25.7942],[94.5367,25.7834],[94.5423,25.78],[94.5452,25.7805],[94.5588,25.7771],[94.5676,25.7769],[94.5919,25.7795],[94.593,25.7788],[94.5976,25.7791],[94.6028,25.777],[94.6038,25.775],[94.6101,25.7767],[94.6134,25.7792],[94.6188,25.7759],[94.6242,25.7697],[94.6315,25.7673],[94.6399,25.7671],[94.6448,25.77],[94.6481,25.7739],[94.6546,25.7761],[94.6631,25.7753],[94.6886,25.7629],[94.7018,25.7583],[94.7122,25.7571],[94.7155,25.7576]]]},"properties":{"district_name":"Phek","raw_district_name":"Phek","state_code":"NL","state_name":"Nagaland","census_code":266,"data_source":"DataMeet India Maps (Census 2011 Boundaries)"}},{"type":"Feature","geometry":{"type":"Polygon","coordinates":[[[95.0755,26.4713],[95.0749,26.467],[95.0715,26.463],[95.0683,26.4603],[95.0667,26.4552],[95.0658,26.4504],[95.0659,26.444],[95.0712,26.444],[95.0745,26.446],[95.0811,26.4468],[95.0864,26.4456],[95.09,26.4408],[95.0962,26.4329],[95.0994,26.4295],[95.1009,26.4262],[95.1056,26.4235],[95.1081,26.4172],[95.1071,26.4123],[95.1052,26.4085],[95.1048,26.4045],[95.1043,26.3999],[95.1041,26.3947],[95.121,26.3914],[95.1243,26.3889],[95.1301,26.384],[95.135,26.3812],[95.1352,26.3766],[95.1339,26.369],[95.1312,26.36],[95.129,26.3554],[95.1275,26.348],[95.1309,26.3398],[95.1327,26.3359],[95.1267,26.3292],[95.1272,26.324],[95.1279,26.3186],[95.1286,26.3149],[95.1291,26.3105],[95.1304,26.3006],[95.1307,26.2958],[95.13,26.2898],[95.1303,26.2857],[95.1289,26.282],[95.1262,26.2782],[95.1204,26.2726],[95.1198,26.2681],[95.1218,26.2619],[95.124,26.2575],[95.1278,26.2534],[95.1287,26.2494],[95.1274,26.2458],[95.1248,26.239],[95.122,26.2358],[95.1203,26.2319],[95.1222,26.2262],[95.1274,26.2227],[95.1322,26.2188],[95.1396,26.2113],[95.1415,26.2073],[95.1372,26.2024],[95.1332,26.2008],[95.1273,26.1963],[95.1237,26.1898],[95.1267,26.1871],[95.1248,26.1758],[95.1219,26.1695],[95.1192,26.1654],[95.117,26.1621],[95.1158,26.1561],[95.1194,26.1482],[95.1227,26.1422],[95.1268,26.13],[95.1242,26.1244],[95.1221,26.1207],[95.1198,26.115],[95.1194,26.1028],[95.1221,26.0972],[95.1255,26.094],[95.1303,26.0933],[95.1369,26.0955],[95.143,26.0939],[95.1468,26.0909],[95.1504,26.0878],[95.1563,26.0891],[95.1647,26.0919],[95.1698,26.0897],[95.1758,26.0851],[95.1789,26.0827],[95.1841,26.0775],[95.1844,26.0732],[95.1823,26.0673],[95.179,26.0641],[95.1763,26.0604],[95.1718,26.0546],[95.1668,26.0506],[95.1643,26.0462],[95.1639,26.0374],[95.1637,26.0317],[95.1634,26.0278],[95.1613,26.0242],[95.1476,26.0116],[95.1413,26.0037],[95.1394,25.9993],[95.1353,25.997],[95.1302,25.993],[95.1266,25.9881],[95.1162,25.9806],[95.1088,25.9686],[95.1051,25.961],[95.092,25.9544],[95.0871,25.9505],[95.0776,25.9438],[95.0721,25.942],[95.0642,25.9407],[95.0561,25.94],[95.0517,25.9375],[95.0486,25.9322],[95.0436,25.9278],[95.0354,25.9281],[95.0345,25.9245],[95.035,25.9201],[95.0318,25.9174],[95.0267,25.9129],[95.0205,25.903],[95.02,25.9017],[95.0187,25.8987],[95.018,25.894],[95.0189,25.8875],[95.0208,25.8806],[95.013,25.8805],[95.0043,25.8795],[94.9984,25.8779],[94.9925,25.8736],[94.9868,25.8731],[94.9817,25.873],[94.9779,25.8758],[94.9767,25.8781],[94.9736,25.8849],[94.9734,25.8905],[94.9684,25.8964],[94.9609,25.8961],[94.9538,25.8965],[94.9495,25.9004],[94.9426,25.9051],[94.936,25.9173],[94.9367,25.9232],[94.9395,25.927],[94.9394,25.9313],[94.936,25.9349],[94.9332,25.9365],[94.9312,25.9399],[94.9286,25.9431],[94.925,25.9432],[94.9212,25.9409],[94.9196,25.9399],[94.9136,25.937],[94.905,25.9378],[94.9,25.9383],[94.8892,25.9377],[94.8808,25.9399],[94.879,25.9398],[94.8738,25.9389],[94.8687,25.9362],[94.864,25.934],[94.8572,25.9319],[94.8526,25.9278],[94.8483,25.9249],[94.8451,25.9255],[94.8447,25.9266],[94.8453,25.9298],[94.8461,25.9314],[94.8483,25.9344],[94.8496,25.9356],[94.8521,25.9364],[94.8542,25.9389],[94.8548,25.9421],[94.8568,25.9438],[94.859,25.9476],[94.8585,25.9504],[94.8626,25.9551],[94.8643,25.9571],[94.8658,25.9618],[94.8679,25.9675],[94.871,25.9729],[94.8726,25.9765],[94.8728,25.9781],[94.8777,25.9849],[94.878,25.9876],[94.8815,25.9913],[94.8819,25.9929],[94.8821,25.9967],[94.885,25.9985],[94.8891,25.9981],[94.8932,25.9975],[94.8943,25.999],[94.8938,25.9998],[94.8907,26.0042],[94.8811,26.0108],[94.8804,26.0126],[94.8795,26.0123],[94.8783,26.0137],[94.8745,26.0137],[94.8712,26.0133],[94.8644,26.0158],[94.8644,26.0192],[94.8599,26.0234],[94.8563,26.0282],[94.8538,26.0311],[94.8513,26.0347],[94.8472,26.0354],[94.8442,26.0312],[94.844,26.0294],[94.8393,26.028],[94.8352,26.0283],[94.824,26.0246],[94.8203,26.0245],[94.8183,26.023],[94.8161,26.0213],[94.8133,26.0154],[94.8072,26.0119],[94.8017,26.0111],[94.7952,26.0085],[94.7885,26.0053],[94.7851,26.0065],[94.7811,26.0103],[94.7657,26.0196],[94.7576,26.0212],[94.7495,26.0212],[94.746,26.0191],[94.7403,26.0164],[94.7369,26.0175],[94.7341,26.0194],[94.7316,26.021],[94.7243,26.0219],[94.7147,26.0191],[94.7092,26.0153],[94.7052,26.0121],[94.7016,26.0114],[94.6968,26.0119],[94.6927,26.012],[94.6871,26.0104],[94.6836,26.0107],[94.6772,26.0124],[94.6715,26.0172],[94.6784,26.0278],[94.6859,26.0356],[94.6945,26.041],[94.699,26.045],[94.7054,26.0519],[94.7021,26.0635],[94.7009,26.0676],[94.6963,26.0725],[94.6934,26.0886],[94.6901,26.0978],[94.6905,26.1032],[94.6887,26.1175],[94.6894,26.1291],[94.6918,26.1378],[94.7016,26.1492],[94.7035,26.1559],[94.7045,26.1721],[94.7003,26.1712],[94.6979,26.1812],[94.6931,26.1929],[94.6822,26.1993],[94.6747,26.2075],[94.6687,26.2088],[94.6616,26.2025],[94.656,26.2039],[94.6477,26.2133],[94.6425,26.218],[94.6347,26.2075],[94.63,26.203],[94.6225,26.1988],[94.6139,26.1971],[94.6093,26.1977],[94.6059,26.1986],[94.597,26.205],[94.5886,26.2138],[94.5873,26.2185],[94.5885,26.2208],[94.5889,26.2281],[94.5881,26.2357],[94.5794,26.2385],[94.5768,26.2429],[94.5654,26.2558],[94.5649,26.2613],[94.566,26.2642],[94.5663,26.2701],[94.5651,26.2791],[94.5677,26.2836],[94.5725,26.289],[94.584,26.2901],[94.5889,26.2998],[94.5938,26.2983],[94.5974,26.3031],[94.5999,26.3085],[94.6111,26.3192],[94.6236,26.3275],[94.6289,26.33],[94.6315,26.3337],[94.6347,26.3343],[94.6418,26.334],[94.65,26.3398],[94.6529,26.3409],[94.6544,26.3476],[94.6562,26.3482],[94.6548,26.3527],[94.655,26.3561],[94.6569,26.3614],[94.6651,26.369],[94.6656,26.3715],[94.6622,26.3761],[94.6663,26.3786],[94.6704,26.3783],[94.6735,26.3827],[94.6784,26.3843],[94.6887,26.3974],[94.69,26.4031],[94.6925,26.405],[94.6936,26.4072],[94.6979,26.4103],[94.7008,26.4106],[94.7061,26.4124],[94.7055,26.4194],[94.7062,26.425],[94.7113,26.4395],[94.7095,26.4439],[94.7174,26.4491],[94.7218,26.4491],[94.7313,26.4517],[94.7336,26.4542],[94.7376,26.456],[94.7415,26.4556],[94.749,26.4575],[94.7548,26.457],[94.7604,26.4555],[94.7643,26.4552],[94.768,26.4496],[94.7698,26.4442],[94.7718,26.4405],[94.7745,26.4345],[94.7789,26.435],[94.7842,26.4306],[94.7886,26.4262],[94.7919,26.4259],[94.7976,26.4205],[94.8024,26.4157],[94.8083,26.4125],[94.813,26.4108],[94.8164,26.4065],[94.8204,26.404],[94.8237,26.3984],[94.8283,26.3923],[94.837,26.3875],[94.8468,26.3805],[94.8538,26.378],[94.8612,26.3751],[94.8702,26.3773],[94.8742,26.3778],[94.8818,26.3771],[94.8924,26.3757],[94.9006,26.3714],[94.9054,26.3709],[94.9105,26.3731],[94.9109,26.3733],[94.9118,26.3722],[94.9169,26.3717],[94.917,26.373],[94.9166,26.3752],[94.9166,26.3765],[94.917,26.3783],[94.9187,26.3804],[94.9208,26.3831],[94.9217,26.3853],[94.9208,26.3868],[94.9183,26.3896],[94.917,26.3922],[94.9173,26.3936],[94.9182,26.3957],[94.9177,26.398],[94.9158,26.3997],[94.9116,26.4008],[94.9105,26.4015],[94.9097,26.4032],[94.9099,26.4054],[94.9095,26.4086],[94.909,26.4094],[94.9086,26.4101],[94.9068,26.4118],[94.9065,26.4142],[94.903,26.4164],[94.902,26.4181],[94.9016,26.42],[94.899,26.4221],[94.8988,26.4238],[94.8996,26.4254],[94.901,26.4269],[94.9031,26.4274],[94.9054,26.4278],[94.9055,26.4302],[94.9056,26.4316],[94.9053,26.4341],[94.9036,26.4351],[94.9032,26.4368],[94.904,26.4389],[94.9116,26.434],[94.9184,26.434],[94.9358,26.4398],[94.9413,26.4444],[94.9431,26.4478],[94.9433,26.4479],[94.9637,26.4593],[94.9673,26.4667],[94.9791,26.4734],[94.9863,26.4806],[94.988,26.4815],[94.9916,26.4812],[94.9999,26.478],[95.0063,26.4781],[95.0189,26.4814],[95.0197,26.4774],[95.0217,26.477],[95.034,26.4806],[95.0428,26.4814],[95.045,26.4732],[95.0492,26.4717],[95.0543,26.474],[95.0573,26.4769],[95.0625,26.4754],[95.0679,26.4718],[95.0755,26.4713]]]},"properties":{"district_name":"Tuensang","raw_district_name":"Tuensang","state_code":"NL","state_name":"Nagaland","census_code":267,"data_source":"DataMeet India Maps (Census 2011 Boundaries)"}},{"type":"Feature","geometry":{"type":"Polygon","coordinates":[[[94.3168,26.4582],[94.3171,26.4551],[94.3111,26.4471],[94.3015,26.4365],[94.2927,26.4184],[94.2939,26.4111],[94.2965,26.407],[94.3001,26.4039],[94.3043,26.398],[94.3063,26.3924],[94.3046,26.3815],[94.3059,26.3798],[94.3101,26.3834],[94.3166,26.3926],[94.3265,26.4002],[94.328,26.4023],[94.3306,26.4011],[94.3315,26.3963],[94.3348,26.3891],[94.3433,26.3812],[94.345,26.3794],[94.3486,26.3776],[94.355,26.371],[94.3563,26.3651],[94.3594,26.3577],[94.3556,26.3446],[94.3503,26.335],[94.3503,26.3327],[94.353,26.3309],[94.3571,26.3324],[94.3591,26.3363],[94.3648,26.3375],[94.3668,26.3375],[94.3679,26.3332],[94.3555,26.3149],[94.3557,26.309],[94.3582,26.2994],[94.3586,26.2896],[94.3608,26.2758],[94.3609,26.272],[94.3599,26.2683],[94.351,26.2527],[94.348,26.2495],[94.3436,26.2464],[94.3402,26.2451],[94.338,26.2419],[94.3408,26.2388],[94.3431,26.239],[94.3488,26.2413],[94.3558,26.2426],[94.3604,26.2414],[94.3633,26.2373],[94.3734,26.2319],[94.3786,26.2281],[94.3846,26.2278],[94.3877,26.2263],[94.389,26.2204],[94.382,26.2061],[94.3739,26.1952],[94.3702,26.1923],[94.3629,26.1887],[94.3561,26.1872],[94.3495,26.1815],[94.3457,26.1797],[94.3376,26.179],[94.3383,26.1747],[94.3414,26.1707],[94.3516,26.1709],[94.351,26.166],[94.3494,26.1633],[94.3538,26.1544],[94.3625,26.1463],[94.3665,26.1378],[94.3785,26.1311],[94.3866,26.1224],[94.3897,26.1146],[94.3889,26.1118],[94.3856,26.1078],[94.3829,26.0995],[94.3861,26.0898],[94.3883,26.086],[94.3908,26.0841],[94.3908,26.0812],[94.389,26.0781],[94.3881,26.0737],[94.3854,26.0719],[94.3809,26.0656],[94.379,26.059],[94.3772,26.0553],[94.3744,26.0533],[94.3718,26.0434],[94.3675,26.0348],[94.362,26.0268],[94.3634,26.0262],[94.3611,26.0199],[94.3607,26.0144],[94.3592,26.0096],[94.3548,26.0069],[94.3468,26.0031],[94.3444,26.0008],[94.3411,25.9974],[94.3397,25.9965],[94.3362,25.9972],[94.3327,26.0008],[94.3293,26.0042],[94.323,26.0161],[94.317,26.0179],[94.3144,26.0131],[94.3101,26.0131],[94.3062,26.0084],[94.3005,26.0074],[94.2948,26.0079],[94.2872,26.0088],[94.2772,26.0112],[94.2655,26.0069],[94.2586,26.0072],[94.2427,26.0037],[94.239,26.0048],[94.2322,26.0099],[94.2255,26.0165],[94.2221,26.0219],[94.2192,26.0244],[94.2159,26.0192],[94.2126,26.016],[94.2136,26.0116],[94.2092,26.0042],[94.2032,26.0005],[94.1989,25.9934],[94.194,25.9869],[94.1903,25.9878],[94.1867,25.9873],[94.1755,25.9799],[94.1729,25.9762],[94.1689,25.9737],[94.165,25.9738],[94.1579,25.9768],[94.1364,25.9894],[94.1257,25.9886],[94.1162,25.9858],[94.1071,25.9853],[94.1016,25.9831],[94.0979,25.9803],[94.0885,25.9647],[94.0845,25.9628],[94.079,25.9619],[94.0691,25.9532],[94.0652,25.954],[94.0604,25.9492],[94.0524,25.9446],[94.0468,25.9398],[94.0368,25.938],[94.0165,25.9358],[94.0085,25.932],[94.0051,25.9283],[94,25.93],[93.9966,25.9283],[93.995,25.9294],[93.9915,25.9297],[93.9917,25.928],[93.9987,25.9259],[93.9957,25.9209],[93.9883,25.9208],[93.9825,25.9217],[93.971,25.9403],[93.9708,25.9487],[93.9691,25.9563],[93.956,25.9697],[93.958,25.9771],[93.9606,25.9926],[93.959,25.998],[93.956,26.0001],[93.9549,26.0029],[93.9584,26.0075],[93.9627,26.0177],[93.9631,26.0289],[93.9659,26.038],[93.9727,26.0405],[93.9745,26.0477],[93.9809,26.0542],[93.9912,26.0682],[93.9895,26.0697],[93.9861,26.0791],[93.9865,26.0839],[93.9911,26.0851],[93.9926,26.0883],[93.9923,26.0934],[93.9942,26.1017],[93.9997,26.104],[94.0023,26.1069],[94.0022,26.1104],[94,26.1115],[93.9951,26.1113],[93.9914,26.1137],[93.9929,26.1159],[93.9966,26.1179],[93.9967,26.1237],[93.9985,26.1249],[93.9985,26.1266],[93.9934,26.1284],[93.9909,26.1295],[93.9934,26.133],[93.9964,26.133],[93.9998,26.1321],[94.0032,26.1346],[94.0054,26.1374],[94.0065,26.1428],[94.0031,26.1469],[93.9998,26.1538],[94.0045,26.1597],[94.0041,26.165],[94.005,26.1689],[94.009,26.1761],[94.0132,26.1819],[94.0221,26.1871],[94.0268,26.1927],[94.0313,26.195],[94.0359,26.1988],[94.037,26.2053],[94.0368,26.2133],[94.0407,26.2191],[94.0384,26.2251],[94.042,26.2295],[94.0445,26.2356],[94.0494,26.2458],[94.0531,26.2514],[94.0649,26.2573],[94.0707,26.2556],[94.0763,26.2648],[94.0781,26.2709],[94.0771,26.2808],[94.0803,26.2844],[94.0847,26.2842],[94.0875,26.286],[94.0906,26.2927],[94.0984,26.2985],[94.103,26.3042],[94.1048,26.3176],[94.1084,26.3219],[94.1116,26.3216],[94.1187,26.3182],[94.129,26.3187],[94.1197,26.326],[94.1197,26.3292],[94.1243,26.3314],[94.136,26.3337],[94.1391,26.337],[94.1429,26.3376],[94.1441,26.3357],[94.1425,26.3315],[94.147,26.3309],[94.1496,26.3346],[94.1548,26.3354],[94.1648,26.3348],[94.1724,26.3398],[94.1758,26.3397],[94.1796,26.3463],[94.1803,26.3495],[94.1756,26.3506],[94.1697,26.3495],[94.168,26.3488],[94.1648,26.3556],[94.1739,26.363],[94.1759,26.3672],[94.1758,26.3699],[94.1744,26.3733],[94.1794,26.3842],[94.1773,26.395],[94.1772,26.4089],[94.1744,26.4164],[94.1769,26.4236],[94.1762,26.4273],[94.187,26.456],[94.2015,26.4654],[94.2098,26.4792],[94.2119,26.4854],[94.2241,26.4961],[94.2294,26.4988],[94.2404,26.5069],[94.2453,26.5124],[94.2525,26.5232],[94.2538,26.528],[94.2631,26.5394],[94.2772,26.5543],[94.2828,26.559],[94.2903,26.5595],[94.2894,26.5553],[94.2858,26.5537],[94.2853,26.5508],[94.2861,26.542],[94.2854,26.5357],[94.2861,26.5295],[94.2895,26.5206],[94.2892,26.5137],[94.2875,26.5103],[94.2876,26.5039],[94.2906,26.4913],[94.2928,26.4854],[94.2943,26.4761],[94.3036,26.4626],[94.3113,26.4614],[94.3138,26.4603],[94.3168,26.4582]]]},"properties":{"district_name":"Wokha","raw_district_name":"Wokha","state_code":"NL","state_name":"Nagaland","census_code":264,"data_source":"DataMeet India Maps (Census 2011 Boundaries)"}},{"type":"Feature","geometry":{"type":"Polygon","coordinates":[[[94.5873,26.2185],[94.5886,26.2138],[94.597,26.205],[94.6059,26.1986],[94.6093,26.1977],[94.6139,26.1971],[94.6225,26.1988],[94.63,26.203],[94.6347,26.2075],[94.6425,26.218],[94.6477,26.2133],[94.656,26.2039],[94.6616,26.2025],[94.6687,26.2088],[94.6747,26.2075],[94.6822,26.1993],[94.6931,26.1929],[94.6979,26.1812],[94.7003,26.1712],[94.7045,26.1721],[94.7035,26.1559],[94.7016,26.1492],[94.6918,26.1378],[94.6894,26.1291],[94.6887,26.1175],[94.6905,26.1032],[94.6901,26.0978],[94.6934,26.0886],[94.6963,26.0725],[94.7009,26.0676],[94.7021,26.0635],[94.7054,26.0519],[94.699,26.045],[94.6945,26.041],[94.6859,26.0356],[94.6784,26.0278],[94.6715,26.0172],[94.6715,26.0172],[94.6675,26.0136],[94.6624,26.0073],[94.6593,26.0051],[94.658,26.0008],[94.6548,25.9977],[94.6246,25.9518],[94.6122,25.9387],[94.6095,25.9317],[94.6017,25.9241],[94.596,25.9158],[94.5818,25.9029],[94.5762,25.8955],[94.5758,25.8921],[94.5792,25.8869],[94.5901,25.8826],[94.5955,25.878],[94.6043,25.8647],[94.6082,25.8544],[94.6129,25.8472],[94.6138,25.8388],[94.6128,25.8358],[94.6056,25.8283],[94.6126,25.8176],[94.6145,25.8161],[94.6234,25.8186],[94.6323,25.8142],[94.6481,25.8159],[94.6586,25.8121],[94.666,25.8077],[94.6831,25.8004],[94.6988,25.7885],[94.701,25.7859],[94.7101,25.7697],[94.7155,25.7576],[94.7122,25.7571],[94.7018,25.7583],[94.6886,25.7629],[94.6631,25.7753],[94.6546,25.7761],[94.6481,25.7739],[94.6448,25.77],[94.6399,25.7671],[94.6315,25.7673],[94.6242,25.7697],[94.6188,25.7759],[94.6134,25.7792],[94.6101,25.7767],[94.6038,25.775],[94.6028,25.777],[94.5976,25.7791],[94.593,25.7788],[94.5919,25.7795],[94.5676,25.7769],[94.5588,25.7771],[94.5452,25.7805],[94.5423,25.78],[94.5367,25.7834],[94.5417,25.7942],[94.546,25.8012],[94.5464,25.809],[94.5304,25.8209],[94.5242,25.8219],[94.5214,25.8204],[94.5194,25.8165],[94.5172,25.8153],[94.5139,25.8185],[94.5048,25.8225],[94.497,25.8296],[94.4925,25.8309],[94.4793,25.8308],[94.471,25.8296],[94.4687,25.8306],[94.4651,25.8421],[94.4589,25.8529],[94.455,25.8573],[94.4505,25.87],[94.45,25.876],[94.4466,25.8825],[94.4422,25.8878],[94.4279,25.8967],[94.3969,25.9068],[94.3775,25.9191],[94.3705,25.9226],[94.3594,25.9211],[94.3548,25.9225],[94.3539,25.9238],[94.3534,25.9245],[94.3527,25.9286],[94.3547,25.9341],[94.3387,25.9472],[94.3374,25.9491],[94.3381,25.9519],[94.3425,25.9545],[94.3416,25.9577],[94.3428,25.9625],[94.3488,25.9689],[94.3521,25.9735],[94.3534,25.9771],[94.356,25.9784],[94.3635,25.987],[94.363,25.991],[94.3644,25.9949],[94.3644,26.0008],[94.3632,26.0052],[94.3592,26.0096],[94.3607,26.0144],[94.3611,26.0199],[94.3634,26.0262],[94.362,26.0268],[94.3675,26.0348],[94.3718,26.0434],[94.3744,26.0533],[94.3772,26.0553],[94.379,26.059],[94.3809,26.0656],[94.3854,26.0719],[94.3881,26.0737],[94.389,26.0781],[94.3908,26.0812],[94.3908,26.0841],[94.3883,26.086],[94.3861,26.0898],[94.3829,26.0995],[94.3856,26.1078],[94.3889,26.1118],[94.3897,26.1146],[94.3866,26.1224],[94.3785,26.1311],[94.3665,26.1378],[94.3625,26.1463],[94.3538,26.1544],[94.3494,26.1633],[94.351,26.166],[94.3516,26.1709],[94.3414,26.1707],[94.3383,26.1747],[94.3376,26.179],[94.3457,26.1797],[94.3495,26.1815],[94.3561,26.1872],[94.3629,26.1887],[94.3702,26.1923],[94.3811,26.1944],[94.3884,26.1973],[94.3957,26.2014],[94.4105,26.2116],[94.4153,26.2112],[94.4371,26.2037],[94.4434,26.2043],[94.4476,26.2076],[94.4472,26.2143],[94.4504,26.2218],[94.4543,26.2264],[94.4582,26.2367],[94.4556,26.2435],[94.4634,26.2605],[94.4709,26.2728],[94.4749,26.2756],[94.4757,26.2835],[94.4776,26.2874],[94.4883,26.2899],[94.4897,26.2854],[94.4901,26.2796],[94.493,26.2735],[94.4997,26.2689],[94.5021,26.2638],[94.5046,26.2523],[94.5092,26.2454],[94.5107,26.2405],[94.5136,26.2379],[94.5146,26.2346],[94.5126,26.2328],[94.5039,26.2293],[94.503,26.2272],[94.5035,26.2236],[94.5005,26.2196],[94.5014,26.2146],[94.5058,26.2124],[94.5133,26.2124],[94.5241,26.2108],[94.5309,26.2122],[94.5351,26.2171],[94.5426,26.2073],[94.5504,26.2025],[94.5621,26.2036],[94.5695,26.2075],[94.5763,26.2097],[94.5799,26.2136],[94.5873,26.2185]]]},"properties":{"district_name":"Zunheboto","raw_district_name":"Zunheboto","state_code":"NL","state_name":"Nagaland","census_code":263,"data_source":"DataMeet India Maps (Census 2011 Boundaries)"}}]}