{"type":"FeatureCollection","properties":{"state_code":"PY","state_name":"Puducherry","data_source":"DataMeet India Maps"},"features":[{"type":"Feature","geometry":{"type":"MultiPolygon","coordinates":[[[[75.545,11.734],[75.5552,11.7292],[75.5588,11.7251],[75.5593,11.7211],[75.5575,11.7182],[75.5553,11.7175],[75.5535,11.7181],[75.5491,11.7152],[75.5466,11.7159],[75.5443,11.7156],[75.5406,11.7141],[75.5406,11.7141],[75.5355,11.7175],[75.5331,11.7175],[75.5313,11.7185],[75.5283,11.7202],[75.5278,11.7221],[75.5289,11.727],[75.5289,11.727],[75.5303,11.7291],[75.5301,11.7318],[75.5301,11.7318],[75.5322,11.734],[75.538,11.7334],[75.5397,11.7351],[75.5405,11.7371],[75.5406,11.7438],[75.5396,11.746],[75.5368,11.7474],[75.5331,11.7527],[75.5331,11.7527],[75.5334,11.7557],[75.5334,11.7557],[75.5356,11.7582],[75.5357,11.7583],[75.5357,11.7583],[75.5436,11.7593],[75.5436,11.7593],[75.5449,11.7585],[75.5461,11.7577],[75.5458,11.7561],[75.5455,11.7543],[75.5464,11.7512],[75.5456,11.7434],[75.5465,11.7414],[75.5464,11.7392],[75.545,11.734]]],[[[75.5409,11.6961],[75.537,11.6927],[75.5369,11.6928],[75.5365,11.693],[75.5349,11.6972],[75.5319,11.7011],[75.5312,11.7027],[75.531,11.7036],[75.5291,11.7053],[75.5367,11.7097],[75.5402,11.7093],[75.5423,11.7071],[75.5442,11.7035],[75.5442,11.7035],[75.5436,11.7012],[75.543,11.6986],[75.5409,11.6961]]]]},"properties":{"district_name":"Mahe","raw_district_name":"Mahe","state_code":"PY","state_name":"Puducherry","census_code":636,"data_source":"DataMeet India Maps (Census 2011 Boundaries)"}},{"type":"Feature","geometry":{"type":"Polygon","coordinates":[[[79.7653,10.9968],[79.7696,10.9952],[79.7775,10.9959],[79.7823,10.9945],[79.7893,10.9949],[79.7914,10.9926],[79.791,10.9864],[79.7943,10.9833],[79.8005,10.9827],[79.8042,10.9852],[79.8067,10.9888],[79.8075,10.9939],[79.809,10.9963],[79.8135,10.9985],[79.8145,11.0003],[79.8185,11.0016],[79.8196,11.0003],[79.8216,10.9983],[79.8269,10.9975],[79.8291,10.9984],[79.8301,11.0003],[79.831,11.0026],[79.8419,11.0021],[79.842,11.0003],[79.8415,10.995],[79.8516,10.9923],[79.8525,10.988],[79.8525,10.9701],[79.8527,10.9675],[79.8521,10.9273],[79.8519,10.9155],[79.8511,10.9101],[79.8504,10.9087],[79.8444,10.9061],[79.8442,10.9057],[79.8443,10.9045],[79.8453,10.9039],[79.8453,10.9034],[79.8489,10.9014],[79.8486,10.8798],[79.847,10.8778],[79.8443,10.8782],[79.8423,10.8779],[79.8377,10.8765],[79.8355,10.8738],[79.8357,10.8713],[79.8375,10.8711],[79.8381,10.8712],[79.8399,10.8714],[79.8434,10.8725],[79.8452,10.8737],[79.8478,10.8726],[79.8488,10.8708],[79.8498,10.8481],[79.849,10.8357],[79.849,10.8328],[79.8495,10.827],[79.8372,10.8267],[79.8308,10.8297],[79.8291,10.8313],[79.8311,10.834],[79.8307,10.8443],[79.8295,10.8484],[79.8256,10.8469],[79.8233,10.8436],[79.8205,10.8492],[79.8141,10.8514],[79.8105,10.855],[79.8085,10.8612],[79.8096,10.8643],[79.813,10.8593],[79.8168,10.8602],[79.8208,10.8628],[79.8255,10.8644],[79.8248,10.8682],[79.8208,10.873],[79.8146,10.8736],[79.8069,10.8772],[79.8091,10.8794],[79.8229,10.8792],[79.8287,10.88],[79.8263,10.883],[79.8201,10.8866],[79.8098,10.8855],[79.8056,10.8884],[79.8022,10.889],[79.7976,10.8868],[79.7929,10.8912],[79.7898,10.8887],[79.7843,10.8882],[79.7846,10.891],[79.7873,10.8934],[79.7922,10.8943],[79.7936,10.8971],[79.7904,10.905],[79.7785,10.9068],[79.7777,10.8985],[79.7742,10.8955],[79.7691,10.8962],[79.7714,10.902],[79.7664,10.9048],[79.7652,10.9106],[79.7625,10.9084],[79.763,10.9026],[79.7603,10.8973],[79.7587,10.8986],[79.7594,10.9059],[79.759,10.9098],[79.7621,10.9121],[79.7602,10.9147],[79.7441,10.9127],[79.7456,10.9176],[79.7428,10.9189],[79.7431,10.9222],[79.7411,10.9233],[79.7384,10.9205],[79.7368,10.9211],[79.738,10.926],[79.7264,10.9284],[79.7252,10.9303],[79.7275,10.9327],[79.7276,10.9344],[79.7213,10.9341],[79.7215,10.9363],[79.7256,10.9364],[79.7248,10.9386],[79.7256,10.9419],[79.7301,10.9432],[79.733,10.9458],[79.7373,10.9475],[79.7383,10.9506],[79.7363,10.9558],[79.7326,10.9535],[79.7319,10.9494],[79.7264,10.9508],[79.7214,10.9504],[79.7203,10.9535],[79.7199,10.9608],[79.721,10.9628],[79.7207,10.967],[79.7286,10.9675],[79.7325,10.9685],[79.738,10.9658],[79.7438,10.9676],[79.7488,10.9634],[79.7497,10.9564],[79.7572,10.9589],[79.7626,10.9586],[79.7628,10.9646],[79.7616,10.9698],[79.757,10.9711],[79.7552,10.9739],[79.7562,10.9767],[79.7584,10.9785],[79.7609,10.9823],[79.7566,10.9814],[79.7552,10.9846],[79.7472,10.9863],[79.7487,10.9905],[79.7469,10.9966],[79.7472,11.0003],[79.7489,11.0023],[79.7542,11.0044],[79.7601,11.0003],[79.7653,10.9968]]]},"properties":{"district_name":"Karaikal","raw_district_name":"Karaikal","state_code":"PY","state_name":"Puducherry","census_code":637,"data_source":"DataMeet India Maps (Census 2011 Boundaries)"}},{"type":"Feature","geometry":{"type":"MultiPolygon","coordinates":[[[[79.7053,12.0153],[79.7056,12.0105],[79.7103,12.0069],[79.7166,12.0003],[79.7164,12.0003],[79.7185,11.9943],[79.7207,11.9916],[79.7248,11.9905],[79.7275,11.9899],[79.7319,11.9897],[79.7348,11.9907],[79.7399,11.9922],[79.742,11.9943],[79.7438,12.0003],[79.7439,12.0003],[79.7496,12.0086],[79.7646,12.0005],[79.7676,11.9938],[79.7674,11.9905],[79.764,11.9867],[79.7601,11.9852],[79.7574,11.9814],[79.7531,11.9814],[79.7504,11.9779],[79.7419,11.9768],[79.737,11.9817],[79.7328,11.9832],[79.7306,11.9817],[79.7294,11.9695],[79.7486,11.9616],[79.7486,11.9517],[79.7519,11.9418],[79.7517,11.9246],[79.752,11.9216],[79.7556,11.9216],[79.7559,11.9239],[79.7626,11.9296],[79.7623,11.9322],[79.7629,11.9433],[79.7732,11.9448],[79.7793,11.949],[79.7805,11.9536],[79.7844,11.9559],[79.7868,11.9608],[79.7878,11.9612],[79.7908,11.9605],[79.7938,11.9609],[79.7984,11.9582],[79.8026,11.9529],[79.8054,11.9571],[79.8067,11.9622],[79.8075,11.9715],[79.8103,11.9764],[79.8129,11.978],[79.8148,11.9788],[79.8196,11.9776],[79.8211,11.9737],[79.8214,11.9698],[79.8232,11.961],[79.8261,11.9571],[79.8293,11.9552],[79.8331,11.9549],[79.8405,11.9546],[79.8405,11.9523],[79.8395,11.9513],[79.8341,11.9339],[79.8287,11.9165],[79.8232,11.899],[79.8179,11.8758],[79.8146,11.8584],[79.8092,11.8381],[79.8081,11.8341],[79.807,11.8416],[79.8093,11.8448],[79.8063,11.8464],[79.8032,11.8497],[79.8014,11.853],[79.797,11.8548],[79.7937,11.8534],[79.7824,11.855],[79.7807,11.8479],[79.7788,11.8471],[79.7757,11.8376],[79.7734,11.8366],[79.7674,11.839],[79.7625,11.8472],[79.7639,11.8503],[79.7655,11.8505],[79.7668,11.8562],[79.7692,11.8567],[79.7709,11.865],[79.7701,11.8723],[79.7662,11.8734],[79.765,11.875],[79.7588,11.8742],[79.7586,11.8681],[79.7546,11.8643],[79.7536,11.8495],[79.743,11.8468],[79.7455,11.8613],[79.7334,11.8628],[79.7332,11.862],[79.7219,11.8615],[79.719,11.8527],[79.7128,11.8668],[79.7086,11.8682],[79.7108,11.8877],[79.7056,11.8884],[79.6971,11.8877],[79.6955,11.8849],[79.6935,11.8839],[79.6882,11.8842],[79.686,11.8841],[79.6863,11.8809],[79.6741,11.8799],[79.6741,11.8864],[79.6754,11.8916],[79.6833,11.8905],[79.6838,11.8889],[79.691,11.8936],[79.6949,11.8936],[79.6957,11.8962],[79.695,11.9004],[79.6989,11.9018],[79.6974,11.9061],[79.6949,11.9077],[79.6979,11.919],[79.7176,11.9168],[79.7176,11.9128],[79.7067,11.9121],[79.7066,11.8927],[79.7168,11.8909],[79.7195,11.889],[79.7234,11.8883],[79.7305,11.8894],[79.732,11.8912],[79.7311,11.9011],[79.7326,11.9036],[79.74,11.9059],[79.7191,11.9273],[79.721,11.943],[79.7115,11.9467],[79.7096,11.9456],[79.7095,11.9402],[79.7111,11.9344],[79.7128,11.931],[79.7078,11.9355],[79.707,11.9388],[79.7052,11.9405],[79.6991,11.9415],[79.6931,11.9508],[79.6926,11.9536],[79.6964,11.9576],[79.6981,11.9607],[79.7004,11.9594],[79.7016,11.9615],[79.7081,11.965],[79.7165,11.9664],[79.7169,11.9707],[79.7102,11.9753],[79.7141,11.9843],[79.714,11.9863],[79.7097,11.9893],[79.7049,11.9899],[79.7018,11.9882],[79.6991,11.9889],[79.696,11.987],[79.6924,11.9882],[79.6883,11.9866],[79.686,11.9889],[79.6802,11.9817],[79.6763,11.987],[79.6745,11.9912],[79.6661,11.9861],[79.659,11.9873],[79.6572,11.9899],[79.6591,12.0004],[79.6592,12.0004],[79.6592,12.0068],[79.6618,12.0074],[79.6621,12.0113],[79.6672,12.0124],[79.6741,12.011],[79.678,12.0205],[79.6837,12.0214],[79.6863,12.0258],[79.6913,12.027],[79.6938,12.0334],[79.7064,12.0316],[79.7072,12.0253],[79.7053,12.0153]],[[79.7706,11.894],[79.7725,11.8867],[79.7718,11.8829],[79.7739,11.8826],[79.7736,11.8762],[79.7785,11.8782],[79.7799,11.8779],[79.7807,11.8732],[79.7797,11.8683],[79.7784,11.8661],[79.7795,11.8624],[79.7845,11.862],[79.7897,11.8758],[79.7965,11.8896],[79.7978,11.8935],[79.7976,11.8975],[79.79,11.8954],[79.7839,11.8984],[79.7815,11.9018],[79.7744,11.9034],[79.7711,11.9009],[79.7724,11.899],[79.7706,11.894]]],[[[79.7387,11.8428],[79.7549,11.8375],[79.7634,11.8325],[79.7645,11.8312],[79.7645,11.8228],[79.7735,11.822],[79.7742,11.8256],[79.7803,11.8318],[79.7823,11.8321],[79.7854,11.8311],[79.7891,11.8279],[79.7927,11.8261],[79.794,11.8262],[79.7957,11.8278],[79.7964,11.8272],[79.797,11.8231],[79.8019,11.829],[79.8008,11.83],[79.7959,11.8318],[79.7937,11.8319],[79.7934,11.8329],[79.798,11.8341],[79.7984,11.8371],[79.7995,11.8375],[79.8012,11.8339],[79.8058,11.8313],[79.8076,11.8321],[79.7978,11.7975],[79.7951,11.7849],[79.784,11.7872],[79.7837,11.784],[79.7811,11.7822],[79.7809,11.78],[79.7743,11.7813],[79.7701,11.7813],[79.7707,11.7868],[79.7699,11.7904],[79.7634,11.7904],[79.7622,11.7895],[79.7578,11.7825],[79.7569,11.7778],[79.7551,11.7742],[79.7418,11.7788],[79.7286,11.7807],[79.7245,11.7826],[79.7228,11.7856],[79.7209,11.7841],[79.7125,11.7893],[79.7139,11.7938],[79.7184,11.796],[79.7229,11.7966],[79.7235,11.7985],[79.7232,11.8016],[79.7258,11.8021],[79.7252,11.8051],[79.7267,11.8089],[79.7334,11.8082],[79.7365,11.8086],[79.733,11.8131],[79.7334,11.8219],[79.7316,11.8242],[79.7327,11.8333],[79.7293,11.8367],[79.7302,11.8378],[79.7342,11.8396],[79.7388,11.8393],[79.7387,11.8428]]],[[[79.6277,12.0304],[79.6354,12.029],[79.6396,12.0298],[79.6508,12.0279],[79.6543,12.0238],[79.6532,12.0206],[79.6509,12.0173],[79.6487,12.006],[79.6444,12.0056],[79.6434,12.0004],[79.6426,11.9974],[79.6366,11.9964],[79.6362,11.9925],[79.6405,11.9902],[79.6379,11.9771],[79.6416,11.9733],[79.6417,11.9697],[79.6456,11.9693],[79.6485,11.9665],[79.6491,11.9603],[79.6474,11.9569],[79.6488,11.9532],[79.6453,11.9526],[79.6437,11.9533],[79.6432,11.9464],[79.6435,11.9447],[79.6454,11.942],[79.6524,11.9431],[79.654,11.9463],[79.6582,11.9479],[79.6572,11.9449],[79.6592,11.9441],[79.6593,11.9414],[79.6613,11.9405],[79.6613,11.9375],[79.6651,11.9362],[79.6669,11.9375],[79.6687,11.9371],[79.671,11.9343],[79.6713,11.9328],[79.6692,11.9229],[79.6719,11.9223],[79.6725,11.9147],[79.6703,11.9144],[79.67,11.917],[79.6614,11.9161],[79.6629,11.914],[79.6627,11.9113],[79.6568,11.9129],[79.656,11.9073],[79.6495,11.9066],[79.6445,11.9076],[79.642,11.9047],[79.6418,11.9012],[79.633,11.9009],[79.6265,11.9024],[79.628,11.9044],[79.6295,11.9161],[79.6292,11.9195],[79.6273,11.9216],[79.6201,11.9244],[79.6199,11.9399],[79.6205,11.9441],[79.6248,11.9432],[79.6294,11.9441],[79.6296,11.948],[79.6285,11.9535],[79.63,11.9564],[79.6285,11.968],[79.6184,11.9701],[79.6272,11.9753],[79.626,11.9807],[79.6194,11.9828],[79.619,11.9873],[79.625,11.988],[79.6275,11.9981],[79.6221,11.998],[79.6197,12.0004],[79.6205,12.0052],[79.6205,12.0093],[79.6223,12.0143],[79.6294,12.0208],[79.6277,12.0304]]],[[[79.6293,11.8821],[79.6362,11.8805],[79.6367,11.8867],[79.6426,11.8861],[79.6421,11.8809],[79.6499,11.8803],[79.6486,11.8773],[79.6494,11.8746],[79.6492,11.8703],[79.6566,11.8708],[79.6602,11.8667],[79.6629,11.8668],[79.6643,11.8603],[79.6582,11.8553],[79.6558,11.8516],[79.6531,11.8501],[79.6502,11.849],[79.6455,11.8492],[79.6399,11.8504],[79.6335,11.8529],[79.6268,11.8524],[79.629,11.8672],[79.6196,11.8676],[79.6204,11.8633],[79.6197,11.8604],[79.6124,11.8624],[79.6124,11.8601],[79.6024,11.8565],[79.6031,11.8663],[79.601,11.8704],[79.6007,11.8726],[79.6005,11.8754],[79.6015,11.8777],[79.5998,11.8798],[79.602,11.8826],[79.6085,11.8773],[79.6194,11.8838],[79.6228,11.8901],[79.6314,11.8881],[79.6293,11.8821]]],[[[79.859,12.0076],[79.8579,12.0046],[79.8423,12.0106],[79.8409,12.0132],[79.8448,12.0265],[79.8445,12.0319],[79.8457,12.0383],[79.85,12.0502],[79.875,12.0433],[79.8724,12.0368],[79.8682,12.0307],[79.8647,12.022],[79.8613,12.0152],[79.8599,12.0133],[79.8599,12.0103],[79.859,12.0076]]],[[[79.6889,11.9719],[79.6882,11.967],[79.6855,11.9626],[79.6851,11.9602],[79.6841,11.9623],[79.6849,11.9531],[79.6757,11.9479],[79.6718,11.9475],[79.6642,11.9503],[79.6599,11.949],[79.6553,11.9536],[79.6544,11.9585],[79.6611,11.9574],[79.6612,11.9621],[79.6625,11.962],[79.6625,11.9682],[79.6785,11.9672],[79.68,11.9723],[79.6889,11.9719]]],[[[79.67,11.8149],[79.6588,11.8131],[79.6463,11.8162],[79.647,11.8198],[79.6409,11.8227],[79.6437,11.8253],[79.6461,11.8344],[79.6466,11.8424],[79.6488,11.8436],[79.6511,11.8431],[79.6579,11.8412],[79.6613,11.8387],[79.6595,11.8319],[79.6593,11.8282],[79.6601,11.8263],[79.6708,11.8228],[79.67,11.8149]]],[[[79.6905,11.8027],[79.6757,11.8015],[79.6754,11.8063],[79.676,11.8137],[79.6834,11.8122],[79.6883,11.8118],[79.6906,11.8075],[79.6905,11.8027]]],[[[79.8041,12.0204],[79.8034,12.0169],[79.7931,12.0173],[79.7909,12.0185],[79.7915,12.027],[79.7975,12.0256],[79.8041,12.0253],[79.8071,12.0242],[79.8067,12.0219],[79.8041,12.0204]]],[[[79.7017,11.8202],[79.704,11.8121],[79.6933,11.8127],[79.6939,11.8211],[79.7017,11.8202]]]]},"properties":{"district_name":"Puducherry","raw_district_name":"Puducherry","state_code":"PY","state_name":"Puducherry","census_code":635,"data_source":"DataMeet India Maps (Census 2011 Boundaries)"}},{"type":"Feature","geometry":{"type":"Polygon","coordinates":[[[82.2205,16.739],[82.2243,16.7363],[82.23,16.7294],[82.2366,16.7283],[82.2545,16.7301],[82.2732,16.7305],[82.2902,16.7339],[82.2946,16.7456],[82.2986,16.7521],[82.3032,16.7542],[82.3073,16.7515],[82.3106,16.7445],[82.3124,16.734],[82.309,16.7253],[82.3044,16.7172],[82.2947,16.7087],[82.2859,16.7043],[82.2743,16.7017],[82.263,16.7009],[82.2561,16.7026],[82.237,16.7158],[82.225,16.7208],[82.2121,16.7188],[82.2031,16.7195],[82.1886,16.7273],[82.1842,16.7361],[82.1899,16.7391],[82.1983,16.7382],[82.2063,16.7475],[82.2168,16.7547],[82.2207,16.7592],[82.2272,16.7627],[82.2313,16.7614],[82.2293,16.7559],[82.2196,16.7423],[82.2205,16.739]]]},"properties":{"district_name":"Yanam","raw_district_name":"Yanam","state_code":"PY","state_name":"Puducherry","census_code":634,"data_source":"DataMeet India Maps (Census 2011 Boundaries)"}}]}