{"type":"FeatureCollection","properties":{"state_code":"SK","state_name":"Sikkim","data_source":"DataMeet India Maps"},"features":[{"type":"Feature","geometry":{"type":"Polygon","coordinates":[[[88.8133,27.414],[88.8167,27.405],[88.8174,27.4045],[88.8174,27.4041],[88.8187,27.403],[88.8191,27.4028],[88.8191,27.4023],[88.8248,27.4005],[88.8265,27.3991],[88.8266,27.3989],[88.8281,27.3971],[88.829,27.3955],[88.8297,27.3939],[88.8327,27.3912],[88.8327,27.3908],[88.8327,27.3903],[88.8385,27.3885],[88.84,27.3863],[88.8408,27.3863],[88.8408,27.3858],[88.8415,27.3856],[88.842,27.3827],[88.8428,27.3822],[88.8456,27.3786],[88.8471,27.3779],[88.8486,27.3775],[88.8496,27.3777],[88.8514,27.3788],[88.8518,27.3795],[88.8544,27.3806],[88.8556,27.3825],[88.8562,27.3834],[88.86,27.3861],[88.8638,27.3866],[88.8661,27.3857],[88.8689,27.3834],[88.8694,27.3823],[88.8704,27.3805],[88.8719,27.3796],[88.8745,27.368],[88.876,27.3671],[88.8766,27.367],[88.8864,27.3642],[88.8864,27.3641],[88.8882,27.363],[88.8904,27.3575],[88.8922,27.3466],[88.8958,27.3382],[88.8963,27.338],[88.897,27.3362],[88.9011,27.3337],[88.9011,27.3333],[88.9031,27.3328],[88.9077,27.3342],[88.915,27.3299],[88.9191,27.3308],[88.9213,27.33],[88.9295,27.3261],[88.9255,27.322],[88.922,27.3185],[88.9214,27.3177],[88.9206,27.3162],[88.9196,27.3091],[88.9166,27.3057],[88.9162,27.3015],[88.9162,27.3014],[88.9162,27.3003],[88.917,27.2981],[88.9175,27.2978],[88.9176,27.2929],[88.9143,27.2833],[88.9136,27.2822],[88.9108,27.2786],[88.909,27.277],[88.9063,27.2748],[88.905,27.275],[88.9042,27.2749],[88.9032,27.2748],[88.8999,27.2729],[88.8903,27.2689],[88.8869,27.2659],[88.8864,27.2659],[88.8843,27.2627],[88.8838,27.2607],[88.8802,27.2589],[88.8795,27.2586],[88.8709,27.262],[88.8633,27.2611],[88.8542,27.2615],[88.8509,27.2606],[88.8502,27.2611],[88.8423,27.2629],[88.838,27.2621],[88.8375,27.2624],[88.8375,27.2619],[88.8342,27.2604],[88.8312,27.2599],[88.8303,27.2585],[88.8297,27.2574],[88.8272,27.2562],[88.8271,27.2558],[88.8271,27.2553],[88.826,27.2548],[88.8193,27.2522],[88.8173,27.252],[88.8082,27.2474],[88.8075,27.246],[88.8067,27.237],[88.8067,27.2345],[88.8072,27.2329],[88.8078,27.2205],[88.8063,27.2155],[88.8022,27.2083],[88.799,27.2043],[88.7983,27.2041],[88.7967,27.2017],[88.7962,27.1999],[88.796,27.1983],[88.7962,27.1897],[88.7952,27.1856],[88.7942,27.184],[88.7917,27.1818],[88.7859,27.1797],[88.7839,27.1793],[88.7819,27.1795],[88.777,27.1791],[88.7751,27.1787],[88.773,27.1783],[88.7688,27.1757],[88.7684,27.175],[88.7679,27.175],[88.7679,27.1745],[88.7676,27.1743],[88.7659,27.1724],[88.7654,27.1718],[88.7653,27.1687],[88.7655,27.1678],[88.766,27.1676],[88.7677,27.1579],[88.7675,27.1569],[88.7668,27.1548],[88.7608,27.1516],[88.7587,27.148],[88.7442,27.1393],[88.7396,27.1371],[88.7316,27.1383],[88.7248,27.1438],[88.722,27.15],[88.7189,27.1649],[88.709,27.1739],[88.6986,27.1785],[88.6915,27.18],[88.6875,27.1793],[88.6806,27.1764],[88.6752,27.1718],[88.6667,27.162],[88.6636,27.1622],[88.6496,27.1669],[88.6459,27.1675],[88.6404,27.1743],[88.6262,27.1876],[88.614,27.1894],[88.6107,27.1909],[88.6053,27.1911],[88.6047,27.1925],[88.6012,27.1909],[88.5987,27.1942],[88.5942,27.1903],[88.5923,27.1926],[88.5735,27.1876],[88.5662,27.1885],[88.5481,27.1834],[88.5363,27.1775],[88.528,27.1779],[88.5063,27.1848],[88.4994,27.193],[88.4936,27.202],[88.4948,27.2182],[88.4971,27.2302],[88.4933,27.2392],[88.4834,27.2464],[88.4779,27.2471],[88.4672,27.2502],[88.4615,27.2557],[88.4495,27.2609],[88.446,27.2662],[88.4441,27.2736],[88.4451,27.2809],[88.4508,27.2957],[88.4495,27.3006],[88.4544,27.3056],[88.457,27.3151],[88.4643,27.3173],[88.4696,27.3216],[88.4765,27.3235],[88.4853,27.3285],[88.4888,27.3334],[88.4908,27.3422],[88.4843,27.3523],[88.4829,27.3602],[88.4836,27.366],[88.4886,27.3781],[88.4938,27.3784],[88.5039,27.3822],[88.5164,27.3892],[88.5217,27.3943],[88.5258,27.3968],[88.5315,27.3959],[88.5364,27.3963],[88.5464,27.3938],[88.5574,27.3921],[88.5846,27.3942],[88.5933,27.396],[88.5963,27.3921],[88.6023,27.3905],[88.6184,27.3875],[88.6294,27.387],[88.6401,27.3883],[88.6434,27.3906],[88.6516,27.3916],[88.6614,27.3908],[88.666,27.3928],[88.6778,27.3999],[88.6818,27.3998],[88.6894,27.3978],[88.6974,27.3981],[88.7029,27.4015],[88.7148,27.4119],[88.7213,27.4164],[88.7341,27.419],[88.7563,27.4145],[88.7699,27.4134],[88.7757,27.4161],[88.7848,27.4226],[88.7898,27.4215],[88.7998,27.4162],[88.8133,27.414]]]},"properties":{"district_name":"East","raw_district_name":"East","state_code":"SK","state_name":"Sikkim","census_code":244,"data_source":"DataMeet India Maps (Census 2011 Boundaries)"}},{"type":"Feature","geometry":{"type":"Polygon","coordinates":[[[88.8133,27.414],[88.7998,27.4162],[88.7898,27.4215],[88.7848,27.4226],[88.7757,27.4161],[88.7699,27.4134],[88.7563,27.4145],[88.7341,27.419],[88.7213,27.4164],[88.7148,27.4119],[88.7029,27.4015],[88.6974,27.3981],[88.6894,27.3978],[88.6818,27.3998],[88.6778,27.3999],[88.666,27.3928],[88.6614,27.3908],[88.6516,27.3916],[88.6434,27.3906],[88.6401,27.3883],[88.6294,27.387],[88.6184,27.3875],[88.6023,27.3905],[88.5963,27.3921],[88.5933,27.396],[88.5846,27.3942],[88.5574,27.3921],[88.5464,27.3938],[88.5364,27.3963],[88.5315,27.3959],[88.5258,27.3968],[88.5217,27.3943],[88.5164,27.3892],[88.5039,27.3822],[88.4938,27.3784],[88.4886,27.3781],[88.4811,27.3808],[88.473,27.3853],[88.4665,27.3872],[88.4563,27.3883],[88.4461,27.3932],[88.4392,27.3996],[88.4352,27.4042],[88.4293,27.4129],[88.4221,27.4183],[88.4193,27.4232],[88.4171,27.4295],[88.4168,27.439],[88.4186,27.4463],[88.4114,27.4581],[88.4097,27.4631],[88.4099,27.47],[88.4082,27.4754],[88.4013,27.4787],[88.3782,27.4972],[88.3673,27.51],[88.3638,27.5169],[88.3583,27.521],[88.3452,27.5261],[88.3378,27.5273],[88.3314,27.5278],[88.3218,27.5268],[88.2936,27.5185],[88.2842,27.5126],[88.2659,27.5255],[88.2506,27.5312],[88.2441,27.5345],[88.2403,27.5401],[88.2346,27.5568],[88.2205,27.5734],[88.2123,27.581],[88.1663,27.5998],[88.1296,27.6111],[88.1172,27.6178],[88.1222,27.6381],[88.1243,27.6445],[88.1256,27.6467],[88.1302,27.652],[88.1316,27.6531],[88.1344,27.6544],[88.1408,27.6572],[88.1474,27.6652],[88.1498,27.6666],[88.151,27.6686],[88.1535,27.6768],[88.1552,27.6854],[88.1546,27.6935],[88.1521,27.6994],[88.152,27.7039],[88.1567,27.7177],[88.1579,27.7302],[88.1604,27.7355],[88.1682,27.7418],[88.1748,27.7448],[88.1808,27.7493],[88.1843,27.762],[88.187,27.7682],[88.1901,27.7738],[88.1932,27.778],[88.194,27.7787],[88.1946,27.7793],[88.1954,27.7811],[88.1961,27.7815],[88.1988,27.7881],[88.1983,27.7931],[88.1967,27.7969],[88.196,27.7971],[88.1942,27.7988],[88.1936,27.8],[88.1933,27.8003],[88.1912,27.8018],[88.19,27.8025],[88.189,27.8068],[88.1864,27.8129],[88.1831,27.8147],[88.1793,27.8153],[88.1772,27.8162],[88.1768,27.8192],[88.1773,27.8205],[88.185,27.8251],[88.1931,27.8313],[88.1977,27.8342],[88.2012,27.8381],[88.2027,27.8422],[88.2024,27.8503],[88.2016,27.851],[88.2011,27.8512],[88.1917,27.8561],[88.1899,27.8572],[88.1894,27.8572],[88.1894,27.8577],[88.1894,27.8581],[88.1832,27.8619],[88.1832,27.8624],[88.1832,27.8628],[88.1819,27.8637],[88.1818,27.8638],[88.1806,27.8652],[88.1789,27.866],[88.173,27.8662],[88.1717,27.8659],[88.1667,27.8681],[88.1631,27.8687],[88.1519,27.8705],[88.1419,27.8696],[88.134,27.8731],[88.1357,27.8757],[88.1388,27.8814],[88.1385,27.8854],[88.136,27.8908],[88.1349,27.8946],[88.1344,27.8948],[88.1338,27.8959],[88.1316,27.8971],[88.1311,27.8983],[88.1303,27.8998],[88.1282,27.9016],[88.1274,27.902],[88.1262,27.9051],[88.1254,27.9055],[88.1252,27.9067],[88.1225,27.9117],[88.1223,27.9153],[88.1222,27.9171],[88.1255,27.9253],[88.1346,27.9339],[88.1376,27.9378],[88.1376,27.9393],[88.1375,27.945],[88.1324,27.9475],[88.1324,27.9497],[88.1326,27.9504],[88.1387,27.9554],[88.1418,27.9611],[88.1435,27.9625],[88.1478,27.963],[88.1485,27.9627],[88.1487,27.9627],[88.1624,27.9573],[88.1759,27.9478],[88.1823,27.9442],[88.1843,27.9438],[88.1914,27.9431],[88.1973,27.9432],[88.2034,27.9457],[88.2044,27.9466],[88.2058,27.95],[88.2079,27.9575],[88.2084,27.96],[88.2113,27.965],[88.2122,27.9657],[88.2122,27.9661],[88.2185,27.9673],[88.2228,27.9655],[88.2245,27.9649],[88.2253,27.9645],[88.2267,27.964],[88.2302,27.9636],[88.231,27.9638],[88.2318,27.964],[88.2348,27.9668],[88.2383,27.9674],[88.2391,27.9672],[88.2396,27.9668],[88.2414,27.9654],[88.2438,27.9537],[88.2461,27.9521],[88.2463,27.951],[88.2464,27.9501],[88.2469,27.9499],[88.2469,27.9494],[88.2525,27.9481],[88.2568,27.9497],[88.2571,27.9504],[88.2674,27.9559],[88.2695,27.9561],[88.2703,27.9559],[88.2738,27.9561],[88.2791,27.9579],[88.2796,27.9576],[88.2801,27.9579],[88.2807,27.958],[88.2834,27.9601],[88.2842,27.9607],[88.2853,27.9639],[88.2854,27.965],[88.2881,27.9669],[88.289,27.9673],[88.2987,27.9685],[88.3025,27.9676],[88.3134,27.9695],[88.3175,27.9722],[88.3225,27.9779],[88.3248,27.9793],[88.3315,27.9809],[88.3325,27.9807],[88.3361,27.9815],[88.3378,27.9821],[88.3404,27.9843],[88.3411,27.9855],[88.3436,27.9866],[88.3464,27.9876],[88.3538,27.9891],[88.3588,27.9892],[88.3596,27.9894],[88.3724,27.9877],[88.3833,27.9833],[88.3902,27.9795],[88.3902,27.979],[88.3973,27.9774],[88.3984,27.9777],[88.4026,27.9793],[88.4046,27.9807],[88.4093,27.983],[88.4106,27.9832],[88.4128,27.9864],[88.4151,27.9875],[88.4174,27.9921],[88.4185,27.9932],[88.4203,27.9952],[88.4209,27.9966],[88.4321,28.0052],[88.4321,28.0057],[88.4333,28.0061],[88.4351,28.0077],[88.4356,28.0079],[88.4412,28.01],[88.4595,28.0146],[88.4644,28.0168],[88.4702,28.0194],[88.4732,28.0228],[88.4778,28.0325],[88.4802,28.0364],[88.4866,28.0422],[88.4904,28.0447],[88.4917,28.0452],[88.4983,28.0477],[88.5097,28.0486],[88.5102,28.0484],[88.5102,28.0479],[88.5103,28.0474],[88.5115,28.0468],[88.5156,28.0461],[88.5253,28.0437],[88.5294,28.0407],[88.5296,28.0398],[88.5296,28.0394],[88.5309,28.0387],[88.5309,28.0383],[88.5363,28.0365],[88.5401,28.036],[88.5419,28.0363],[88.5465,28.0381],[88.5468,28.0382],[88.5475,28.0386],[88.5495,28.0401],[88.5513,28.0438],[88.5514,28.0494],[88.5515,28.0501],[88.5522,28.0522],[88.5536,28.0535],[88.559,28.0608],[88.5603,28.0635],[88.5609,28.0651],[88.5611,28.0773],[88.563,28.0845],[88.5669,28.0872],[88.5755,28.0887],[88.5764,28.0881],[88.5793,28.0862],[88.5834,28.0853],[88.5852,28.086],[88.5941,28.0899],[88.5961,28.091],[88.5977,28.0912],[88.5989,28.091],[88.6038,28.0953],[88.6046,28.0966],[88.6114,28.0981],[88.614,28.0994],[88.622,28.1023],[88.6251,28.1034],[88.6222,28.1084],[88.6208,28.1096],[88.6202,28.1155],[88.6195,28.1184],[88.6191,28.1193],[88.6155,28.1225],[88.6154,28.1259],[88.6161,28.1272],[88.6204,28.1293],[88.6299,28.1307],[88.6355,28.1269],[88.6355,28.1264],[88.6355,28.126],[88.6376,28.1244],[88.6383,28.1242],[88.6383,28.1237],[88.6391,28.1235],[88.6403,28.1208],[88.6409,28.1206],[88.6414,28.1203],[88.645,28.1084],[88.6463,28.1041],[88.6479,28.1028],[88.6498,28.1014],[88.6538,28.0988],[88.6627,28.0896],[88.6696,28.0794],[88.6753,28.0738],[88.6813,28.0726],[88.6818,28.0728],[88.6836,28.0739],[88.6856,28.0771],[88.6943,28.0787],[88.7037,28.0767],[88.7063,28.0771],[88.7124,28.0779],[88.7228,28.0754],[88.7279,28.0761],[88.7376,28.075],[88.7488,28.0757],[88.7595,28.0731],[88.7621,28.0717],[88.7621,28.0712],[88.7764,28.061],[88.7767,28.0604],[88.7772,28.0604],[88.7775,28.0602],[88.7792,28.0589],[88.7791,28.0584],[88.7792,28.058],[88.7817,28.0566],[88.7907,28.0505],[88.7909,28.0494],[88.7912,28.0483],[88.7919,28.0478],[88.7927,28.0474],[88.794,28.044],[88.795,28.0433],[88.795,28.0429],[88.8031,28.0368],[88.8031,28.0364],[88.8033,28.0362],[88.8044,28.0357],[88.8058,28.0325],[88.806,28.0322],[88.8078,28.0309],[88.8078,28.0305],[88.8136,28.0265],[88.8136,28.026],[88.8139,28.0259],[88.8162,28.025],[88.8276,28.0195],[88.829,28.0188],[88.8336,28.0168],[88.8373,28.0149],[88.8412,28.0113],[88.8429,28.0002],[88.8439,27.9993],[88.844,27.9989],[88.8445,27.9987],[88.8445,27.998],[88.845,27.9966],[88.8473,27.9948],[88.8491,27.9908],[88.848,27.965],[88.8481,27.9639],[88.8512,27.9614],[88.8522,27.9562],[88.8479,27.9526],[88.8446,27.9471],[88.8444,27.9318],[88.8477,27.9302],[88.8616,27.9265],[88.8671,27.925],[88.8693,27.9232],[88.8729,27.9128],[88.8783,27.9022],[88.8788,27.9022],[88.8788,27.9018],[88.8795,27.9016],[88.8877,27.8955],[88.8877,27.895],[88.8882,27.895],[88.8885,27.8934],[88.8885,27.893],[88.889,27.893],[88.8894,27.8923],[88.8894,27.8888],[88.888,27.8801],[88.8888,27.8699],[88.8898,27.8677],[88.8926,27.8652],[88.8937,27.8611],[88.8936,27.8588],[88.891,27.8573],[88.8908,27.8568],[88.89,27.8552],[88.89,27.8551],[88.8889,27.8387],[88.8883,27.8374],[88.8869,27.8369],[88.8858,27.836],[88.885,27.8337],[88.8846,27.8331],[88.8842,27.8324],[88.8832,27.8308],[88.881,27.8272],[88.8762,27.8243],[88.8754,27.8244],[88.8735,27.8235],[88.8703,27.8215],[88.8637,27.8179],[88.8633,27.8177],[88.8622,27.8163],[88.8621,27.8147],[88.8626,27.8145],[88.8627,27.8134],[88.8632,27.8122],[88.8652,27.8111],[88.8654,27.8079],[88.8647,27.7987],[88.8602,27.7781],[88.8605,27.7681],[88.8622,27.7601],[88.8624,27.7591],[88.8638,27.7567],[88.8648,27.7558],[88.8653,27.7544],[88.8664,27.7535],[88.8674,27.7528],[88.8692,27.7487],[88.8702,27.7388],[88.8689,27.7356],[88.8621,27.7299],[88.8616,27.729],[88.8615,27.7289],[88.8593,27.7238],[88.8583,27.718],[88.8578,27.7173],[88.8491,27.7118],[88.8467,27.7109],[88.8464,27.7102],[88.8464,27.708],[88.8472,27.7055],[88.8477,27.7053],[88.8482,27.705],[88.8489,27.7026],[88.8533,27.7001],[88.8533,27.6942],[88.8519,27.6887],[88.8522,27.6857],[88.8527,27.6814],[88.853,27.6805],[88.8532,27.6798],[88.8544,27.6753],[88.8543,27.6687],[88.8508,27.6628],[88.8461,27.6585],[88.8445,27.6573],[88.8399,27.6501],[88.8337,27.6452],[88.83,27.6426],[88.8284,27.642],[88.8275,27.6417],[88.8232,27.6424],[88.8209,27.6433],[88.8184,27.6426],[88.8176,27.6417],[88.8148,27.636],[88.8141,27.6319],[88.8159,27.6189],[88.8161,27.6141],[88.8156,27.6134],[88.8131,27.603],[88.8096,27.5996],[88.8086,27.5994],[88.8086,27.5989],[88.8081,27.5989],[88.8081,27.5985],[88.8055,27.5962],[88.805,27.5962],[88.8051,27.5958],[88.8022,27.5937],[88.8017,27.5937],[88.8004,27.5917],[88.7994,27.5904],[88.7962,27.5878],[88.7949,27.5853],[88.7932,27.576],[88.7924,27.5751],[88.7899,27.5731],[88.7758,27.5676],[88.7758,27.5672],[88.7749,27.5665],[88.7747,27.5647],[88.7755,27.5597],[88.776,27.5595],[88.7765,27.5593],[88.7807,27.5443],[88.7826,27.5374],[88.7831,27.537],[88.7839,27.5365],[88.7867,27.5338],[88.7874,27.5324],[88.7874,27.532],[88.7918,27.5293],[88.7936,27.5288],[88.7946,27.529],[88.7956,27.5288],[88.7961,27.5284],[88.7965,27.5259],[88.7963,27.5248],[88.7952,27.5243],[88.7945,27.5206],[88.7942,27.5189],[88.7937,27.5148],[88.7936,27.5134],[88.7935,27.5112],[88.7927,27.5062],[88.7907,27.4962],[88.7908,27.4943],[88.7918,27.4935],[88.793,27.4922],[88.7929,27.4874],[88.7906,27.4825],[88.7889,27.4729],[88.7889,27.4675],[88.7908,27.4553],[88.7917,27.4537],[88.7948,27.4522],[88.7948,27.4511],[88.795,27.4499],[88.8021,27.4468],[88.8014,27.4364],[88.8023,27.4325],[88.8039,27.4305],[88.8105,27.4269],[88.8114,27.4251],[88.8115,27.4248],[88.8133,27.414]]]},"properties":{"district_name":"North","raw_district_name":"North","state_code":"SK","state_name":"Sikkim","census_code":241,"data_source":"DataMeet India Maps (Census 2011 Boundaries)"}},{"type":"Feature","geometry":{"type":"Polygon","coordinates":[[[88.4886,27.3781],[88.4836,27.366],[88.4829,27.3602],[88.4843,27.3523],[88.4908,27.3422],[88.4888,27.3334],[88.4853,27.3285],[88.4765,27.3235],[88.4696,27.3216],[88.4643,27.3173],[88.457,27.3151],[88.4544,27.3056],[88.4495,27.3006],[88.4508,27.2957],[88.4451,27.2809],[88.4441,27.2736],[88.446,27.2662],[88.4495,27.2609],[88.4615,27.2557],[88.4672,27.2502],[88.4779,27.2471],[88.4834,27.2464],[88.4933,27.2392],[88.4971,27.2302],[88.4948,27.2182],[88.4936,27.202],[88.4994,27.193],[88.5063,27.1848],[88.528,27.1779],[88.5277,27.1748],[88.537,27.1655],[88.5339,27.16],[88.5392,27.1541],[88.5371,27.1499],[88.5339,27.1495],[88.5289,27.1501],[88.5259,27.1475],[88.5232,27.1435],[88.5194,27.1408],[88.5147,27.1357],[88.5101,27.1338],[88.5061,27.131],[88.5036,27.1279],[88.5028,27.1251],[88.499,27.1246],[88.4939,27.1265],[88.4885,27.1226],[88.481,27.1204],[88.4763,27.117],[88.4739,27.1137],[88.472,27.1045],[88.4674,27.0956],[88.4617,27.0894],[88.4535,27.0851],[88.4468,27.0839],[88.4391,27.0813],[88.4363,27.0833],[88.4182,27.0904],[88.4049,27.0941],[88.3948,27.0981],[88.3779,27.0991],[88.3711,27.0981],[88.3596,27.1008],[88.3552,27.103],[88.3524,27.1066],[88.3481,27.1104],[88.339,27.1079],[88.3311,27.1046],[88.3274,27.107],[88.3278,27.1163],[88.3261,27.119],[88.3186,27.125],[88.3119,27.1283],[88.3072,27.1277],[88.3023,27.1244],[88.2855,27.1305],[88.2826,27.1422],[88.2841,27.1442],[88.2847,27.1485],[88.2872,27.1504],[88.2896,27.1508],[88.293,27.1539],[88.2967,27.163],[88.299,27.164],[88.3026,27.1688],[88.3034,27.1734],[88.307,27.1761],[88.3121,27.1778],[88.3147,27.1814],[88.3222,27.1853],[88.3312,27.1873],[88.3332,27.1886],[88.3315,27.1916],[88.3369,27.1942],[88.3343,27.1985],[88.3344,27.201],[88.3316,27.2042],[88.3256,27.2202],[88.3225,27.2229],[88.313,27.2245],[88.3103,27.2258],[88.3058,27.2367],[88.3081,27.2458],[88.3082,27.2563],[88.3066,27.2606],[88.2991,27.266],[88.2919,27.2729],[88.2865,27.2753],[88.2836,27.2779],[88.281,27.2813],[88.2817,27.2861],[88.2829,27.2879],[88.2932,27.2946],[88.2985,27.2968],[88.3091,27.2992],[88.312,27.3024],[88.3136,27.3054],[88.3132,27.3154],[88.3113,27.3185],[88.3078,27.3211],[88.3027,27.3231],[88.2994,27.3265],[88.3007,27.3307],[88.3029,27.3339],[88.3075,27.3373],[88.3222,27.3457],[88.3253,27.349],[88.3305,27.3646],[88.3332,27.3685],[88.3418,27.3718],[88.3519,27.3738],[88.3609,27.378],[88.36,27.3841],[88.3609,27.3897],[88.3602,27.399],[88.3576,27.4026],[88.3533,27.4117],[88.3506,27.4139],[88.3456,27.4108],[88.3415,27.406],[88.3363,27.4102],[88.3341,27.4168],[88.3282,27.4172],[88.3189,27.415],[88.3083,27.4166],[88.3029,27.4143],[88.298,27.4101],[88.2867,27.4049],[88.2818,27.4055],[88.2774,27.4116],[88.2772,27.4193],[88.2691,27.4615],[88.2687,27.4895],[88.2709,27.4978],[88.2741,27.5033],[88.279,27.5089],[88.2842,27.5126],[88.2936,27.5185],[88.3218,27.5268],[88.3314,27.5278],[88.3378,27.5273],[88.3452,27.5261],[88.3583,27.521],[88.3638,27.5169],[88.3673,27.51],[88.3782,27.4972],[88.4013,27.4787],[88.4082,27.4754],[88.4099,27.47],[88.4097,27.4631],[88.4114,27.4581],[88.4186,27.4463],[88.4168,27.439],[88.4171,27.4295],[88.4193,27.4232],[88.4221,27.4183],[88.4293,27.4129],[88.4352,27.4042],[88.4392,27.3996],[88.4461,27.3932],[88.4563,27.3883],[88.4665,27.3872],[88.473,27.3853],[88.4811,27.3808],[88.4886,27.3781]]]},"properties":{"district_name":"South","raw_district_name":"South","state_code":"SK","state_name":"Sikkim","census_code":243,"data_source":"DataMeet India Maps (Census 2011 Boundaries)"}},{"type":"Feature","geometry":{"type":"Polygon","coordinates":[[[88.2842,27.5126],[88.279,27.5089],[88.2741,27.5033],[88.2709,27.4978],[88.2687,27.4895],[88.2691,27.4615],[88.2772,27.4193],[88.2774,27.4116],[88.2818,27.4055],[88.2867,27.4049],[88.298,27.4101],[88.3029,27.4143],[88.3083,27.4166],[88.3189,27.415],[88.3282,27.4172],[88.3341,27.4168],[88.3363,27.4102],[88.3415,27.406],[88.3456,27.4108],[88.3506,27.4139],[88.3533,27.4117],[88.3576,27.4026],[88.3602,27.399],[88.3609,27.3897],[88.36,27.3841],[88.3609,27.378],[88.3519,27.3738],[88.3418,27.3718],[88.3332,27.3685],[88.3305,27.3646],[88.3253,27.349],[88.3222,27.3457],[88.3075,27.3373],[88.3029,27.3339],[88.3007,27.3307],[88.2994,27.3265],[88.3027,27.3231],[88.3078,27.3211],[88.3113,27.3185],[88.3132,27.3154],[88.3136,27.3054],[88.312,27.3024],[88.3091,27.2992],[88.2985,27.2968],[88.2932,27.2946],[88.2829,27.2879],[88.2817,27.2861],[88.281,27.2813],[88.2836,27.2779],[88.2865,27.2753],[88.2919,27.2729],[88.2991,27.266],[88.3066,27.2606],[88.3082,27.2563],[88.3081,27.2458],[88.3058,27.2367],[88.3103,27.2258],[88.313,27.2245],[88.3225,27.2229],[88.3256,27.2202],[88.3316,27.2042],[88.3344,27.201],[88.3343,27.1985],[88.3369,27.1942],[88.3315,27.1916],[88.3332,27.1886],[88.3312,27.1873],[88.3222,27.1853],[88.3147,27.1814],[88.3121,27.1778],[88.307,27.1761],[88.3034,27.1734],[88.3026,27.1688],[88.299,27.164],[88.2967,27.163],[88.293,27.1539],[88.2896,27.1508],[88.2872,27.1504],[88.2847,27.1485],[88.2841,27.1442],[88.2826,27.1422],[88.2855,27.1305],[88.2847,27.1308],[88.2783,27.1298],[88.2708,27.127],[88.2589,27.125],[88.2475,27.12],[88.2399,27.1194],[88.2343,27.121],[88.2289,27.1249],[88.2213,27.1348],[88.2173,27.133],[88.2031,27.1359],[88.196,27.1341],[88.1911,27.1348],[88.1865,27.1343],[88.1801,27.1299],[88.1659,27.114],[88.1629,27.1117],[88.1598,27.1113],[88.1513,27.1167],[88.1441,27.1165],[88.1344,27.1227],[88.1308,27.1234],[88.1035,27.1351],[88.1002,27.1359],[88.0962,27.1384],[88.0934,27.1411],[88.0914,27.1446],[88.0905,27.1485],[88.0915,27.1607],[88.0908,27.1646],[88.0863,27.1675],[88.0807,27.174],[88.0799,27.1789],[88.0769,27.1845],[88.0751,27.1898],[88.0765,27.1939],[88.083,27.1984],[88.0826,27.2004],[88.0759,27.2043],[88.072,27.2074],[88.0694,27.2109],[88.0659,27.2135],[88.0544,27.2157],[88.0406,27.2206],[88.0317,27.2202],[88.0169,27.2164],[88.017,27.2188],[88.017,27.2189],[88.0171,27.2195],[88.0175,27.2213],[88.0203,27.2249],[88.0235,27.2319],[88.0247,27.2331],[88.0288,27.2393],[88.0289,27.2395],[88.0298,27.2402],[88.0332,27.2476],[88.0325,27.2687],[88.0352,27.2804],[88.039,27.2856],[88.0422,27.2895],[88.0437,27.2936],[88.0444,27.3006],[88.0488,27.3118],[88.051,27.3148],[88.055,27.3218],[88.0606,27.3268],[88.0616,27.3284],[88.0623,27.3291],[88.065,27.3379],[88.0648,27.3418],[88.0647,27.3431],[88.0639,27.3465],[88.0613,27.3532],[88.0572,27.3571],[88.057,27.3577],[88.05,27.3615],[88.05,27.3619],[88.0474,27.3637],[88.0455,27.3674],[88.0443,27.3731],[88.0442,27.3827],[88.0467,27.3986],[88.0489,27.407],[88.0509,27.4108],[88.0541,27.4145],[88.0576,27.4169],[88.0627,27.4204],[88.0675,27.4225],[88.0708,27.4257],[88.0709,27.4263],[88.0713,27.4286],[88.0697,27.4329],[88.0708,27.443],[88.0688,27.4507],[88.0642,27.4545],[88.0606,27.4624],[88.0587,27.4638],[88.0553,27.4663],[88.0536,27.4676],[88.0524,27.4705],[88.0516,27.471],[88.0506,27.4718],[88.048,27.4806],[88.0474,27.4929],[88.0474,27.4933],[88.0481,27.4956],[88.0519,27.5024],[88.0549,27.5049],[88.0549,27.5053],[88.0554,27.5053],[88.0561,27.506],[88.0601,27.5112],[88.062,27.517],[88.0631,27.5224],[88.0681,27.5267],[88.0701,27.5312],[88.0702,27.5321],[88.0701,27.5339],[88.0697,27.5341],[88.0673,27.5354],[88.0643,27.537],[88.0634,27.5373],[88.0633,27.5378],[88.0633,27.5395],[88.0663,27.5436],[88.0671,27.5491],[88.0704,27.5525],[88.0727,27.5534],[88.08,27.5575],[88.0807,27.5582],[88.0812,27.5598],[88.0824,27.5607],[88.0835,27.5616],[88.0836,27.5696],[88.0814,27.5729],[88.0806,27.5734],[88.0798,27.5793],[88.0835,27.5867],[88.086,27.5899],[88.0944,27.5963],[88.0944,27.5968],[88.105,27.6025],[88.107,27.6035],[88.1077,27.6039],[88.1112,27.6071],[88.114,27.6118],[88.1156,27.6134],[88.1163,27.6139],[88.1172,27.6178],[88.1296,27.6111],[88.1663,27.5998],[88.2123,27.581],[88.2205,27.5734],[88.2346,27.5568],[88.2403,27.5401],[88.2441,27.5345],[88.2506,27.5312],[88.2659,27.5255],[88.2842,27.5126]]]},"properties":{"district_name":"West","raw_district_name":"West","state_code":"SK","state_name":"Sikkim","census_code":242,"data_source":"DataMeet India Maps (Census 2011 Boundaries)"}}]}