{"type":"FeatureCollection","properties":{"state_code":"TR","state_name":"Tripura","data_source":"DataMeet India Maps"},"features":[{"type":"Feature","geometry":{"type":"Polygon","coordinates":[[[91.9131,24.1404],[91.9397,24.1055],[91.9617,24.0799],[91.9685,24.0718],[91.9894,24.0781],[92.0118,24.0889],[92.0534,24.0991],[92.0733,24.0971],[92.0715,24.0922],[92.0734,24.0741],[92.0708,24.063],[92.0701,24.0509],[92.0738,24.0414],[92.0737,24.0338],[92.0675,24.0307],[92.0716,24.0258],[92.0795,24.0158],[92.0839,24.0186],[92.0881,24.0145],[92.0908,24.0072],[92.0928,23.9996],[92.0914,23.9934],[92.0882,23.9889],[92.0909,23.9805],[92.0908,23.9711],[92.0964,23.9662],[92.0989,23.9609],[92.0972,23.9527],[92.0916,23.9434],[92.092,23.9387],[92.0956,23.9338],[92.1018,23.9342],[92.1078,23.9304],[92.1178,23.9284],[92.1294,23.9308],[92.1327,23.9254],[92.1358,23.9191],[92.1371,23.9143],[92.1379,23.9088],[92.1395,23.8979],[92.1428,23.8916],[92.1464,23.888],[92.1469,23.8826],[92.1527,23.8657],[92.1548,23.8593],[92.1576,23.8477],[92.1557,23.8329],[92.1564,23.8258],[92.1563,23.8163],[92.1578,23.811],[92.1591,23.7917],[92.1596,23.7843],[92.159,23.7784],[92.1602,23.7716],[92.1601,23.7642],[92.1585,23.7586],[92.1621,23.7528],[92.169,23.7525],[92.1745,23.748],[92.1741,23.7434],[92.1712,23.7378],[92.1623,23.7361],[92.1546,23.734],[92.1462,23.7284],[92.1411,23.7145],[92.1367,23.7073],[92.13,23.7026],[92.1258,23.6953],[92.115,23.6884],[92.111,23.681],[92.1068,23.6765],[92.1006,23.6756],[92.0958,23.6768],[92.0898,23.6764],[92.0848,23.6668],[92.0851,23.6597],[92.083,23.6535],[92.0812,23.6488],[92.0772,23.6455],[92.0704,23.6466],[92.0637,23.6465],[92.0577,23.6467],[92.0519,23.6463],[92.0421,23.6477],[92.0361,23.6499],[92.0263,23.6546],[92.0208,23.6582],[92.0124,23.6631],[92.0056,23.6754],[92.0001,23.6852],[91.9966,23.6946],[91.9919,23.7062],[91.9888,23.7188],[91.9839,23.7307],[91.9759,23.7346],[91.9709,23.7347],[91.9623,23.7329],[91.9564,23.728],[91.9545,23.7219],[91.9535,23.7134],[91.9577,23.7028],[91.9616,23.698],[91.9522,23.695],[91.9449,23.6915],[91.9407,23.6879],[91.939,23.6812],[91.9419,23.6707],[91.9404,23.6643],[91.9439,23.6568],[91.9459,23.6517],[91.9495,23.6463],[91.9491,23.6411],[91.9466,23.6352],[91.9482,23.6267],[91.9519,23.6202],[91.9581,23.6105],[91.9597,23.605],[91.9571,23.5967],[91.9559,23.5916],[91.9554,23.5861],[91.957,23.5771],[91.9567,23.5709],[91.9593,23.5652],[91.9625,23.5613],[91.9641,23.5537],[91.9652,23.5465],[91.967,23.5382],[91.9649,23.5309],[91.9617,23.5273],[91.9618,23.5188],[91.9672,23.5164],[91.971,23.5119],[91.9752,23.5012],[91.9768,23.4932],[91.9785,23.4872],[91.9787,23.4822],[91.9745,23.4788],[91.9672,23.4772],[91.9599,23.475],[91.9539,23.4738],[91.9468,23.4707],[91.9439,23.4666],[91.9432,23.4614],[91.9457,23.4544],[91.9457,23.4496],[91.9466,23.4445],[91.9461,23.439],[91.9425,23.4357],[91.9367,23.4348],[91.9278,23.4371],[91.9216,23.4383],[91.912,23.4393],[91.9037,23.4371],[91.8981,23.4355],[91.8926,23.4335],[91.8845,23.426],[91.8769,23.4162],[91.8667,23.4076],[91.8619,23.4362],[91.8365,23.4784],[91.8047,23.5243],[91.7919,23.5703],[91.7907,23.581],[91.7862,23.6187],[91.7839,23.6285],[91.7777,23.6553],[91.7822,23.6675],[91.7826,23.6792],[91.7832,23.6881],[91.7788,23.6907],[91.7772,23.7012],[91.7757,23.7099],[91.7729,23.7186],[91.787,23.7421],[91.7799,23.7496],[91.774,23.7708],[91.774,23.7807],[91.7782,23.7907],[91.7753,23.7994],[91.7824,23.8043],[91.7824,23.8068],[91.7752,23.8106],[91.7666,23.823],[91.7709,23.8205],[91.7752,23.8193],[91.7823,23.8192],[91.7823,23.8292],[91.7836,23.8341],[91.7836,23.8379],[91.7822,23.8441],[91.7835,23.8516],[91.7834,23.8702],[91.7862,23.8826],[91.779,23.8889],[91.7804,23.8963],[91.7775,23.9113],[91.7619,23.9188],[91.7605,23.9275],[91.7663,23.9324],[91.7636,23.9362],[91.7624,23.9424],[91.7627,23.9474],[91.7616,23.9523],[91.7548,23.9561],[91.7555,23.9623],[91.7575,23.9673],[91.7581,23.9723],[91.7574,23.9785],[91.7552,23.986],[91.7584,23.9994],[91.7599,24.0102],[91.7594,24.016],[91.7607,24.0209],[91.7609,24.0266],[91.7581,24.032],[91.7569,24.0373],[91.7584,24.0448],[91.7574,24.0552],[91.7558,24.0613],[91.7577,24.065],[91.7568,24.0683],[91.752,24.0728],[91.7577,24.0883],[91.7582,24.0947],[91.7561,24.1133],[91.7615,24.1383],[91.7609,24.1387],[91.7614,24.1413],[91.7678,24.1489],[91.7653,24.1556],[91.7625,24.1677],[91.7611,24.183],[91.7574,24.2],[91.7565,24.2135],[91.7535,24.2227],[91.7512,24.2366],[91.7498,24.2448],[91.7648,24.24],[91.7746,24.2342],[91.7799,24.2304],[91.7857,24.2267],[91.7929,24.2259],[91.7981,24.2216],[91.8037,24.2222],[91.8146,24.2227],[91.8224,24.2145],[91.8313,24.2135],[91.8439,24.2217],[91.848,24.2252],[91.8547,24.2205],[91.8552,24.2149],[91.8508,24.2107],[91.8489,24.2055],[91.8504,24.199],[91.8557,24.1912],[91.8654,24.1817],[91.872,24.174],[91.8767,24.1667],[91.8826,24.1587],[91.8854,24.151],[91.8899,24.1406],[91.8957,24.1355],[91.9024,24.1356],[91.9074,24.1369],[91.9131,24.1404]]]},"properties":{"district_name":"Dhalai","raw_district_name":"Dhalai","state_code":"TR","state_name":"Tripura","census_code":291,"data_source":"DataMeet India Maps (Census 2011 Boundaries)"}},{"type":"Feature","geometry":{"type":"Polygon","coordinates":[[[92.2334,24.5017],[92.2345,24.4985],[92.2348,24.4976],[92.2352,24.4964],[92.2356,24.495],[92.2365,24.4926],[92.2368,24.4911],[92.2396,24.4882],[92.234,24.483],[92.2304,24.4783],[92.2291,24.4702],[92.2313,24.4637],[92.2312,24.4586],[92.2324,24.4567],[92.2352,24.4547],[92.2361,24.452],[92.2362,24.4485],[92.2393,24.4455],[92.2566,24.4345],[92.2576,24.4307],[92.256,24.4172],[92.2594,24.4117],[92.2628,24.408],[92.2628,24.408],[92.2633,24.4063],[92.2627,24.403],[92.2627,24.403],[92.2642,24.3958],[92.2699,24.393],[92.2705,24.3891],[92.2731,24.3867],[92.2727,24.3844],[92.2699,24.3804],[92.2725,24.3776],[92.2723,24.3758],[92.2683,24.373],[92.2676,24.3715],[92.2681,24.3655],[92.2641,24.3604],[92.2128,24.2476],[92.2404,24.2489],[92.2595,24.2487],[92.2847,24.2502],[92.2917,24.2495],[92.2965,24.2499],[92.297,24.2477],[92.296,24.2469],[92.2951,24.2462],[92.2939,24.2425],[92.2947,24.2389],[92.2967,24.2363],[92.2961,24.2343],[92.2961,24.232],[92.2993,24.2298],[92.299,24.2276],[92.2975,24.2254],[92.3017,24.2233],[92.301,24.2227],[92.3009,24.222],[92.3007,24.2202],[92.3032,24.2198],[92.3136,24.2211],[92.3134,24.2193],[92.3095,24.2143],[92.3096,24.213],[92.3125,24.2092],[92.3159,24.2114],[92.3188,24.2072],[92.3244,24.2039],[92.3246,24.2029],[92.3231,24.2027],[92.3231,24.2027],[92.32,24.2025],[92.32,24.2007],[92.3238,24.198],[92.3249,24.1972],[92.3253,24.1957],[92.3243,24.1944],[92.3245,24.1929],[92.3292,24.1893],[92.3286,24.1873],[92.3294,24.1863],[92.3268,24.1843],[92.3268,24.1843],[92.3302,24.183],[92.3305,24.1802],[92.3298,24.1782],[92.3297,24.1728],[92.3283,24.1643],[92.3292,24.1627],[92.3316,24.1617],[92.3341,24.149],[92.3366,24.1449],[92.336,24.1425],[92.335,24.1417],[92.333,24.1428],[92.332,24.1422],[92.332,24.1386],[92.329,24.138],[92.328,24.1368],[92.3279,24.1333],[92.329,24.1298],[92.3285,24.1279],[92.3308,24.1261],[92.328,24.1228],[92.3283,24.1141],[92.3314,24.1113],[92.3316,24.1099],[92.329,24.1085],[92.3321,24.105],[92.332,24.1034],[92.3291,24.101],[92.3294,24.0993],[92.328,24.0968],[92.3312,24.0969],[92.3299,24.0942],[92.3276,24.0919],[92.3285,24.0873],[92.3281,24.0831],[92.3287,24.0803],[92.3277,24.0788],[92.3225,24.0757],[92.3226,24.0752],[92.326,24.0747],[92.3267,24.0746],[92.327,24.0727],[92.3248,24.072],[92.3233,24.0715],[92.3225,24.07],[92.323,24.0678],[92.3209,24.0669],[92.3188,24.0677],[92.3178,24.0673],[92.3165,24.065],[92.3187,24.0595],[92.3214,24.0569],[92.3183,24.0555],[92.32,24.0494],[92.3187,24.0483],[92.3165,24.0496],[92.3149,24.0469],[92.3151,24.0431],[92.3172,24.0377],[92.3168,24.0357],[92.3138,24.0329],[92.319,24.0295],[92.3189,24.0285],[92.3163,24.0262],[92.3187,24.0237],[92.318,24.0208],[92.3213,24.017],[92.3205,24.0161],[92.3185,24.0174],[92.317,24.017],[92.3168,24.0158],[92.3242,24.0047],[92.3271,24.0024],[92.3268,24.0001],[92.3286,23.9879],[92.3254,23.9857],[92.3267,23.9844],[92.3273,23.9839],[92.3274,23.9829],[92.3251,23.9815],[92.3236,23.9779],[92.3223,23.978],[92.3217,23.9735],[92.3192,23.9735],[92.3173,23.9703],[92.3146,23.9704],[92.3148,23.9694],[92.3122,23.9685],[92.3129,23.9592],[92.3122,23.9591],[92.3122,23.9591],[92.311,23.9588],[92.3122,23.9557],[92.3108,23.9439],[92.3123,23.9423],[92.313,23.9415],[92.3123,23.9395],[92.313,23.9328],[92.3176,23.9286],[92.3207,23.9244],[92.3274,23.9222],[92.3292,23.9213],[92.3302,23.9197],[92.3289,23.9171],[92.3307,23.91],[92.33,23.9058],[92.3294,23.9037],[92.3273,23.9045],[92.3253,23.9027],[92.3236,23.9029],[92.3225,23.9024],[92.3211,23.8896],[92.3202,23.8895],[92.3194,23.8881],[92.3186,23.8891],[92.318,23.8887],[92.3183,23.8879],[92.3185,23.8874],[92.3178,23.8862],[92.319,23.8844],[92.3188,23.8819],[92.3166,23.8823],[92.3158,23.8815],[92.3161,23.8799],[92.3167,23.8797],[92.317,23.8796],[92.3169,23.8792],[92.3166,23.8774],[92.3185,23.8759],[92.3199,23.8763],[92.3216,23.872],[92.3215,23.8681],[92.3205,23.8676],[92.318,23.8662],[92.3177,23.8653],[92.3197,23.8641],[92.3191,23.8635],[92.3151,23.8618],[92.3094,23.8609],[92.3068,23.8622],[92.3037,23.8621],[92.3001,23.8647],[92.2946,23.8638],[92.2947,23.8684],[92.2934,23.8696],[92.2915,23.8698],[92.2873,23.8653],[92.2873,23.8614],[92.2848,23.8557],[92.2761,23.8513],[92.2743,23.8474],[92.2735,23.84],[92.2754,23.8383],[92.2766,23.8349],[92.2816,23.8292],[92.2811,23.8245],[92.2832,23.8227],[92.283,23.8218],[92.2852,23.821],[92.2863,23.8151],[92.2853,23.814],[92.2832,23.8146],[92.2803,23.8135],[92.2796,23.8141],[92.2786,23.8151],[92.2762,23.8136],[92.269,23.8161],[92.2589,23.8134],[92.2602,23.8055],[92.2618,23.8033],[92.263,23.7981],[92.2632,23.79],[92.2673,23.7684],[92.2675,23.7649],[92.2666,23.7603],[92.2677,23.7548],[92.2658,23.7371],[92.2685,23.7244],[92.2601,23.7231],[92.2541,23.7221],[92.2492,23.7179],[92.244,23.71],[92.2463,23.7049],[92.2467,23.696],[92.24,23.69],[92.2376,23.6837],[92.2387,23.6755],[92.2385,23.6704],[92.2325,23.66],[92.2244,23.6529],[92.2154,23.6543],[92.2119,23.6612],[92.2149,23.673],[92.2169,23.6781],[92.2177,23.6857],[92.2168,23.691],[92.2129,23.6977],[92.2084,23.7049],[92.2009,23.7052],[92.1926,23.709],[92.1814,23.7081],[92.1783,23.7133],[92.1773,23.7218],[92.1763,23.7277],[92.1772,23.7378],[92.1712,23.7378],[92.1741,23.7434],[92.1745,23.748],[92.169,23.7525],[92.1621,23.7528],[92.1585,23.7586],[92.1601,23.7642],[92.1602,23.7716],[92.159,23.7784],[92.1596,23.7843],[92.1591,23.7917],[92.1578,23.811],[92.1563,23.8163],[92.1564,23.8258],[92.1557,23.8329],[92.1576,23.8477],[92.1548,23.8593],[92.1527,23.8657],[92.1469,23.8826],[92.1464,23.888],[92.1428,23.8916],[92.1395,23.8979],[92.1379,23.9088],[92.1371,23.9143],[92.1358,23.9191],[92.1327,23.9254],[92.1294,23.9308],[92.1178,23.9284],[92.1078,23.9304],[92.1018,23.9342],[92.0956,23.9338],[92.092,23.9387],[92.0916,23.9434],[92.0972,23.9527],[92.0989,23.9609],[92.0964,23.9662],[92.0908,23.9711],[92.0909,23.9805],[92.0882,23.9889],[92.0914,23.9934],[92.0928,23.9996],[92.0908,24.0072],[92.0881,24.0145],[92.0839,24.0186],[92.0795,24.0158],[92.0716,24.0258],[92.0675,24.0307],[92.0737,24.0338],[92.0738,24.0414],[92.0701,24.0509],[92.0708,24.063],[92.0734,24.0741],[92.0715,24.0922],[92.0733,24.0971],[92.0534,24.0991],[92.0118,24.0889],[91.9894,24.0781],[91.9685,24.0718],[91.9617,24.0799],[91.9397,24.1055],[91.9131,24.1404],[91.9154,24.1477],[91.9167,24.1588],[91.9187,24.1674],[91.9193,24.1766],[91.9206,24.1828],[91.9238,24.19],[91.9254,24.1988],[91.9295,24.2094],[91.9309,24.218],[91.9319,24.228],[91.935,24.2347],[91.9394,24.2466],[91.944,24.2577],[91.944,24.2647],[91.9447,24.2747],[91.9432,24.2833],[91.9398,24.2897],[91.9377,24.2967],[91.9347,24.3047],[91.9332,24.3106],[91.9296,24.3165],[91.9275,24.3217],[91.9262,24.3336],[91.9279,24.3391],[91.9366,24.3413],[91.9504,24.3486],[91.9623,24.358],[91.9697,24.3521],[91.973,24.3446],[91.9758,24.3389],[91.9815,24.3336],[91.9918,24.3283],[91.9986,24.328],[92.0048,24.3332],[92.0049,24.338],[91.9988,24.3446],[91.9923,24.3509],[91.988,24.3574],[91.9867,24.3623],[91.9835,24.3675],[91.9786,24.3739],[91.9746,24.3828],[91.9797,24.3864],[91.9873,24.3818],[91.994,24.3858],[91.9953,24.3905],[92.0059,24.393],[92.0103,24.3847],[92.0209,24.386],[92.0285,24.3841],[92.0366,24.3773],[92.0419,24.3769],[92.058,24.3753],[92.0694,24.3745],[92.0782,24.3743],[92.0858,24.3743],[92.0945,24.3744],[92.102,24.3778],[92.1098,24.3802],[92.1183,24.3797],[92.1242,24.3822],[92.127,24.3878],[92.1256,24.3957],[92.1303,24.4055],[92.1336,24.4104],[92.1363,24.4154],[92.1393,24.4217],[92.1475,24.4255],[92.1538,24.4252],[92.1607,24.4239],[92.1654,24.4214],[92.1718,24.4216],[92.1725,24.4262],[92.1691,24.4331],[92.1663,24.4396],[92.1644,24.4491],[92.1621,24.4586],[92.1602,24.4639],[92.1599,24.4715],[92.1571,24.4846],[92.1562,24.4903],[92.156,24.4957],[92.1543,24.5032],[92.1548,24.5129],[92.1565,24.5197],[92.1588,24.5247],[92.1704,24.5275],[92.1807,24.5246],[92.1876,24.5209],[92.1962,24.5173],[92.2049,24.5115],[92.2127,24.5072],[92.2211,24.5013],[92.2277,24.4986],[92.2334,24.5017]]]},"properties":{"district_name":"North Tripura","raw_district_name":"North Tripura","state_code":"TR","state_name":"Tripura","census_code":292,"data_source":"DataMeet India Maps (Census 2011 Boundaries)"}},{"type":"Feature","geometry":{"type":"Polygon","coordinates":[[[91.7788,23.6907],[91.7832,23.6881],[91.7826,23.6792],[91.7822,23.6675],[91.7777,23.6553],[91.7839,23.6285],[91.7862,23.6187],[91.7907,23.581],[91.7919,23.5703],[91.8047,23.5243],[91.8365,23.4784],[91.8619,23.4362],[91.8667,23.4076],[91.8619,23.4061],[91.8569,23.407],[91.8526,23.4053],[91.848,23.4023],[91.8429,23.3973],[91.8402,23.3927],[91.8399,23.3847],[91.8417,23.3788],[91.8414,23.3735],[91.8388,23.3692],[91.835,23.366],[91.8308,23.3601],[91.8247,23.3484],[91.8207,23.3467],[91.8157,23.3438],[91.8132,23.341],[91.8094,23.3374],[91.8065,23.3324],[91.808,23.3267],[91.8023,23.3181],[91.795,23.3116],[91.7918,23.3094],[91.7885,23.3065],[91.7877,23.3005],[91.7848,23.2921],[91.7823,23.288],[91.7804,23.2823],[91.7778,23.2764],[91.7772,23.27],[91.7779,23.2591],[91.7785,23.2512],[91.7803,23.2467],[91.7846,23.2398],[91.7886,23.2364],[91.7916,23.2313],[91.7918,23.2261],[91.7911,23.2131],[91.7925,23.2047],[91.7931,23.2009],[91.798,23.1954],[91.7993,23.192],[91.8022,23.187],[91.8054,23.1799],[91.8066,23.1718],[91.8093,23.163],[91.8109,23.1557],[91.8111,23.1513],[91.8108,23.1458],[91.8114,23.1346],[91.813,23.1302],[91.8145,23.1229],[91.8154,23.119],[91.819,23.1133],[91.8203,23.1067],[91.819,23.1032],[91.8213,23.0993],[91.8258,23.1003],[91.834,23.1004],[91.8353,23.0958],[91.8334,23.0922],[91.8271,23.0869],[91.8221,23.0859],[91.8165,23.0821],[91.8203,23.0783],[91.8148,23.0725],[91.8109,23.0695],[91.807,23.0682],[91.8021,23.0682],[91.7961,23.0686],[91.7924,23.0707],[91.7876,23.0739],[91.7824,23.0728],[91.779,23.0699],[91.7773,23.0639],[91.7801,23.0572],[91.7824,23.0529],[91.7835,23.048],[91.7857,23.0428],[91.7807,23.0334],[91.774,23.041],[91.7681,23.0361],[91.7571,23.0233],[91.7552,23.0194],[91.7482,23.013],[91.7392,23.0084],[91.7306,23.0011],[91.7269,22.9943],[91.7158,22.9876],[91.7102,22.9875],[91.7035,22.9909],[91.6966,22.99],[91.6916,22.9847],[91.6813,22.9817],[91.6773,22.9816],[91.6746,22.9789],[91.6705,22.9786],[91.6648,22.981],[91.6596,22.9805],[91.6544,22.9772],[91.6386,22.9687],[91.6361,22.9654],[91.6298,22.9547],[91.6215,22.9442],[91.6169,22.9444],[91.615,22.9488],[91.6118,22.9527],[91.6074,22.9579],[91.6107,22.9637],[91.6089,22.9671],[91.6051,22.9701],[91.6004,22.9734],[91.5954,22.977],[91.5908,22.9767],[91.5868,22.975],[91.5792,22.97],[91.5729,22.9732],[91.5645,22.9779],[91.5582,22.9818],[91.5576,22.9861],[91.5591,22.9899],[91.5603,22.9946],[91.5609,22.9984],[91.5588,23.0022],[91.5528,22.9991],[91.5487,22.9948],[91.5459,22.9977],[91.5475,23.0038],[91.5496,23.0107],[91.5497,23.017],[91.5435,23.0242],[91.5475,23.0297],[91.5499,23.0332],[91.5517,23.0392],[91.5484,23.0412],[91.5419,23.0391],[91.5372,23.0397],[91.5362,23.0465],[91.5377,23.0503],[91.5386,23.0572],[91.5345,23.0579],[91.5302,23.0616],[91.5345,23.0643],[91.5357,23.0693],[91.5329,23.0765],[91.5293,23.0824],[91.5319,23.0854],[91.5337,23.0897],[91.527,23.0924],[91.5248,23.0998],[91.5236,23.1034],[91.5177,23.1073],[91.5171,23.1113],[91.5199,23.1184],[91.5172,23.1228],[91.5079,23.1273],[91.507,23.1325],[91.5124,23.1377],[91.5178,23.1442],[91.5129,23.1469],[91.5049,23.1476],[91.5055,23.1514],[91.5011,23.1537],[91.4965,23.153],[91.494,23.1559],[91.4954,23.1636],[91.4988,23.1711],[91.4985,23.1754],[91.497,23.1801],[91.5028,23.1837],[91.5075,23.1864],[91.5044,23.1902],[91.4916,23.191],[91.483,23.1906],[91.4773,23.1938],[91.4755,23.1983],[91.4792,23.2012],[91.4877,23.2049],[91.4867,23.2094],[91.4854,23.2139],[91.4828,23.2189],[91.4639,23.2161],[91.4584,23.2201],[91.4615,23.2238],[91.4662,23.2257],[91.4707,23.2325],[91.4628,23.2464],[91.4547,23.247],[91.4536,23.2514],[91.4571,23.2583],[91.4534,23.2619],[91.4487,23.2629],[91.4315,23.2619],[91.4249,23.2605],[91.4226,23.2639],[91.422,23.268],[91.4197,23.275],[91.4162,23.2822],[91.4116,23.2818],[91.4127,23.2766],[91.4167,23.2612],[91.4137,23.2577],[91.4092,23.2614],[91.4062,23.2653],[91.4021,23.2631],[91.4027,23.2575],[91.409,23.2534],[91.4056,23.2487],[91.4011,23.2453],[91.4014,23.2389],[91.4028,23.2353],[91.4032,23.2304],[91.3954,23.2288],[91.3916,23.2255],[91.3914,23.2173],[91.3885,23.2131],[91.3885,23.2093],[91.3915,23.2034],[91.387,23.2003],[91.3845,23.1952],[91.3852,23.1908],[91.3848,23.1833],[91.3881,23.1739],[91.3892,23.1696],[91.3885,23.1608],[91.3957,23.1513],[91.3969,23.145],[91.3988,23.1395],[91.402,23.1177],[91.4062,23.1155],[91.4078,23.1114],[91.4077,23.1072],[91.4062,23.1033],[91.4069,23.099],[91.4087,23.0937],[91.4113,23.0887],[91.4148,23.0833],[91.4195,23.0783],[91.4216,23.0715],[91.4184,23.067],[91.4142,23.0642],[91.4041,23.0625],[91.3931,23.0622],[91.3855,23.0653],[91.3816,23.0687],[91.378,23.0713],[91.3707,23.0749],[91.3683,23.0787],[91.3662,23.083],[91.3621,23.0878],[91.3588,23.092],[91.3564,23.0955],[91.3538,23.1005],[91.3521,23.1048],[91.3505,23.1103],[91.3485,23.1146],[91.3465,23.1187],[91.3445,23.1227],[91.3396,23.1372],[91.3385,23.1467],[91.3349,23.1557],[91.3279,23.1644],[91.3279,23.1743],[91.328,23.1814],[91.3274,23.1886],[91.3271,23.1951],[91.3267,23.2047],[91.3274,23.2099],[91.3281,23.2161],[91.3277,23.2246],[91.3272,23.2316],[91.3267,23.2384],[91.3233,23.2458],[91.3291,23.2529],[91.3259,23.2569],[91.32,23.2566],[91.3188,23.2633],[91.3158,23.2669],[91.3152,23.2733],[91.3218,23.2761],[91.3275,23.2749],[91.3332,23.2749],[91.3389,23.2761],[91.3488,23.2811],[91.3559,23.2872],[91.3559,23.2897],[91.3658,23.2959],[91.3714,23.2984],[91.3714,23.3021],[91.3813,23.322],[91.387,23.3232],[91.3869,23.3269],[91.3912,23.3344],[91.3897,23.3406],[91.3897,23.3518],[91.3982,23.3542],[91.4067,23.3604],[91.4109,23.3629],[91.4138,23.3654],[91.4152,23.3691],[91.4209,23.3716],[91.4194,23.3778],[91.4194,23.3853],[91.4108,23.3878],[91.4009,23.3928],[91.3937,23.394],[91.3838,23.4015],[91.3837,23.4114],[91.3865,23.4214],[91.3865,23.4276],[91.385,23.4313],[91.3793,23.4338],[91.3765,23.4425],[91.3793,23.4475],[91.3792,23.455],[91.382,23.4661],[91.3877,23.4698],[91.3905,23.476],[91.382,23.481],[91.3834,23.486],[91.3833,23.4972],[91.3805,23.4997],[91.3776,23.5084],[91.3775,23.5146],[91.3818,23.5183],[91.3889,23.5195],[91.3975,23.5195],[91.4003,23.522],[91.4003,23.5245],[91.3988,23.5282],[91.396,23.532],[91.3988,23.5369],[91.3974,23.5406],[91.3973,23.5494],[91.3944,23.5531],[91.3987,23.5568],[91.3987,23.563],[91.3986,23.5692],[91.3986,23.5742],[91.3972,23.5804],[91.4057,23.5841],[91.4171,23.594],[91.4298,23.6027],[91.4327,23.6077],[91.4369,23.6126],[91.4369,23.6164],[91.4341,23.6176],[91.4397,23.6213],[91.4454,23.6263],[91.4482,23.6325],[91.4568,23.6374],[91.4624,23.6523],[91.4624,23.6548],[91.4724,23.661],[91.4766,23.6659],[91.4823,23.6672],[91.4866,23.6721],[91.4923,23.6746],[91.5008,23.6833],[91.505,23.6907],[91.5053,23.6927],[91.5064,23.6994],[91.5136,23.6981],[91.5178,23.6956],[91.5235,23.6969],[91.5235,23.6993],[91.5349,23.7055],[91.5335,23.708],[91.5363,23.7217],[91.542,23.7204],[91.5506,23.7216],[91.5562,23.7266],[91.5648,23.7303],[91.5719,23.7389],[91.5747,23.7464],[91.5719,23.7501],[91.5704,23.7563],[91.5747,23.7551],[91.579,23.7563],[91.5861,23.7526],[91.5961,23.755],[91.5975,23.7587],[91.6032,23.7587],[91.616,23.7611],[91.6303,23.7611],[91.632,23.7618],[91.6374,23.761],[91.6446,23.7598],[91.6531,23.7585],[91.6688,23.7584],[91.676,23.7571],[91.6803,23.7546],[91.6888,23.7533],[91.6931,23.7571],[91.6988,23.7558],[91.7031,23.7558],[91.7059,23.7607],[91.7088,23.7632],[91.713,23.7619],[91.7145,23.7545],[91.7173,23.7532],[91.7202,23.7445],[91.7302,23.7382],[91.7316,23.7382],[91.7373,23.7332],[91.7374,23.7283],[91.7388,23.7245],[91.7416,23.7233],[91.7417,23.717],[91.7388,23.7096],[91.7303,23.7022],[91.7274,23.696],[91.7289,23.6935],[91.7331,23.6922],[91.7374,23.6885],[91.7403,23.6822],[91.746,23.6772],[91.7474,23.6698],[91.7517,23.6735],[91.7546,23.6772],[91.7588,23.6797],[91.7602,23.6821],[91.7745,23.6846],[91.7788,23.6907]]]},"properties":{"district_name":"South Tripura","raw_district_name":"South Tripura","state_code":"TR","state_name":"Tripura","census_code":290,"data_source":"DataMeet India Maps (Census 2011 Boundaries)"}},{"type":"Feature","geometry":{"type":"Polygon","coordinates":[[[91.7609,24.1387],[91.7615,24.1383],[91.7561,24.1133],[91.7582,24.0947],[91.7577,24.0883],[91.752,24.0728],[91.7568,24.0683],[91.7577,24.065],[91.7558,24.0613],[91.7574,24.0552],[91.7584,24.0448],[91.7569,24.0373],[91.7581,24.032],[91.7609,24.0266],[91.7607,24.0209],[91.7594,24.016],[91.7599,24.0102],[91.7584,23.9994],[91.7552,23.986],[91.7574,23.9785],[91.7581,23.9723],[91.7575,23.9673],[91.7555,23.9623],[91.7548,23.9561],[91.7616,23.9523],[91.7627,23.9474],[91.7624,23.9424],[91.7636,23.9362],[91.7663,23.9324],[91.7605,23.9275],[91.7619,23.9188],[91.7775,23.9113],[91.7804,23.8963],[91.779,23.8889],[91.7862,23.8826],[91.7834,23.8702],[91.7835,23.8516],[91.7822,23.8441],[91.7836,23.8379],[91.7836,23.8341],[91.7823,23.8292],[91.7823,23.8192],[91.7752,23.8193],[91.7709,23.8205],[91.7666,23.823],[91.7752,23.8106],[91.7824,23.8068],[91.7824,23.8043],[91.7753,23.7994],[91.7782,23.7907],[91.774,23.7807],[91.774,23.7708],[91.7799,23.7496],[91.787,23.7421],[91.7729,23.7186],[91.7757,23.7099],[91.7772,23.7012],[91.7788,23.6907],[91.7745,23.6846],[91.7602,23.6821],[91.7588,23.6797],[91.7546,23.6772],[91.7517,23.6735],[91.7474,23.6698],[91.746,23.6772],[91.7403,23.6822],[91.7374,23.6885],[91.7331,23.6922],[91.7289,23.6935],[91.7274,23.696],[91.7303,23.7022],[91.7388,23.7096],[91.7417,23.717],[91.7416,23.7233],[91.7388,23.7245],[91.7374,23.7283],[91.7373,23.7332],[91.7316,23.7382],[91.7302,23.7382],[91.7202,23.7445],[91.7173,23.7532],[91.7145,23.7545],[91.713,23.7619],[91.7088,23.7632],[91.7059,23.7607],[91.7031,23.7558],[91.6988,23.7558],[91.6931,23.7571],[91.6888,23.7533],[91.6803,23.7546],[91.676,23.7571],[91.6688,23.7584],[91.6531,23.7585],[91.6446,23.7598],[91.6374,23.761],[91.632,23.7618],[91.6303,23.7611],[91.616,23.7611],[91.6032,23.7587],[91.5975,23.7587],[91.5961,23.755],[91.5861,23.7526],[91.579,23.7563],[91.5747,23.7551],[91.5704,23.7563],[91.5719,23.7501],[91.5747,23.7464],[91.5719,23.7389],[91.5648,23.7303],[91.5562,23.7266],[91.5506,23.7216],[91.542,23.7204],[91.5363,23.7217],[91.5335,23.708],[91.5349,23.7055],[91.5235,23.6993],[91.5235,23.6969],[91.5178,23.6956],[91.5136,23.6981],[91.5064,23.6994],[91.5053,23.6927],[91.505,23.6907],[91.5008,23.6833],[91.4923,23.6746],[91.4866,23.6721],[91.4823,23.6672],[91.4766,23.6659],[91.4724,23.661],[91.4624,23.6548],[91.4624,23.6523],[91.4568,23.6374],[91.4482,23.6325],[91.4454,23.6263],[91.4397,23.6213],[91.4341,23.6176],[91.4369,23.6164],[91.4369,23.6126],[91.4327,23.6077],[91.4298,23.6027],[91.4171,23.594],[91.4057,23.5841],[91.3972,23.5804],[91.3986,23.5742],[91.3986,23.5692],[91.3987,23.563],[91.3987,23.5568],[91.3944,23.5531],[91.3973,23.5494],[91.3974,23.5406],[91.3988,23.5369],[91.396,23.532],[91.3988,23.5282],[91.4003,23.5245],[91.4003,23.522],[91.3975,23.5195],[91.3889,23.5195],[91.3818,23.5183],[91.3775,23.5146],[91.3776,23.5084],[91.3805,23.4997],[91.3833,23.4972],[91.3834,23.486],[91.382,23.481],[91.3905,23.476],[91.3877,23.4698],[91.382,23.4661],[91.3792,23.455],[91.3793,23.4475],[91.3765,23.4425],[91.3793,23.4338],[91.385,23.4313],[91.3865,23.4276],[91.3865,23.4214],[91.3837,23.4114],[91.3838,23.4015],[91.3937,23.394],[91.4009,23.3928],[91.4108,23.3878],[91.4194,23.3853],[91.4194,23.3778],[91.4209,23.3716],[91.4152,23.3691],[91.4138,23.3654],[91.4109,23.3629],[91.4067,23.3604],[91.3982,23.3542],[91.3897,23.3518],[91.3897,23.3406],[91.3912,23.3344],[91.3869,23.3269],[91.387,23.3232],[91.3813,23.322],[91.3714,23.3021],[91.3714,23.2984],[91.3658,23.2959],[91.3559,23.2897],[91.3559,23.2872],[91.3488,23.2811],[91.3389,23.2761],[91.3332,23.2749],[91.3275,23.2749],[91.3218,23.2761],[91.3152,23.2733],[91.3194,23.2782],[91.3181,23.283],[91.3127,23.2838],[91.3086,23.2851],[91.3047,23.2867],[91.3029,23.2928],[91.3041,23.2977],[91.31,23.3031],[91.3152,23.3048],[91.3179,23.3086],[91.3161,23.3138],[91.3118,23.316],[91.3062,23.3161],[91.302,23.3159],[91.2945,23.3203],[91.2954,23.3244],[91.297,23.3279],[91.299,23.3325],[91.3002,23.3399],[91.3044,23.3455],[91.309,23.3462],[91.314,23.349],[91.316,23.3526],[91.317,23.36],[91.3108,23.3577],[91.3066,23.3543],[91.3042,23.3502],[91.2997,23.3505],[91.2986,23.3559],[91.2952,23.3607],[91.2918,23.3701],[91.2973,23.373],[91.2966,23.3796],[91.2928,23.3809],[91.2902,23.376],[91.2861,23.3766],[91.2842,23.3855],[91.2805,23.3965],[91.2804,23.4016],[91.2827,23.4063],[91.2818,23.4114],[91.2775,23.418],[91.2738,23.4211],[91.2708,23.4235],[91.2704,23.4295],[91.2725,23.4329],[91.2594,23.4484],[91.2544,23.4625],[91.2519,23.4697],[91.2497,23.4897],[91.2427,23.49],[91.2399,23.494],[91.238,23.4995],[91.2324,23.4989],[91.225,23.4991],[91.2232,23.5044],[91.2204,23.5115],[91.2136,23.5107],[91.2081,23.5135],[91.2056,23.5204],[91.208,23.5324],[91.212,23.5372],[91.2147,23.5466],[91.2133,23.5501],[91.2059,23.548],[91.1998,23.5516],[91.1985,23.5617],[91.1955,23.5661],[91.1823,23.5837],[91.1784,23.5873],[91.1789,23.5957],[91.1748,23.5979],[91.1666,23.5981],[91.1632,23.6014],[91.1633,23.6102],[91.1632,23.618],[91.1607,23.6272],[91.1612,23.6386],[91.1637,23.6442],[91.1612,23.6542],[91.1615,23.6635],[91.1653,23.6646],[91.1721,23.6624],[91.1832,23.6556],[91.1959,23.6529],[91.1974,23.6468],[91.2031,23.6455],[91.2074,23.6496],[91.2084,23.6581],[91.2083,23.6659],[91.2064,23.6714],[91.2076,23.6822],[91.2047,23.6897],[91.1956,23.6888],[91.186,23.6895],[91.1748,23.6886],[91.1648,23.6885],[91.1578,23.6894],[91.1566,23.6955],[91.1567,23.7024],[91.1551,23.7068],[91.1525,23.7115],[91.1549,23.7257],[91.1548,23.7293],[91.1586,23.7362],[91.1641,23.7459],[91.1674,23.7487],[91.1755,23.7472],[91.1901,23.7517],[91.2,23.7544],[91.2058,23.754],[91.2141,23.7503],[91.2228,23.7415],[91.2276,23.7453],[91.2301,23.7597],[91.231,23.7714],[91.2299,23.7806],[91.2284,23.7869],[91.2318,23.7949],[91.2348,23.8008],[91.2347,23.8076],[91.2388,23.8137],[91.2458,23.8222],[91.2476,23.8261],[91.254,23.8377],[91.2527,23.8432],[91.2502,23.8481],[91.2458,23.8567],[91.2426,23.864],[91.2412,23.8709],[91.2401,23.8767],[91.2332,23.8857],[91.2347,23.8958],[91.2369,23.9035],[91.2434,23.9074],[91.2471,23.9126],[91.2461,23.9195],[91.2425,23.9226],[91.2383,23.9248],[91.242,23.9283],[91.2618,23.9256],[91.2689,23.9252],[91.2766,23.9284],[91.276,23.933],[91.2732,23.9365],[91.2691,23.9404],[91.2654,23.947],[91.2692,23.9538],[91.2704,23.9578],[91.2741,23.9613],[91.2778,23.9682],[91.2805,23.9741],[91.2845,23.9801],[91.2897,23.9798],[91.2896,23.9758],[91.2907,23.9704],[91.2974,23.9699],[91.3017,23.9734],[91.3046,23.9782],[91.3047,23.9854],[91.3073,23.9895],[91.3167,23.991],[91.324,23.9912],[91.3282,23.9929],[91.3344,23.9907],[91.3382,23.985],[91.3408,23.9818],[91.35,23.9807],[91.357,23.9829],[91.3633,23.9852],[91.3681,23.9802],[91.3729,23.978],[91.3799,23.9761],[91.3854,23.9759],[91.3826,23.9883],[91.3803,23.9931],[91.3795,23.9984],[91.3835,24.0067],[91.3866,24.0127],[91.3912,24.0192],[91.3956,24.0226],[91.3969,24.0269],[91.3959,24.0317],[91.3993,24.0374],[91.4005,24.041],[91.4025,24.0453],[91.4042,24.0539],[91.397,24.0593],[91.3934,24.0629],[91.3862,24.0689],[91.384,24.0726],[91.3827,24.0788],[91.3816,24.0837],[91.3823,24.0942],[91.3807,24.1006],[91.3821,24.1049],[91.3877,24.109],[91.3936,24.1081],[91.3977,24.1072],[91.4059,24.1076],[91.4142,24.1088],[91.4282,24.1088],[91.4357,24.1064],[91.4389,24.1029],[91.4497,24.103],[91.456,24.1013],[91.4626,24.0981],[91.4697,24.0968],[91.4806,24.0979],[91.4902,24.0976],[91.4966,24.0963],[91.4979,24.0924],[91.4985,24.0887],[91.5015,24.0861],[91.5073,24.085],[91.5166,24.0838],[91.521,24.0831],[91.5277,24.0818],[91.5368,24.0803],[91.5463,24.0782],[91.5535,24.0758],[91.5639,24.0753],[91.5696,24.0759],[91.5739,24.079],[91.5785,24.0802],[91.585,24.0782],[91.5909,24.0745],[91.5964,24.0764],[91.6016,24.0784],[91.6055,24.0806],[91.6034,24.0859],[91.6026,24.0897],[91.603,24.0954],[91.6107,24.0953],[91.6158,24.0947],[91.6203,24.0948],[91.6249,24.0952],[91.6298,24.0966],[91.6383,24.1032],[91.6425,24.1095],[91.6443,24.1144],[91.6449,24.1202],[91.6425,24.1267],[91.6408,24.1311],[91.6403,24.1366],[91.6403,24.1416],[91.6405,24.1453],[91.6442,24.1506],[91.6468,24.1539],[91.6473,24.1577],[91.6486,24.1642],[91.6482,24.1694],[91.6495,24.1742],[91.6515,24.1786],[91.6568,24.1819],[91.6626,24.1855],[91.6639,24.1891],[91.663,24.1932],[91.6599,24.1976],[91.6584,24.2019],[91.6568,24.2061],[91.6555,24.212],[91.6544,24.2194],[91.6582,24.2242],[91.6627,24.2276],[91.6674,24.2314],[91.6714,24.2331],[91.6756,24.2321],[91.6739,24.2272],[91.6731,24.2229],[91.6717,24.218],[91.6713,24.2137],[91.6729,24.2101],[91.6798,24.2048],[91.6834,24.1982],[91.6857,24.1867],[91.6902,24.1766],[91.6946,24.1668],[91.6989,24.1623],[91.7022,24.1603],[91.7064,24.1601],[91.71,24.1625],[91.7132,24.16],[91.7156,24.1546],[91.7204,24.1542],[91.7263,24.1508],[91.7313,24.1483],[91.7391,24.147],[91.7459,24.1445],[91.7498,24.1422],[91.7558,24.1422],[91.7609,24.1387]]]},"properties":{"district_name":"West Tripura","raw_district_name":"West Tripura","state_code":"TR","state_name":"Tripura","census_code":289,"data_source":"DataMeet India Maps (Census 2011 Boundaries)"}}]}